NAME,RECORD_ID,ADDRESS_1,ADDRESS_2,BORO,X,Y,CUISINE,PHONE
W CAFE,50018480,390 5TH AVE,"NEW YORK, NY 10018",Manhattan,988661,212452,American ,212-563-9444
(LIBRARY)  FOUR & TWENTY BLACKBIRDS,50007884,10 GRAND ARMY PLZ,"BROOKLYN, NY 11238",Brooklyn,992830,184409,Cafe/Coffee/Tea,347-574-3474
1.5 DAK GALBI INC.,50068567,15803 NORTHERN BLVD,"FLUSHING, NY 11358",Queens,1037663,217483,Korean,917-285-2772
101 WILSON BAR,50065528,101 WILSON AVE,"BROOKLYN, NY 11237",Brooklyn,1004458,194862,American ,650-283-2056
108 FOOD DRIED HOT POT,50059935,2794 BROADWAY,"NEW YORK, NY 10025",Manhattan,993210,231750,Chinese,917-675-6878
109 WEST BROADWAY FOOD & WINE LLC,50060015,109 W BROADWAY,"NEW YORK, NY 10013",Manhattan,981825,200170,Other,646-422-7495
141 EL KUCHO MEXICAN RESTAURANT,50070775,141 WILSON AVE,"BROOKLYN, NY 11237",Brooklyn,1004888,194543,Other,917-966-5124
19 CAFE,50015841,84 MANHATTAN AVE,"BROOKLYN, NY 11206",Brooklyn,999612,196219,Cafe/Coffee/Tea,718-387-8777
1979,50071407,8521 4TH AVE,"BROOKLYN, NY 11209",Brooklyn,976444,166379,Other,646-915-5214
2 BACI PIZZERIA,50035346,345A NOSTRAND AVE,"BROOKLYN, NY 11216",Brooklyn,997903,189369,Pizza/Italian,718-576-6161
21 BAR,50044708,4318 BROADWAY,"NEW YORK, NY 10033",Manhattan,1002284,249677,American ,917-975-2690
215 BUFFET,50070605,21507 JAMAICA AVE,"QUEENS VILLAGE, NY 11428",Queens,1056196,200669,Scandinavian,917-584-9429
29B,50070512,29 AVENUE B,"NEW YORK, NY 10009",Manhattan,988923,202473,Other,646-634-4177
2ND CITY,50046212,525 HUDSON ST,"NEW YORK, NY 10014",Manhattan,982517,206714,Filipino,917-639-3262
3 BLACK CATS CAFE/CAKERY,50051296,3 BELMONT AVE,"BROOKLYN, NY 11212",Brooklyn,1009157,182825,Cafe/Coffee/Tea,347-425-9494
321 ICE CREAM SHOP,50038523,288 GRAND ST,"BROOKLYN, NY 11211",Brooklyn,995992,199062,"Ice Cream, Gelato, Yogurt, Ices",917-667-3280
5 SENSES,50070203,9 W 32ND ST,"NEW YORK, NY 10001",Manhattan,988115,211574,Other,212-441-1000
53RD GOURMET DELI,50066463,1301 AVE OF TH AMER,"NEW YORK, NY 10019",Manhattan,,,American ,212-974-6075
575 PUB ON SECOND,50054535,93 2ND AVE,"NEW YORK, NY 10003",Manhattan,987356,204166,American ,917-770-3962
591 CHICKEN CUTLET,50070730,13655 ROOSEVELT AVE,"FLUSHING, NY 11354",Queens,1031812,216223,Chinese,347-667-9426
"66S FUSION, INC.",50071775,130 FLUSHING AVE,"BROOKLYN, NY 11205",Brooklyn,992092,193532,Other,917-917-7703
"66S FUSION, INC.",50071778,8 VANDERBILT AVE,"BROOKLYN, NY 11205",Brooklyn,992372,193381,Other,917-912-2703
7 GRAMS CAFFE,50014520,275 7TH AVE,"NEW YORK, NY 10001",Manhattan,985792,210971,Cafe/Coffee/Tea,212-727-1777
72 CIBAO RESTAURANT,50069252,72 CLINTON ST,"NEW YORK, NY 10002",Manhattan,988416,201320,"Latin (Cuban, Dominican, Puerto Rican, South & Central American)",212-388-9824
750 MYRTLE DINER,50034497,750 MYRTLE AVE,"BROOKLYN, NY 11205",Brooklyn,997335,192472,American ,201-759-9585
99 ROGERS,50040061,99 ROGERS AVE,"BROOKLYN, NY 11216",Brooklyn,997325,184911,American ,718-708-4933
A CANAAN SUSHI,50046619,154 W 29TH ST,"NEW YORK, NY 10001",Manhattan,986579,211536,Japanese,212-947-9298
A LA MODE SHOPPE,50036292,360 E 55TH ST,"NEW YORK, NY 10022",Manhattan,993981,215228,"Ice Cream, Gelato, Yogurt, Ices",917-639-3401
A MODO MIO WOOD FRIED PIZZA BAR & GRILL,50057434,128 METROPOLITAN AVE,"BROOKLYN, NY 11249",Brooklyn,994612,200253,Italian,718-599-0200
A TASTE OF BENATERI'S AT EDGEWATER,50039875,11105 14TH AVE,"COLLEGE POINT, NY 11356",Queens,1024175,225542,Sandwiches,718-463-6474
A&E SUPPLY CO.,50056466,548 4TH AVE,"BROOKLYN, NY 11215",Brooklyn,986561,182221,American ,718-635-3388
A+ ROOF BAR,50039571,3916 COLLEGE POINT BLVD,"FLUSHING, NY 11354",Queens,1030105,215773,"Bottled beverages, including water, sodas, juices, etc.",917-855-8916
Abou Bakery,50060808,21023 JAMAICA AVE,"QUEENS VILLAGE, NY 11428",Queens,1053525,199858,Bakery,718-464-8300
ACRI CAFE,50043524,1315 COMMERCE AVE,"BRONX, NY 10461",Bronx,1028473,243883,Pizza/Italian,718-829-6000
ADVENTURE CAFE,50038410,85 DELANCEY ST,"NEW YORK, NY 10002",Manhattan,987116,201222,Cafe/Coffee/Tea,646-847-2367
AFRICA KINE,50040217,2267 ADAM CLAYTON POWELL JR BLVD,"NEW YORK, NY 10030",Manhattan,999627,235940,African,212-666-9400
AIRRANG USA,50053671,4104 163RD ST,"FLUSHING, NY 11358",Queens,1038846,216668,Korean,718-321-0185
AITA PIZZERIA,50066244,373 WAVERLY AVE,"BROOKLYN, NY 11238",Brooklyn,993519,189550,Pizza,917-607-7627
Aita Trattoria,50008983,798A FRANKLIN AVE,"BROOKLYN, NY 11238",Brooklyn,995954,183797,Italian,917-966-2670
AJ PIZZERIA,50016615,4412 FORT HAMILTON PKWY,"BROOKLYN, NY 11219",Brooklyn,985791,172640,Pizza/Italian,718-871-5745
AKAMI SUSHI,50015159,1771 1ST AVE,"NEW YORK, NY 10128",Manhattan,998988,223618,Japanese,212-828-8668
ALAYNA BEAUTY AND SMOOTHIE LOUNGE,50063410,1670 SOUTHERN BLVD,"BRONX, NY 10460",Bronx,1015080,243861,"Juice, Smoothies, Fruit Salads",646-415-3563
ALENBI KITCHEN,50070299,887 NOSTRAND AVE,"BROOKLYN, NY 11225",Brooklyn,997897,182094,Other,786-395-5944
ALEX PIZZA & DELI,50057753,7020 35TH AVE,"JACKSON HEIGHTS, NY 11372",Queens,1013187,212771,American ,718-779-7200
ALFREDO 100,50006799,7 E 54TH ST,"NEW YORK, NY 10022",Manhattan,991207,216474,Italian,860-840-7947
ALICE'S MARKET,50048034,1081 FULTON ST,"BROOKLYN, NY 11238",Brooklyn,995789,187645,American ,718-618-0153
ALIDORO,50015128,18 E 39TH ST,"NEW YORK, NY 10016",Manhattan,989475,212920,Italian,646-692-4330
ALPHAVILLE,50012426,140 WILSON AVE,"BROOKLYN, NY 11237",Brooklyn,1004881,194541,American ,201-304-2844
AMAZURA,50040583,9112 144TH PL,"JAMAICA, NY 11435",Queens,1036909,194563,American ,718-298-6760
AMBIANCE WINE & HOOKAH LOUNGE,50044344,1949 RICHMOND AVE,"STATEN ISLAND, NY 10314",Staten Island,939006,158064,Italian,718-698-6769
AMELIE WINE BAR,50062669,566 AMSTERDAM AVE,"NEW YORK, NY 10024",Manhattan,991355,226594,Other,415-310-4853
AMERICAN NEW YORK BAGEL,50055645,8619 NORTHERN BLVD,"JACKSON HEIGHTS, NY 11372",Queens,1017110,214725,Bagels/Pretzels,718-505-0505
AMERICAN WHISKEY,50005067,247 W 30TH ST,"NEW YORK, NY 10001",Manhattan,985964,212176,American ,212-967-1070
AMERITTANIA,50043211,230 W 54TH ST,"NEW YORK, NY 10019",Manhattan,989019,217679,American ,212-247-5000
AMINAS CAFE,50069931,890 MORRIS AVE,"BRONX, NY 10451",Bronx,1006894,240244,American ,917-631-9203
AMY'S CHINESE RESTAURANT,50071234,4746 BELL BLVD,"BAYSIDE, NY 11361",Queens,1048681,214906,Other,917-285-5411
ANATOLIAN GYRO RESTAURANT,50009143,2623 E 16TH ST,"BROOKLYN, NY 11235",Brooklyn,997216,153353,Turkish,718-769-4754
ANGEL OF HARLEM,50033699,2272 FREDERICK DOUGLASS BLVD,"NEW YORK, NY 10027",Manhattan,997365,233717,Caribbean,212-725-2353
ANGELICA'S CAFE,50055382,424 CHURCH AVE,"BROOKLYN, NY 11218",Brooklyn,990830,173946,"Latin (Cuban, Dominican, Puerto Rican, South & Central American)",347-442-5226
ANNABELLE'S,50047502,717 86TH ST,"BROOKLYN, NY 11228",Brooklyn,978298,164655,Italian,718-836-9444
ANNEX,50010893,753 FULTON ST,"BROOKLYN, NY 11217",Brooklyn,991295,189346,American ,718-858-4791
ANTOJITOS ECUATORIANOS 2,50066438,2535 36TH AVE,"ASTORIA, NY 11106",Queens,1002769,215513,Spanish,347-720-4958
ANTOJITOS MEXICANO,50038065,511 W 181ST ST,"NEW YORK, NY 10033",Manhattan,1003230,248360,Spanish,212-568-8800
APPLE GARDEN,50035047,10855 GUY R BREWER BLVD,"JAMAICA, NY 11433",Queens,1042312,192816,Chinese,718-523-8361
ARBY'S,50040458,611B 8TH AVE,"NEW YORK, NY 10018",Manhattan,986771,214610,Sandwiches,212-273-0850
ARBY'S,50051232,32 E 23RD ST,"NEW YORK, NY 10010",Manhattan,987690,209132,Sandwiches,212-477-0407
ARCHESTRATUS,50037531,160 HURON ST,"BROOKLYN, NY 11222",Brooklyn,996593,206315,Cafe/Coffee/Tea,631-455-2727
ARCHIE'S TAP AND TABLE,50035339,536 CITY ISLAND AVE,"BRONX, NY 10464",Bronx,1042449,250050,American ,718-885-9229
AREPA LADY,50064714,445 GOLD ST,"BROOKLYN, NY 11201",Brooklyn,988839,190966,Spanish,917-443-2457
ARROGANT SWINE,50016031,173 MORGAN AVE,"BROOKLYN, NY 11237",Brooklyn,1002727,197987,Barbecue,646-250-0030
ARTH ALGANATIN,50039472,700 RHINELANDER AVE,"BRONX, NY 10462",Bronx,1021087,248075,Middle Eastern,718-918-9181
ARTICHOKE BASILLE'S PIZZA,50063054,148 N 7TH ST,"BROOKLYN, NY 11249",Brooklyn,995795,200944,Pizza,347-721-3822
ARTISERIE,50060480,459 LEXINGTON AVE,"NEW YORK, NY 10017",Manhattan,991296,213783,Sandwiches/Salads/Mixed Buffet,917-262-0894
AS IS,50040181,734 10TH AVE,"NEW YORK, NY 10019",Manhattan,986546,217905,American ,646-858-1153
ASIAN 59,50049572,207 E 59TH ST,"NEW YORK, NY 10022",Manhattan,993630,216668,Chinese/Japanese,212-371-4777
ASIAN GOURMET,50005340,5711 MAIN ST,"FLUSHING, NY 11355",Queens,1032435,211178,Asian,718-321-2226
ASKA,50049804,47 S 5TH ST,"BROOKLYN, NY 11249",Brooklyn,993479,198773,Scandinavian,917-415-3265
ASTORIA COFFEE,50012357,3004 30TH ST,"ASTORIA, NY 11102",Queens,1005730,218709,Cafe/Coffee/Tea,347-410-7399
ATAMI,50067105,1167 2ND AVE,"NEW YORK, NY 10065",Manhattan,994435,216949,Japanese,212-688-6868
ATLA,50059347,372 LAFAYETTE ST,"NEW YORK, NY 10012",Manhattan,985978,204193,Mexican,646-837-6464
ATO,50057692,28 GRAND ST,"NEW YORK, NY 10013",Manhattan,982942,202627,Chinese,646-838-9392
AUNT JAKES,50042787,151 MULBERRY ST,"NEW YORK, NY 10013",Manhattan,984955,201235,Italian,917-279-5710
AUNTEA,50066239,19 MOTT ST,"NEW YORK, NY 10013",Manhattan,984589,199519,Cafe/Coffee/Tea,646-415-1869
AUSTINS,50064351,19611 LINDEN BLVD,"SAINT ALBANS, NY 11412",Queens,1052022,192041,Soul Food,347-894-9058
AVOCADO SUSHI,50034597,4906 ARTHUR KILL RD,"STATEN ISLAND, NY 10309",Staten Island,917734,129809,Japanese,718-966-1200
AWADH,50011024,2588 BROADWAY,"NEW YORK, NY 10025",Manhattan,992270,229158,Indian,646-861-3403
AZUL CAFE EATERY,50055298,14101 32ND AVE,"FLUSHING, NY 11354",Queens,1032039,219415,Spanish,718-353-9400
B & D HALAL RESTAURANT,50061081,163 W 29TH ST,"NEW YORK, NY 10001",Manhattan,986536,211566,African,212-268-7602
BABA COOL,50007363,64 LAFAYETTE AVE,"BROOKLYN, NY 11217",Brooklyn,991082,189607,American ,347-689-2344
BABU GRILL,50055667,964 CONEY ISLAND AVENUE,"BROOKLYN, NY 11230",Brooklyn,993329,170270,Pakistani,718-435-3549
BACHUE,50037329,8602 37TH AVE,"JACKSON HEIGHTS, NY 11372",Queens,1017377,212598,Spanish,718-779-7975
BAGEL CORNER,50068854,581 W 235TH ST,"BRONX, NY 10463",Bronx,1008841,262036,Bagels/Pretzels,646-523-1516
BAGEL MILL,50049169,1700 1ST AVE,"NEW YORK, NY 10128",Manhattan,998586,222880,Bagels/Pretzels,212-426-0868
"BAGELS BY DAY, TACOS BY NIGHT",50067930,570 BAY ST,"STATEN ISLAND, NY 10304",Staten Island,963058,168073,American ,347-372-4987
Baked Church St. LLC.,50066733,125 W 24TH ST,"NEW YORK, NY 10011",Manhattan,986127,210321,Cafe/Coffee/Tea,212-775-0345
BAKED CRAVINGS,50063001,1673 LEXINGTON AVE,"NEW YORK, NY 10029",Manhattan,998972,227636,Bakery,917-482-3887
BAMBINO PIZZA,50034133,5656 MYRTLE AVE,"RIDGEWOOD, NY 11385",Queens,1010769,194437,Pizza,347-295-2110
BAMBOO HOUSE,50055343,13458 SPRINGFIELD BLVD,"SPRINGFIELD GARDENS, NY 11413",Queens,1052465,186756,Chinese,718-528-8288
Bangla Garden Restaurant,50015252,1864 WESTCHESTER AVE,"BRONX, NY 10472",Bronx,1022059,242703,Bangladeshi,917-822-2207
BANH MI ZON,50041630,443 E 6TH ST,"NEW YORK, NY 10009",Manhattan,988361,203774,Asian,646-524-6384
BAO BAO NOODLE,50071055,106 GREENWICH ST,"NEW YORK, NY 10006",Manhattan,980535,197381,Chinese,917-678-2265
Bao Ding,50066675,4205 162ND ST,"FLUSHING, NY 11358",Queens,1038541,216226,Chinese,646-431-6255
BAR GONZO,50071235,511 9TH AVE,"NEW YORK, NY 10018",Manhattan,985824,214755,Other,917-575-5015
BAR HUGO,50035433,523 GREENWICH ST,"NEW YORK, NY 10013",Manhattan,981749,203912,American ,212-608-1211
BAR MATCHLESS,50068335,557 MANHATTAN AVE,"BROOKLYN, NY 11222",Brooklyn,998106,202476,Other,917- 84-47 7
BAR MOGA,50062378,128 W HOUSTON ST,"NEW YORK, NY 10012",Manhattan,983898,204365,Japanese,929-399-5853
BAR VELOCE,50070815,328 W 12TH ST,"NEW YORK, NY 10014",Manhattan,982381,207983,Other,917-834-4168
BAYARDS ALE HOUSE,50042279,1589 1ST AVE,"NEW YORK, NY 10028",Manhattan,997819,221510,Irish,212-518-7582
BAZNGA CAFE,50064594,426 AMSTERDAM AVE,"NEW YORK, NY 10024",Manhattan,990447,224956,"Ice Cream, Gelato, Yogurt, Ices",212-319-5365
BBQ OLIVE CHICKEN,50056626,25 W 32ND ST,"NEW YORK, NY 10001",Manhattan,988026,211624,Korean,212-967-8093
BDJ EXPRESS,50048217,1000S 8TH AVE,"NEW YORK, NY 10019",Manhattan,989012,218650,Vegetarian,212-765-6500
BEAUTIFUL PARADISE RESTAURANT,50013445,2362 JEROME AVE,"BRONX, NY 10468",Bronx,1011150,252694,Spanish,347-340-8973
BEAUTY BAR,50070060,231 E 14TH ST,"NEW YORK, NY 10003",Manhattan,988030,206313,Other,646-221-7980
BED STUY PROVISIONS,50041010,563 GATES AVE,"BROOKLYN, NY 11221",Brooklyn,999800,189571,Cafe/Coffee/Tea,347-326-6003
BEEHIVE OVEN,50009441,743 DRIGGS AVE,"BROOKLYN, NY 11211",Brooklyn,995153,198869,American ,347-987-4960
BEETS AND CARROTS,50064929,9905 3RD AVE,"BROOKLYN, NY 11209",Brooklyn,974522,163023,Salads,347-705-4511
BELARUSSIAN XATA,50065121,1655 SHEEPSHEAD BAY RD,"BROOKLYN, NY 11235",Brooklyn,997485,152971,Russian,718-332-4292
BELLEROSE FAMOUS PIZZA,50048777,9910 63RD RD,"REGO PARK, NY 11374",Queens,1024042,206211,Pizza,718-701-6610
BELLY,50070390,353 W 14TH ST,"NEW YORK, NY 10014",Manhattan,983115,209033,Other,212-321-1067
BELMARI'S BAKERY,50035965,59 W 170TH ST,"BRONX, NY 10452",Bronx,1006112,245416,Bakery,732-500-5701
BEN AND JACKS STEAKHOUSE,50067717,219 E 44TH ST,"NEW YORK, NY 10017",Manhattan,991765,213182,Other,212-682-5678
BENSON EATING STATION,50006033,2435 86TH ST,"BROOKLYN, NY 11214",Brooklyn,987462,157392,Chinese,718-266-8988
BENSON'S NYC,50033791,181 ESSEX ST,"NEW YORK, NY 10002",Manhattan,987999,202287,American ,646-791-5765
BENVENUTI,50064183,235 S END AVE,"NEW YORK, NY 10280",Manhattan,979641,197814,Pizza/Italian,212-945-2100
BERLIN CURRYWURST,50044852,75 9th AVE,"NEW YORK, NY 10011",Manhattan,982944,209562,German,646-827-3689
BERONBERON,50011221,164 1ST AVE,"NEW YORK, NY 10009",Manhattan,988586,204818,Japanese,646-283-6339
Best Salad,50069599,9040 160TH ST,"JAMAICA, NY 11432",Queens,1039728,196166,Chinese,917-683-5644
BEST WESTERN PREMIER HERALD SQUARE,50033430,48 W 36TH ST,"NEW YORK, NY 10018",Manhattan,988223,212730,American ,212-776-1024
BETTER GOURMET HEALTH KITCHEN,50054311,1135C MORRIS PARK AVE,"BRONX, NY 10461",Bronx,1025294,249059,American ,718-823-5200
BETWEEN THE BREAD,50043150,609 W 27TH ST,"NEW YORK, NY 10001",Manhattan,982681,213110,Sandwiches,212-765-1687
BETWEEN THE BREAD,50043364,20A E 40TH ST,"NEW YORK, NY 10016",Manhattan,,,American ,212-765-1840
BHATTI INDIAN GRILL,50007475,100 LEXINGTON AVE,"NEW YORK, NY 10016",Manhattan,988936,209685,Indian,212-683-4229
BIARRITZ BAKERY,50054374,1015 E 167TH ST,"BRONX, NY 10459",Bronx,1014902,240519,Bakery,718-542-1848
BIBI BUBBLE TEA,50069533,65 W 8TH ST,"NEW YORK, NY 10011",Manhattan,984596,206430,Chinese,347-806-0003
BIN 5,50039305,1233 BAY ST,"STATEN ISLAND, NY 10305",Staten Island,966075,162687,Italian,718-309-4224
BIRCH COFFEE,50005457,62 MADISON AVE,"NEW YORK, NY 10016",Manhattan,988105,210149,Cafe/Coffee/Tea,609-610-1637
BIRCH COFFEE,50012309,134 1/2 E 62ND ST,"NEW YORK, NY 10065",Manhattan,993233,217776,Cafe/Coffee/Tea,917-841-6564
BIRCH COFFEE,50045966,8 SPRUCE ST,"NEW YORK, NY 10038",Manhattan,982705,198461,Cafe/Coffee/Tea,212-686-1444
BIRCH COFFEE,50059740,71 W HOUSTON ST,"NEW YORK, NY 10012",Manhattan,984403,204031,Cafe/Coffee/Tea,212-686-1444
BIRCH COFFEE,50068093,171 E 88TH ST,"NEW YORK, NY 10128",Manhattan,997049,223620,Cafe/Coffee/Tea,212-686-1444
BIRDS OF A FEATHER,50060105,191 GRAND ST,"BROOKLYN, NY 11211",Brooklyn,995164,199496,Chinese,
BKW BY BROOKLYN WINERY,50051287,747 FRANKLIN AVE,"BROOKLYN, NY 11238",Brooklyn,996157,184513,American ,718-399-1700
BLACK BARN,50034379,19 E 26TH ST,"NEW YORK, NY 10010",Manhattan,987789,209990,American ,212-265-5959
BLACK BURGER/ POKE BOWL/ 5 BOROUGHS PIZZA,50057297,386 CANAL ST,"NEW YORK, NY 10013",Manhattan,982938,202104,American ,212-775-8540
BLACK BURGER/ ROLL N GO PIZZA,50048048,362 BROADWAY,"NEW YORK, NY 10013",Manhattan,983253,200629,Hamburgers,212-775-8540
BLACK CRESCENT,50005517,76 CLINTON ST,"NEW YORK, NY 10002",Manhattan,988360,201177,Seafood,212-477-1771
BLACK FLAMINGO,50032793,168 BORINQUEN PL,"BROOKLYN, NY 11211",Brooklyn,997146,198213,Vegetarian,718-387-3337
BLACK FOX COFFEE CO,50047425,70 PINE ST,"NEW YORK, NY 10270",Manhattan,982061,196606,Cafe/Coffee/Tea,424-216-0895
BLACK IRON BURGER,50040303,333 7TH AVE,"NEW YORK, NY 10001",Manhattan,986173,211658,American ,646-666-0071
BLACK PRESS COFFEE,50068582,100 LEXINGTON AVE,"NEW YORK, NY 10016",Manhattan,988936,209685,Cafe/Coffee/Tea,917-723-2325
BLACK SEED BAGELS,50041653,176 1ST AVE,"NEW YORK, NY 10009",Manhattan,988649,204934,Bagels/Pretzels,646-484-5718
BLOSSOM DU JOUR,50048705,259 W 23RD ST,"NEW YORK, NY 10011",Manhattan,985014,210620,Vegetarian,212-229-2595
BLOSSOM DUJOUR,50052924,617 9TH AVE,"NEW YORK, NY 10036",Manhattan,986510,215994,Other,646-998-3535
BLUE BAR AND GRILL,50065389,1811 EMMONS AVE,"BROOKLYN, NY 11235",Brooklyn,998078,151857,Greek,646-397-7258
BLUE CHARCOAL GRILL,50066353,5981 BROADWAY,"BRONX, NY 10471",Bronx,1012419,263474,Barbecue,347-843-6475
BLUE DOOR SOUVLAKIA,50058927,8413 3RD AVE,"BROOKLYN, NY 11209",Brooklyn,975789,166927,Greek,347-886-0125
BLUE MOON CHICKEN DELI & PIZZA,50015076,1249 SUTTER AVE,"BROOKLYN, NY 11208",Brooklyn,1019773,184414,Chicken,718-277-5772
BLUE SKY JWY RESTAURANT,50060329,7218 18TH AVE,"BROOKLYN, NY 11204",Brooklyn,985807,163329,Chinese,718-837-8818
Blue Stone Lane,50070855,11 TIMES SQ,"NEW YORK, NY 10036",Manhattan,987014,215035,Other,646-321-8563
BLUE STORM BILLIARDS & CAFE,50053575,13541 37TH AVE,"FLUSHING, NY 11354",Queens,1030890,216707,Tapas,718-461-6600
bluemist,50071784,2166 WESTCHESTER AVE,"BRONX, NY 10462",Bronx,1025079,243200,Other,347-419-9554
BLUESTONE LANE,50057502,90 WATER ST,"NEW YORK, NY 10005",Manhattan,981924,195946,Cafe/Coffee/Tea,212-747-9082
BLUESTONE LANE,50066835,1375 BROADWAY,"NEW YORK, NY 10018",Manhattan,987724,213370,Cafe/Coffee/Tea,646-321-8563
BLUESTONE LANE,50067686,30 CARMINE ST,"NEW YORK, NY 10014",Manhattan,983437,205297,Other,646-321-8563
BLUESTONE LANE,50067687,55 GREENWICH AVE,"NEW YORK, NY 10014",Manhattan,984062,207359,Australian,646-321-8563
BLUESTONE LANE,50067688,55 PROSPECT ST,"BROOKLYN, NY 11201",Brooklyn,987449,194562,American ,646-383-3623
BLUESTONE LANE,50067905,1220 5TH AVE,"NEW YORK, NY 10029",Manhattan,997417,227987,Other,646-321-1856
BLUESTONE LANE,50070079,435 W 31ST ST,"NEW YORK, NY 10001",Manhattan,984614,213220,American ,646-321-8563
BLUESTONE LANE COFFEE,50067689,1114 AVENUE OF THE AMERICAS,"NEW YORK, NY 10036",Manhattan,988757,214472,Cafe/Coffee/Tea,212-764-0044
BLUJEEN,50034742,2143 FREDERICK DOUGLASS BLVD,"NEW YORK, NY 10026",Manhattan,996549,232254,American ,212-256-1073
BLVD BISTRO & BAR(WYNDHAM GARDEN HOTEL),50050405,9277 QUEENS BLVD,"REGO PARK, NY 11374",Queens,1021158,205967,American ,718-261-9400
BLVD WINE BAR,50018090,4720 CENTER BLVD,"LONG ISLAND CITY, NY 11109",Queens,996120,210927,American ,718-440-8520
BO'S BAGELS,50057837,235 W 116TH ST,"NEW YORK, NY 10026",Manhattan,997069,232099,Bagels/Pretzels,917-902-8345
BOBA GUYS,50044003,23 CLINTON ST,"NEW YORK, NY 10002",Manhattan,988607,201821,Other,617-901-9264
BOBA GUYS,50060028,11 WAVERLY PL,"NEW YORK, NY 10003",Manhattan,985865,205250,Cafe/Coffee/Tea,617-901-9264
BOBBY SPOT NUVO CAFE,50064681,4701 VAN DAM ST,"LONG ISLAND CITY, NY 11101",Queens,1002544,209832,Egyptian,347-649-1326
BOBBY VAN'S STEAKHOUSE C.P.S,50007006,40 CENTRAL PARK S,"NEW YORK, NY 10019",Manhattan,991211,218019,Italian,212-369-4000
BOCAITO CAFE & WINE BAR,50003915,8115 NORTHERN BLVD,"JACKSON HEIGHTS, NY 11372",Queens,1015815,214544,Spanish,347-617-1606
BOGART HOUSE,50047107,360 TEN EYCK ST AKA 230 BOGART ST,"BROOKLYN, NY 11206",Brooklyn,1002194,198623,Other,646-709-7854
BOHAUS COFFEE  AND FLOWERS,50050890,406 MARCUS GARVEY BLVD,"BROOKLYN, NY 11216",Brooklyn,1001430,188115,Cafe/Coffee/Tea,720-275-9932
BOMBAY SANDWICH CO,50060889,224 W 35TH ST,"NEW YORK, NY 10001",Manhattan,986729,213263,Vegetarian,212-564-8418
BOMBONADA,50042315,1405 SAINT NICHOLAS AVE,"NEW YORK, NY 10033",Manhattan,1002491,248555,"Latin (Cuban, Dominican, Puerto Rican, South & Central American)",212-740-8100
BON CHOVIE,50040680,884 FULTON ST,"BROOKLYN, NY 11238",Brooklyn,993761,188196,American ,718-789-0177
BONCHON,50070547,267 W 23RD ST,"NEW YORK, NY 10011",Manhattan,984969,210645,Other,212-273-3111
BONDURANTS,50004412,303 E 85TH ST,"NEW YORK, NY 10028",Manhattan,997587,222376,American ,212-249-1509
BONMi VIETNAMESE RESTAURANT,50061322,119 E 23RD ST,"NEW YORK, NY 10010",Manhattan,988283,208811,Vietnamese/Cambodian/Malaysia,917-742-8747
BONUS ROOM,50044543,991 WYCKOFF AVE,"RIDGEWOOD, NY 11385",Queens,1010630,192882,American ,646-924-8488
BOQUERIA,50012132,1460 2ND AVE,"NEW YORK, NY 10075",Manhattan,996347,220386,Tapas,212-343-2277
BORO HOTEL,50034819,3828 27TH ST,"LONG ISLAND CITY, NY 11101",Queens,1002151,214361,American ,917-968-5173
BOSTON MARKET,50058285,5520 BROADWAY,"BRONX, NY 10463",Bronx,1010274,258953,American ,347-338-1010
BOSTON MARKET,50062594,925 HUNTS POINT AVE,"BRONX, NY 10459",Bronx,1014423,238202,American ,347-708-4017
BOSTON MARKET,50071842,880 WHITE PLAINS RD,"BRONX, NY 10473",Bronx,1023367,239416,Other,303-278-8950
BOUCHERIE,50054294,99 7TH AVE S,"NEW YORK, NY 10014",Manhattan,983375,206310,French,212-837-1616
Boyce Technologies Inc.,50067914,4722 PEARSON PL,"LONG ISLAND CITY, NY 11101",Queens,1000173,209876,American ,212-385-8585
BRAVI RAGAZZI BK,50066529,570 PUTNAM AVE,"BROOKLYN, NY 11221",Brooklyn,1001153,188950,Pizza,347-770-8048
Bravo Pizza,50052785,360 7TH AVE,"NEW YORK, NY 10001",Manhattan,986318,211932,American ,212-235-1114
BREADS BAKERY,50036737,41 W 40TH ST,"NEW YORK, NY 10018",Manhattan,988899,213541,American ,212-697-1463
BREADS BAKERY,50046273,1890 BROADWAY,"NEW YORK, NY 10023",Manhattan,989197,220167,Bakery,212-697-1463
BREEZES ISLAND GRILL RESTAUANT & LOUNGE,50056569,23006 S CONDUIT AVE,"SPRINGFIELD GARDENS, NY 11413",Queens,1054420,181820,Caribbean,718-572-5012
BRICOLAGE,50018819,162 5TH AVE,"BROOKLYN, NY 11217",Brooklyn,989942,186246,Vietnamese/Cambodian/Malaysia,718-230-1835
BRIK BAR LOUNGE & KITCHEN,50012102,3216 STEINWAY ST,"ASTORIA, NY 11103",Queens,1006591,215646,American ,718-267-2745
BRISAS DEL MAR RESTAURANT II,50056255,160 BEACH 116TH ST,"ROCKAWAY PARK, NY 11694",Queens,1029621,150229,Mexican,347-230-4394
BROMPTON CAFE,50017560,64 N 9TH ST,"BROOKLYN, NY 11249",Brooklyn,995380,201955,Cafe/Coffee/Tea,917-446-7119
BRONX TAVERN,50071770,780 E 133RD ST,"BRONX, NY 10454",Bronx,1008234,231059,Other,347-753-3166
BROOKLYN ATE BAR,50034669,199 RUSSELL ST,"BROOKLYN, NY 11222",Brooklyn,999558,204221,American ,718-389-0354
BROOKLYN BREAD LAB,50043803,201 MOORE ST,"BROOKLYN, NY 11206",Brooklyn,1001794,195880,Bakery,718-881-5000
BROOKLYN GREENERY,50017438,560 FLATBUSH AVE,"BROOKLYN, NY 11225",Brooklyn,995173,179799,"Juice, Smoothies, Fruit Salads",347-240-0986
BROOKLYN HALAL GRILL,50065129,1148 LIBERTY AVE,"BROOKLYN, NY 11208",Brooklyn,1021184,186584,Other,718-200-2523
BROOKLYN ROASTING COMPANY,50053799,2 MAIN ST,"BROOKLYN, NY 11201",Brooklyn,986836,195693,Cafe/Coffee/Tea,718-243-0149
BROOKLYN ROASTING COMPANY,50054970,240 KENT AVE,"BROOKLYN, NY 11249",Brooklyn,993808,200422,Cafe/Coffee/Tea,718-855-1000
BROOKLYN ROASTING COMPANY,50055512,1 DEKALB AVE,"BROOKLYN, NY 11201",Brooklyn,989079,190658,Other,718-855-1000
Brooklyn Roasting Company,50059322,63 FLUSHING AVE,"BROOKLYN, NY 11205",Brooklyn,991186,193585,Cafe/Coffee/Tea,718-855-1000
BROOKLYN ROASTING COMPANY,50060471,45 WASHINGTON ST,"BROOKLYN, NY 11201",Brooklyn,987138,195395,Cafe/Coffee/Tea,917-745-5873
BROOKLYN ROASTING COMPANY,50070576,38 WASHINGTON AVE,"BROOKLYN, NY 11205",Brooklyn,993209,193381,Cafe/Coffee/Tea,718-855-1000
BROOKLYN ROASTING WORKS,50033668,50 W. 23rd Street,"New York, NY 10010",Manhattan,986690,209688,Cafe/Coffee/Tea,718-855-1000
BROOKLYN ROASTING WORKS LLC,50051810,67 WEST ST,"BROOKLYN, NY 11222",Brooklyn,995591,204750,Cafe/Coffee/Tea,718-855-1000
BROOKLYN STEAK CO.,50004901,1316 AVENUE M,"BROOKLYN, NY 11230",Brooklyn,994899,164369,Jewish/Kosher,718-376-0680
BROOKSIDE MARKET,50063628,4315 QUEENS BLVD,"SUNNYSIDE, NY 11104",Queens,1006072,210150,Cafe/Coffee/Tea,203-627-1821
Brownstone Bagels,50071310,671 UNION ST,"BROOKLYN, NY 11215",Brooklyn,989133,185986,Other,347-234-4095
BROWNSVILLE CULINARY COMMUNITY CENTER,50063899,69 BELMONT AVE,"BROOKLYN, NY 11212",Brooklyn,1009817,182955,Other,650-996-8001
BROWNY,50043878,19519 NORTHERN BLVD,"FLUSHING, NY 11358",Queens,1043422,215494,Cafe/Coffee/Tea,718-229-2342
BUBBLE BAM,50064206,822 KINGS HWY,"BROOKLYN, NY 11223",Brooklyn,994152,160264,Cafe/Coffee/Tea,718-758-5597
BUFFALO WILD WINGS,50005585,253 W 47TH ST,"NEW YORK, NY 10036",Manhattan,988050,216134,Chicken,212-265-9453
BUFFALO WILD WINGS,50016137,632 GATEWAY DR,"BROOKLYN, NY 11239",Brooklyn,1018531,176976,American ,718-235-9453
BUFFALO WILD WINGS,50019243,193 W 237TH ST,"BRONX, NY 10463",Bronx,1011727,261451,American ,718-549-9453
BUFFALO WILD WINGS GRILL & BAR,50044197,13415 20TH AVE,"COLLEGE POINT, NY 11356",Queens,1030104,224101,Chicken,718-353-9453
BUHRE TOP TORTILLAS,50033493,3038 BUHRE AVE,"BRONX, NY 10461",Bronx,1031009,248079,Tex-Mex,718-319-8383
BUNKER,50056743,99 SCOTT AVE,"BROOKLYN, NY 11237",Brooklyn,1005584,198169,Japanese,718-386-4282
BUNKER,50063736,445 GOLD ST,"BROOKLYN, NY 11201",Brooklyn,988839,190966,Asian,607-220-3432
BUNNA CAFE,50006264,1084 FLUSHING AVE,"BROOKLYN, NY 11237",Brooklyn,1004260,196158,Ethiopian,347-295-2227
Buntopia,50059583,994 BROADWAY,"BROOKLYN, NY 11221",Brooklyn,1002627,192898,Cafe/Coffee/Tea,347-435-3660
BURGER HEIGHTS,50055235,79 AUDUBON AVE,"NEW YORK, NY 10032",Manhattan,1001462,245775,American ,212-203-5613
BURGER JOINT IC,50064419,220 36TH ST,"BROOKLYN, NY 11232",Brooklyn,982215,178297,American ,212-333-3353
BURGER KING,50034499,154 E 116TH ST,"NEW YORK, NY 10029",Manhattan,1000545,230166,Hamburgers,212-426-9532
BURGER KING,50034500,4015 QUEENS BLVD,"SUNNYSIDE, NY 11104",Queens,1005302,210268,Hamburgers,718-786-8189
BURGER KING,50043384,1607 WESTCHESTER AVE,"BRONX, NY 10472",Bronx,1018783,241449,Hamburgers,646-685-8366
BURGER KING,50044577,961 E 174TH ST,"BRONX, NY 10460",Bronx,1015842,244143,Sandwiches,646-835-2890
BURGER KING,50044948,146 DELANCEY ST,"NEW YORK, NY 10002",Manhattan,987954,200876,Hamburgers,212-777-9522
BURGER KING,50044949,325 BROADWAY,"NEW YORK, NY 10007",Manhattan,982923,200134,American ,212-247-7535
BURGER LODGE,50043870,657 E 189TH ST,"BRONX, NY 10458",Bronx,1016226,251377,American ,718-219-9888
BUSHIDO,50056986,321 STARR ST,"BROOKLYN, NY 11237",Brooklyn,1006292,197136,Other,718-388-8326
BUSHWICK PIZZA PARTY,50033274,254 IRVING AVE,"BROOKLYN, NY 11237",Brooklyn,1007504,194320,Pizza,917-519-0156
BUTTER  RESTAURANT,50004379,70 W 45TH ST,"NEW YORK, NY 10036",Manhattan,989355,214811,American ,212-302-8703
BUTTER & SCOTCH,50017845,818 FRANKLIN AVE,"BROOKLYN, NY 11225",Brooklyn,995833,183356,Bakery,347-350-8899
"BUTTER BEANS, INC.",50066748,4701 111TH ST,"CORONA, NY 11368",Queens,1024830,211608,Other,917-922-1672
BUTTER LANE,50015572,123 E 7TH ST,"NEW YORK, NY 10009",Manhattan,988581,203929,Bakery,212-677-2880
BY CHLOE,50061001,171 N 3RD ST,"BROOKLYN, NY 11211",Brooklyn,995410,199895,Vegetarian,917-753-7796
BY CHLOE ROCEFELLER PLAZA,50070960,1 ROCKEFELLER PLZ,"NEW YORK, NY 10020",Manhattan,989988,215402,Other,212-688-8270
C BAO ASIAN BUNS& MORE,50048906,7320 GRAND AVE,"MASPETH, NY 11378",Queens,1014857,205157,Chinese,718-898-1638
C'MON EVERYBODY,50049061,325 FRANKLIN AVE,"BROOKLYN, NY 11238",Brooklyn,996151,190045,American ,917-627-4174
CABO RESTAURANT,50011777,3764 E TREMONT AVE,"BRONX, NY 10465",Bronx,1033719,240197,Mexican,718-863-0099
CAFE 1 OF A KIND,50064131,25513 NORTHERN BLVD,"LITTLE NECK, NY 11362",Queens,1057839,220669,Cafe/Coffee/Tea,347-771-4685
CAFE 2,50006345,11 W 53RD ST,"NEW YORK, NY 10019",Manhattan,990566,216531,American ,212-333-1299
Cafe 48,50063498,21209 48TH AVE,"BAYSIDE, NY 11364",Queens,1048268,214542,Chinese,917-363-3861
CAFE BARI,50047156,1033 AVENUE OF THE AMERICAS,"NEW YORK, NY 10018",Manhattan,988220,213507,Cafe/Coffee/Tea,212-431-4350
CAFE DE NOVO,50017261,94 1/2 GREENWICH ST,"NEW YORK, NY 10006",Manhattan,980493,197251,American ,917-502-8199
CAFE EAST,50055609,2920 BROADWAY,"NEW YORK, NY 10027",Manhattan,994012,233233,Asian,917-216-8812
CAFE NAGLES,50062866,630 NOSTRAND AVE,"BROOKLYN, NY 11216",Brooklyn,998156,185842,Cafe/Coffee/Tea,718-975-0434
CAFE OLLEH,50035692,15619 NORTHERN BLVD,"FLUSHING, NY 11354",Queens,1037193,217681,Korean,718-762-0104
CAFE ON RALPH,50055331,86 RALPH AVE,"BROOKLYN, NY 11221",Brooklyn,1005445,189646,Cafe/Coffee/Tea,347-461-9669
CAFE WATER,50057491,519 6TH AVE,"NEW YORK, NY 10011",Manhattan,985064,207810,American ,646-852-6300
CAFFE BENE,50043779,208 AVENUE A,"NEW YORK, NY 10009",Manhattan,989538,205099,Cafe/Coffee/Tea,212-510-7957
CAFFE DEI FIORI RISTORANTE,50014329,973 LEXINGTON AVE,"NEW YORK, NY 10021",Manhattan,994520,219600,Italian,212-327-3400
Cake House,50061278,2305 65TH ST,"BROOKLYN, NY 11204",Brooklyn,990080,162384,Other,929-855-8511
CALEXICO,50040810,1491 2ND AVE,"NEW YORK, NY 10075",Manhattan,996514,220700,Mexican,347-967-5955
CALLE DAO CHELSEA,50067926,461 W 23RD ST,"NEW YORK, NY 10011",Manhattan,983429,211499,Chinese/Cuban,212-414-4104
CAMILLO,50068014,1146 NOSTRAND AVE,"BROOKLYN, NY 11225",Brooklyn,997977,179595,Italian,347-834-2400
CAMPERDOWN ELM,50064591,441 7TH AVE,"BROOKLYN, NY 11215",Brooklyn,988507,180894,American ,347-414-3806
CANARSIE CHICKEN & GYRO,50052161,1206 REMSEN AVE,"BROOKLYN, NY 11236",Brooklyn,1010386,172493,Chicken,718-473-7518
Cannelle LIC,50016720,511 47TH AVE,"LONG ISLAND CITY, NY 11101",Queens,996676,211026,French,718-937-8500
CANTINE,50045785,126 UNION ST,"BROOKLYN, NY 11231",Brooklyn,983582,188553,American ,646-472-7941
Cape House,50056363,2 KNICKERBOCKER AVE,"BROOKLYN, NY 11237",Brooklyn,1003105,197113,American ,718-821-2580
CAPRI CAKES,50045592,306 E 149TH ST,"BRONX, NY 10451",Bronx,1006064,236932,Bakery,718-618-0664
CARA MIA,50005723,654 9TH AVE,"NEW YORK, NY 10036",Manhattan,986765,216441,Italian,212-262-6767
CARA MIA,50063767,623 9TH AVE,"NEW YORK, NY 10036",Manhattan,986570,216103,Italian,646-619-1166
CARDONCELLO DIVINO,50071597,43 W 27TH ST,"NEW YORK, NY 10001",Manhattan,987128,210648,Other,347-278-8079
CARIBBEAN COFFEE SHOP,50043744,527 STANLEY AVE,"BROOKLYN, NY 11207",Brooklyn,1015086,178742,Caribbean,718-975-2301
CARIDAD RESTAURANT,50007933,1594 WESTCHESTER AVE,"BRONX, NY 10472",Bronx,1018628,241382,Spanish,917-473-7700
CARLETON LOUNGE,50034366,500 W 120TH ST,"NEW YORK, NY 10027",Manhattan,995425,234204,American ,212-854-8324
CARNEGIE CUP CAFE,50051372,1080 PARK AVE,"NEW YORK, NY 10128",Manhattan,996297,224072,Cafe/Coffee/Tea,646-590-1395
CARTHAGE MUST BE DESTROYED,50055406,61 MEADOW ST,"BROOKLYN, NY 11206",Brooklyn,1002336,198365,Australian,347-824-0699
CARVEL,50050739,2231A GRAND CONCOURSE,"BRONX, NY 10453",Bronx,1011700,251185,"Ice Cream, Gelato, Yogurt, Ices",718-329-2253
CARVEL ICE CREAM,50061036,16310 CROSSBAY BLVD,"HOWARD BEACH, NY 11414",Queens,1029168,176884,"Ice Cream, Gelato, Yogurt, Ices",718-843-3875
CASA CRIOLLA,50054821,815 HTCHNSON RIV PKWY,"BRONX, NY 10465",Bronx,,,Spanish,718-684-6200
CASA GALICIA,50049441,3709 31ST AVE,"ASTORIA, NY 11103",Queens,1006823,216905,Spanish,718-932-1114
CASA PEPE,50046828,112 BAY RIDGE AVE,"BROOKLYN, NY 11220",Brooklyn,975410,171547,Spanish,347-359-8877
CASA RESTAURANT & LOUNGE,50042132,3607 E TREMONT AVE,"BRONX, NY 10465",Bronx,1032830,241283,"Latin (Cuban, Dominican, Puerto Rican, South & Central American)",347-262-7353
CASCADE JERK,50060066,11902 SUTPHIN BLVD,"JAMAICA, NY 11434",Queens,1042036,186782,Caribbean,718-848-2318
CASITA,50068608,681 WASHINGTON ST,"NEW YORK, NY 10014",Manhattan,981896,206666,Spanish,
CAVA MEZZE GRILL,50066450,325 PARK AVE S,"NEW YORK, NY 10010",Manhattan,988194,209240,Mediterranean,718-360-1815
CECCONI'S,50063522,55 WATER ST,"BROOKLYN, NY 11201",Brooklyn,986455,195508,American ,646-215-2136
CELESTINE RESTAURANT,50069957,1 JOHN ST,"BROOKLYN, NY 11201",Brooklyn,987496,195932,Other,718-522-5356
CEMITAS EL TIGRE,50037441,4514 48TH AVE,"WOODSIDE, NY 11377",Queens,1006374,208664,Mexican,212-920-7963
CENTRAL CARIBBEAN BAKERY,50014473,1322 E GUN HILL RD,"BRONX, NY 10469",Bronx,1026335,256746,Bakery,347-275-3533
Central Lounge,50070629,2030 STEINWAY ST,"ASTORIA, NY 11105",Queens,1011258,221933,Other,718-726-6160
CENTRAL STATION,50009776,84 CENTRAL AVE,"BROOKLYN, NY 11206",Brooklyn,1003663,194611,American ,718-483-9884
CERVO'S,50064374,43 CANAL ST,"NEW YORK, NY 10002",Manhattan,986636,199682,Other,917-318-9172
CHAIHANA UZBEKISTAN BAKERY,50067254,14 AVENUE O,"BROOKLYN, NY 11204",Brooklyn,988518,161566,Russian,718-331-1414
CHALAIT,50057024,75 9TH AVE,"NEW YORK, NY 10011",Manhattan,982944,209562,Cafe/Coffee/Tea,203-252-6859
CHAMPION COFFEE,50056353,1107 MANHATTAN AVE,"BROOKLYN, NY 11222",Brooklyn,996644,207546,Cafe/Coffee/Tea,347-987-3851
CHANDNI CHOWK,50044848,2570 BRONXWOOD AVE,"BRONX, NY 10469",Bronx,1022531,254115,Pakistani,718-325-5859
CHAR SUE,50061114,119 ESSEX ST,"NEW YORK, NY 10002",Manhattan,987641,201380,Other,212-380-3906
CHARRUA,50017962,131 ESSEX ST,"NEW YORK, NY 10002",Manhattan,987725,201595,Spanish,212-677-5838
CHAZZ PALMINTERI ITALIAN RESTAURANT,50066417,30 W 46TH ST,"NEW YORK, NY 10036",Manhattan,989743,214892,American ,212-355-5540
CHECKERS,50002976,133-18 GUY R BREWER BLVD,"JAMAICA, NY 11434",Queens,1046392,184828,American ,718-413-5599
CHECKERS,50004436,1130 MYRTLE AVE,"BROOKLYN, NY 11206",Brooklyn,1002087,193192,Hamburgers,347-789-4250
CHECKERS,50006190,1146 LIBERTY AVE,"BROOKLYN, NY 11208",Brooklyn,1021170,186581,Sandwiches,347-533-7800
CHEEBURGER CHEEBURGER,50044127,2935 VETERANS RD W,"STATEN ISLAND, NY 10309",Staten Island,919896,131630,Hamburgers,718-984-6565
CHENG JI RESTAURANT,50070602,13620 ROOSEVELT AVE,"FLUSHING, NY 11354",Queens,1031557,216133,Other,917-325-6264
CHICK'NCONE,50063761,353 W 14TH ST,"NEW YORK, NY 10014",Manhattan,983115,209033,American ,956-566-1730
CHIDORI JAPANESE CUISINE,50045410,9709 64TH AVE,"REGO PARK, NY 11374",Queens,1023021,205198,Japanese,347-251-5971
CHILLBOX,50049296,716 7TH AVE,"NEW YORK, NY 10036",Manhattan,988592,216034,"Ice Cream, Gelato, Yogurt, Ices",516-721-7460
CHILLHOUSE,50061134,149 ESSEX ST,"NEW YORK, NY 10002",Manhattan,987804,201798,Cafe/Coffee/Tea,646-678-3501
CHILO'S,50012080,323 FRANKLIN AVE,"BROOKLYN, NY 11238",Brooklyn,996148,190065,Tex-Mex,917-697-9921
CHINA BLUE,50004684,451 WASHINGTON ST,"NEW YORK, NY 10013",Manhattan,981406,203019,Chinese,212-431-0111
CHINA HOUSE,50059503,5501 METROPOLITAN AVE,"RIDGEWOOD, NY 11385",Queens,1009570,199077,Chinese,718-821-6655
CHINA HOUSE,50063951,20618 HILLSIDE AVE,"QUEENS VILLAGE, NY 11427",Queens,1051004,202133,Chinese,718-740-8800
CHINA KING OGDEN RESTAURANT,50053660,1377 OGDEN AVE,"BRONX, NY 10452",Bronx,1005126,246020,Chinese,718-992-8888
"CHINA MIA EXOTIC ASIAN FOOD, YOGURT & JUICE BAR",50005591,2232 WHITE PLAINS RD,"BRONX, NY 10467",Bronx,1020887,252073,Chinese,718-708-6300
CHINA THAI,50013562,867 FLATBUSH AVE,"BROOKLYN, NY 11226",Brooklyn,995668,176447,Chinese,718-469-6800
CHOCK FULL O' NUTS,50040781,1508 AVENUE J,"BROOKLYN, NY 11230",Brooklyn,995062,167059,Cafe/Coffee/Tea,718-951-7166
Chong Qing Xiao Mian,50052489,13620 ROOSEVELT AVE,"FLUSHING, NY 11354",Queens,1031557,216133,Chinese,718-888-1113
CHOP SHOP KITCHEN,50035959,41 W 24TH ST,"NEW YORK, NY 10010",Manhattan,986857,209915,Asian,917-885-9346
CHOZA TAQUERIA,50054386,185 GREENWICH ST,"NEW YORK, NY 10007",Manhattan,980899,198618,Mexican,212-213-0708
CHUCK E. CHEESE'S,50004837,700 EXTERIOR ST,"BRONX, NY 10451",Bronx,1003335,239485,Pizza,718-292-4337
Church Avenue Pizza,50065304,1916B CHURCH AVE,"BROOKLYN, NY 11226",Brooklyn,994830,176039,Other,347-881-4015
CIALA,50066611,77 2ND AVE,"NEW YORK, NY 10003",Manhattan,987239,203955,Eastern European,212-300-4118
CIBAO,50006286,172 SMITH ST,"BROOKLYN, NY 11201",Brooklyn,986717,189132,Spanish,718-596-1501
Cin Cheese Back Ribs,50058750,4235 MAIN ST,"FLUSHING, NY 11355",Queens,1031936,214181,Chinese,718-661-0060
CINCO DE MAYO,50014390,4229 BELL BLVD,"BAYSIDE, NY 11361",Queens,1047880,217068,Tex-Mex,718-224-0330
CIRCA BREWING CO,50066122,141 LAWRENCE ST,"BROOKLYN, NY 11201",Brooklyn,988054,191296,American ,917-412-7110
CITY FARM CAFE,50047876,647 FULTON ST,"BROOKLYN, NY 11217",Brooklyn,990015,190020,American ,718-369-3310
City Island in the City,50069443,301 W 151ST ST,"NEW YORK, NY 10039",Manhattan,1001051,240470,Other,917-951-6020
CITY OWLETS,50058680,1042 JACKSON AVE,"LONG ISLAND CITY, NY 11101",Queens,997212,209693,Cafe/Coffee/Tea,972-975-8333
CLANCEY,50057808,79 CLINTON ST,"NEW YORK, NY 10002",Manhattan,988350,201167,American ,917-388-3575
CLAWS,50070508,9 W 26TH ST,"NEW YORK, NY 10010",Manhattan,987196,210320,Other,212-839-9800
CLEAR LAKE,50057957,4429 9TH ST,"LONG IS CITY, NY 11101",Queens,997646,212602,Asian,718-906-1906
CLUB AMADEUS,50046909,7951 ALBION AVE,"ELMHURST, NY 11373",Queens,1016269,208626,Other,
COCO,50050434,8612 5TH AVE,"BROOKLYN, NY 11209",Brooklyn,976934,165650,Cafe/Coffee/Tea,929-292-2313
COCO,50056490,156 DELANCEY ST,"NEW YORK, NY 10002",Manhattan,988053,200830,Cafe/Coffee/Tea,212-477-1361
COCO FRESH TEA & JUICE,50053320,3701B 82ND ST,"JACKSON HEIGHTS, NY 11372",Queens,,,Cafe/Coffee/Tea,718-533-9496
COCO FRESH TEA & JUICE,50064589,218 BEDFORD AVE,"BROOKLYN, NY 11249",Brooklyn,995613,200374,"Juice, Smoothies, Fruit Salads",347-689-4674
COCOA BAR BROOKLYN,50034635,228 7th Ave,"Brooklyn, NY 11215",Brooklyn,990099,183412,Cafe/Coffee/Tea,718-499-4080
COFFEE CLOCK,50067794,1408 2ND AVE,"NEW YORK, NY 10021",Manhattan,995968,219703,Cafe/Coffee/Tea,917-825-7835
COFFEE RX,50008334,6903 3RD AVE,"BROOKLYN, NY 11209",Brooklyn,977010,170842,Cafe/Coffee/Tea,347-729-3317
COFFEE STOP,50045560,7408 GRAND AVE,"ELMHURST, NY 11373",Queens,1015491,205343,Cafe/Coffee/Tea,718-898-1016
COFFEED,50053661,3030 47TH AVE,"LONG ISLAND CITY, NY 11101",Queens,1001827,210039,Cafe/Coffee/Tea,917-403-7664
COFFEED Corporation,50068077,5210 111TH ST,"CORONA, NY 11368",Queens,1025307,210381,Other,347-446-6262
COLD CUT CITY BUNNY DELI 2,50005347,228 W 231ST ST,"BRONX, NY 10463",Bronx,1010342,259658,American ,718-543-2533
COLD STONE CREAMERY,50045659,8801 QUEENS BLVD,"ELMHURST, NY 11373",Queens,1018813,207136,"Ice Cream, Gelato, Yogurt, Ices",616-706-7711
COLD STONE CREAMERY,50046623,139 FLATBUSH AVE,"BROOKLYN, NY 11217",Brooklyn,990428,188636,"Ice Cream, Gelato, Yogurt, Ices",718-789-2903
COLD STONE CREAMERY,50053609,241A W 42ND ST,"NEW YORK, NY 10036",Manhattan,987364,215003,"Ice Cream, Gelato, Yogurt, Ices",212-398-1882
COLONIA VERDE,50007228,219 DEKALB AVE,"BROOKLYN, NY 11205",Brooklyn,992393,190493,"Latin (Cuban, Dominican, Puerto Rican, South & Central American)",646-370-4477
COLONY 274,50065653,274 4TH AVE,"BROOKLYN, NY 11215",Brooklyn,988652,185517,American ,718-222-0280
COMFORT ZONE,50046752,16554 BAISLEY BLVD,"JAMAICA, NY 11434",Queens,1045876,186876,American ,718-276-4900
COMMONS CAFE,50033491,388 ATLANTIC AVE,"BROOKLYN, NY 11217",Brooklyn,988256,189643,American ,917-216-8754
COMMUNITEA,50039133,1118 46TH RD,"LONG ISLAND CITY, NY 11101",Queens,998140,210916,American ,718-729-7708
Coney Art Walls,50066036,3030 STILLWELL AVE,"BROOKLYN, NY 11224",Brooklyn,989521,148603,Other,718-499-7999
CONEY'S CONES,50033978,1023 BOARDWALK W,"BROOKLYN, NY 11224",Brooklyn,990101,148132,"Ice Cream, Gelato, Yogurt, Ices",718-373-5862
CONFECTIONS DESSERT LOUNGE,50069932,65 PAGE AVE,"STATEN ISLAND, NY 10309",Staten Island,918930,129718,American ,718-554-4992
Cooks and Captains,50059002,254 5TH AVE,"BROOKLYN, NY 11215",Brooklyn,989387,185188,American ,303-332-9905
CORK & KALE (EVEN HOTEL NEW YORK-MIDTOWN EAST),50057201,219 E 44TH ST,"NEW YORK, NY 10017",Manhattan,991765,213182,American ,212-239-0002
CORNER CAFE,50011181,2 DITMAS AVE,"BROOKLYN, NY 11218",Brooklyn,990093,170788,Jewish/Kosher,718-435-2233
CRAFT CULTURE,50057865,5904 MYRTLE AVE,"RIDGEWOOD, NY 11385",Queens,1012103,194503,American ,718-628-3931
CREMA BK,50039517,182 DRIGGS AVE,"BROOKLYN, NY 11222",Brooklyn,999298,202666,Cafe/Coffee/Tea,347-457-5363
CREPE CAFE,50043041,1642 LEXINGTON AVE,"NEW YORK, NY 10029",Manhattan,998803,227341,American ,347-266-2458
CREPE FACTORY,50053011,7306 3RD AVE,"BROOKLYN, NY 11209",Brooklyn,976674,169790,American ,347-421-6990
CROWN CHICKEN AND PIZZA,50070965,1240 HANCOCK ST,"BROOKLYN, NY 11221",Brooklyn,1008979,191612,Other,347-256-6933
CROWN FRIED CHICKEN,50016148,44B NEW LOTS AVE,"BROOKLYN, NY 11212",Brooklyn,1011038,178732,Chicken,718-495-5008
CROWN FRIED CHICKEN,50016610,640 CONDUIT BLVD,"BROOKLYN, NY 11208",Brooklyn,1021400,185474,Chicken,718-233-6296
CROWN FRIED CHICKEN,50018993,399 MOTHER GASTON BLVD,"BROOKLYN, NY 11212",Brooklyn,1010113,183170,Chicken,347-405-7162
CROWNE PLAZA-JFK AIRPORT,50004830,13810 135TH AVE,"JAMAICA, NY 11436",Queens,1039811,182633,American ,718-530-1160
CROXLEYS THE ABBEY,50006398,63 GRAND ST,"BROOKLYN, NY 11249",Brooklyn,993946,200101,American ,718-387-4290
CUMBIA & SABOR,50057057,4506 GREENPOINT AVE,"SUNNYSIDE, NY 11104",Queens,1006495,209578,"Latin (Cuban, Dominican, Puerto Rican, South & Central American)",917-832-6758
CURRY & KEBAB,50055402,3111 BAINBRIDGE AVE,"BRONX, NY 10467",Bronx,1017630,257731,Indian,917-691-6292
CURRY BO & YOUNG STREET POKE CO,50058457,13620 38TH AVE,"FLUSHING, NY 11354",Queens,1031267,216561,Other,412-608-8668
CURRY! MODERN CARIBBEAN EXPERIENCE...,50057873,388 5TH AVE,"BROOKLYN, NY 11215",Brooklyn,988433,183685,Caribbean,347-392-3383
CUSTOM FUEL PIZZA,50005871,2288 FREDERICK DOUGLASS BLVD,"NEW YORK, NY 10027",Manhattan,997487,233936,Pizza,646-524-5636
D' MONTAZO RESTAURANT,50016323,216 WYCKOFF AVE,"BROOKLYN, NY 11237",Brooklyn,1008005,194797,"Latin (Cuban, Dominican, Puerto Rican, South & Central American)",718-497-3978
D'AQUILA PASTRY SHOP,50070658,3331 FRANCIS LEWIS BLVD,"FLUSHING, NY 11358",Queens,1042418,218666,Other,718-886-6480
Da Capo,50068836,322 COLUMBUS AVE,"NEW YORK, NY 10023",Manhattan,990545,223275,Italian,646-882-0197
DAEJI DAEJI KOREAN BBQ,50032618,4108 149TH PL,"FLUSHING, NY 11355",Queens,1035590,216979,Korean,718-886-6797
DAIRY QUEEN GRILL & CHILL,50010102,54 W 14TH ST,"NEW YORK, NY 10011",Manhattan,985545,207682,Sandwiches,212-929-1440
Dairy Queen Grill & Chill,50055536,2005 FOREST AVE,"STATEN ISLAND, NY 10303",Staten Island,940949,167366,Hamburgers,718-720-0777
DALTON'S BAR AND GRILL,50049726,8414 ASTORIA BLVD,"EAST ELMHURST, NY 11370",Queens,1016138,217872,American ,718-255-1960
DANTE,50035310,79-81 MACDOUGAL ST,"NEW YORK, NY 10012",Manhattan,983825,204790,Italian,212-982-5275
DAVID'S BAKERY,50065037,4918 AVENUE H,"BROOKLYN, NY 11234",Brooklyn,1003934,169829,Bakery,917-601-7790
DAVIDOVICH BAKERY,50045017,75 9TH AVE,"NEW YORK, NY 10011",Manhattan,982944,209562,Bakery,212-391-2870
DAVIES ROTI SHOP AND SMOOTHIE BAR,50056343,12707 ROCKAWAY BLVD,"SOUTH OZONE PARK, NY 11420",Queens,1036799,185322,Caribbean,718-641-1769
DEAN CAFE,50068863,951 DEAN ST,"BROOKLYN, NY 11238",Brooklyn,995802,186360,American ,718-230-5555
DEFONTE'S OF BROOKLYN,50018238,95 WATER ST,"STATEN ISLAND, NY 10304",Staten Island,962870,167747,Sandwiches,718-285-4310
DEL FRISCO'S GRILLE,50065733,200 VESEY ST,"NEW YORK, NY 10281",Manhattan,979955,199569,American ,212-786-0760
DELANEY CHICKEN (URBAN SPACE),50040648,230 PARK AVE,"NEW YORK, NY 10169",Manhattan,990913,214165,Chicken,201-981-0997
DELFINI,50065159,500 TIFFANY ST,"BRONX, NY 10474",Bronx,1014673,234369,American ,718-991-1337
DELICIAS MEXICANOS,50053120,10214 ROOSEVELT AVE,"CORONA, NY 11368",Queens,1021982,212460,Mexican,718-672-4485
DELICIAS TROPICAL,50056234,9316 37TH AVE,"JACKSON HEIGHTS, NY 11372",Queens,1019205,212853,"Latin (Cuban, Dominican, Puerto Rican, South & Central American)",718-672-3456
DELIVERY ONLY,50045639,126 PEARL ST,"NEW YORK, NY 10005",Manhattan,981824,196100,American ,212-203-5944
DEMONS JAPANESE CUISINE,50058859,1418 150TH ST,"FLUSHING, NY 11357",Queens,1035858,226543,Japanese,917-285-2125
DENIZEN,50056804,88 ROEBLING ST,"BROOKLYN, NY 11211",Brooklyn,996646,200202,American ,929-337-6412
DENNY'S,50017990,805 PENNSYLVANIA AVE,"BROOKLYN, NY 11207",Brooklyn,1014743,178986,American ,718-272-0301
DENNY'S,50057426,8710 NORTHERN BLVD,"JACKSON HEIGHTS, NY 11372",Queens,1017353,214753,American ,718-446-1312
DEVON & BLAKELY,50053053,185 GREENWICH ST,"NEW YORK, NY 10007",Manhattan,980899,198618,American ,212-826-0212
DIAMOND REEF,50061005,1057 ATLANTIC AVE,"BROOKLYN, NY 11238",Brooklyn,996266,186841,American ,917-710-3926
DING,50047806,234 W 48TH ST,"NEW YORK, NY 10036",Manhattan,988224,216331,Chinese,212-265-0828
DIRT CANDY,50016891,86 ALLEN ST,"NEW YORK, NY 10002",Manhattan,986752,200872,Vegetarian,212-228-7732
DIRTY FRENCH,50010546,180 LUDLOW ST,"NEW YORK, NY 10002",Manhattan,987724,202252,French,212-254-3000
DIRTY PRECIOUS,50047345,317 3RD AVE,"BROOKLYN, NY 11215",Brooklyn,987897,185722,American ,646-567-7619
DISH FOOD & EVENTS,50038565,190 N 14TH ST,"BROOKLYN, NY 11249",Brooklyn,996537,202690,Delicatessen,347-455-0077
DISTRICT MOT,50044225,3715 BROADWAY,"ASTORIA, NY 11103",Queens,1006304,216043,Asian,718-956-0007
DIVYA'S KITCHEN,50056216,25 1ST AVE,"NEW YORK, NY 10003",Manhattan,987533,202929,Vegetarian,212-477-4834
DO COOKIE DOUGH CONFECTIONS,50059069,550 LAGUARDIA PL,"NEW YORK, NY 10012",Manhattan,984723,204817,"Ice Cream, Gelato, Yogurt, Ices",646-892-3600
DO OR DIVE,50053916,1108 BEDFORD AVE,"BROOKLYN, NY 11216",Brooklyn,996838,189505,American ,347-406-8241
DOCTORS CAVE CAFE,50038299,856 MARCY AVE,"BROOKLYN, NY 11216",Brooklyn,998954,188537,American ,718-398-4776
DOMINICANA POLLO SABROSO RESTAURANT,50048262,105 E MOUNT EDEN AVE,"BRONX, NY 10452",Bronx,1008388,246612,"Latin (Cuban, Dominican, Puerto Rican, South & Central American)",718-294-4403
DOMO TACO,50050892,733 FRANKLIN AVE,"BROOKLYN, NY 11238",Brooklyn,996209,184700,Mexican,718-484-4485
DOMO TACO,50052325,66 WILLOUGHBY ST,"BROOKLYN, NY 11201",Brooklyn,988116,191456,Tex-Mex,718-797-0528
DON CHUCHO,50067284,1112 FOREST AVE,"STATEN ISLAND, NY 10310",Staten Island,948993,167675,Mexican,347-606-5753
DOS CAMINOS,50051612,1567 BROADWAY,"NEW YORK, NY 10036",Manhattan,988359,215891,Mexican,212-918-1330
DOS TOROS,50050876,1290 6TH AVE,"NEW YORK, NY 10104",Manhattan,989869,216478,Mexican,212-414-2560
DOS TOROS,50055078,119 W 40TH ST,"NEW YORK, NY 10018",Manhattan,988121,213971,Tex-Mex,917-993-7201
DOS TOROS TAQUERIA,50044927,636 LEXINGTON AVE,"NEW YORK, NY 10022",Manhattan,992429,215838,Mexican,347-486-5856
DOS TOROS TAQUERIA,50071896,555 8TH AVE,"NEW YORK, NY 10018",Manhattan,986518,214153,Other,212-414-4256
Dosa Garden,50065353,323 VICTORY BLVD,"STATEN ISLAND, NY 10301",Staten Island,960562,170423,Other,917-541-1730
DOSA ROYALE,50048152,258 DEKALB AVE,"BROOKLYN, NY 11205",Brooklyn,992949,190464,Indian,718-576-3800
DOUBLE BEN CAFE,50069518,7901 17TH AVE,"BROOKLYN, NY 11214",Brooklyn,984040,162436,Chinese,347-554-8237
DOUBLE DRAGON 88,50045598,2037 1ST AVE,"NEW YORK, NY 10029",Manhattan,1000720,226743,Chinese,212-534-6399
DOUGHNUT PLANT,50017190,245 FLATBUSH AVENUE,"BROOKLYN, NY 11217",Brooklyn,991166,187305,Cafe/Coffee/Tea,212-505-3700
DOUGLASTON DELI,50056938,4423 DOUGLASTON PKWY,"LITTLE NECK, NY 11363",Queens,1054833,218510,Delicatessen,718-_63-1_33
DQ GRILL & CHILL,50037455,27 GRAHAM AVE,"BROOKLYN, NY 11206",Brooklyn,1000231,195100,American ,929-295-9854
DREAM EATERY,50050661,6712 FORT HAMILTON PKWY,"BROOKLYN, NY 11219",Brooklyn,981231,168635,Asian,347-661-5640
DRINK,50035551,768 FRANKLIN AVE,"BROOKLYN, NY 11238",Brooklyn,996058,184176,American ,347-789-3833
DRINK,50057002,1551 BROADWAY,"NEW YORK, NY 10036",Manhattan,988319,215730,Cafe/Coffee/Tea,212-205-7284
DRUNKEN FISH,50015494,5235 METROPOLITAN AVE,"RIDGEWOOD, NY 11385",Queens,1008084,199200,Japanese,718-821-1283
DU'S DONUTS AND COFFEE,50062941,107 N 12TH ST,"BROOKLYN, NY 11249",Brooklyn,996131,202358,Donuts,718-215-8770
DUMPLINGS AND THINGS,50017917,4526 46TH ST,"SUNNYSIDE, NY 11104",Queens,1006734,209770,Chinese,718-392-2337
DUNKIN DONUTS,50043586,1995 AMSTERDAM AVE,"NEW YORK, NY 10032",Manhattan,1000508,243102,Donuts,646-340-2983
Dunkin Donuts,50043915,1058B FLUSHING AVE,"BROOKLYN, NY 11237",Brooklyn,1003893,195970,Donuts,347-663-1130
DUNKIN DONUTS,50044345,321 BROADWAY,"NEW YORK, NY 10007",Manhattan,982899,200096,Donuts,201-815-9686
DUNKIN DONUTS,50045038,2655 RICHMOND AVENUE,,Staten Island,937291,151466,Donuts,646-247-8101
DUNKIN DONUTS,50045582,1964 3RD AVE,"NEW YORK, NY 10029",Manhattan,999811,228114,Donuts,212-369-9610
DUNKIN DONUTS,50047882,8710 NORTHERN BLVD,"JACKSON HEIGHTS, NY 11372",Queens,1017353,214753,Donuts,718-458-5260
DUNKIN DONUTS,50048221,309 W 57TH ST,"NEW YORK, NY 10019",Manhattan,988832,218705,Donuts,212-315-2616
DUNKIN DONUTS,50049533,2568 BROADWAY,"NEW YORK, NY 10025",Manhattan,992141,228925,Cafe/Coffee/Tea,212-666-5100
DUNKIN DONUTS,50051725,700 RICHMOND TER,"STATEN ISLAND, NY 10301",Staten Island,957762,174241,Donuts,646-247-8101
DUNKIN DONUTS,50051739,3845 RICHMOND AVE,"STATEN ISLAND, NY 10312",Staten Island,938376,137537,Donuts,646-247-8101
DUNKIN DONUTS,50052001,2449 VETERANS RD W,"STATEN ISLAND, NY 10309",Staten Island,918870,131722,Cafe/Coffee/Tea,646-247-8101
DUNKIN DONUTS,50057207,610 EXTERIOR ST,"BRONX, NY 10451",Bronx,1003386,238668,Donuts,732-406-2445
DUNKIN DONUTS,50058987,8707 ROCKAWAY BEACH BLVD,"ROCKAWAY BEACH, NY 11693",Queens,1036376,153343,Donuts,347-619-5751
DUNKIN DONUTS,50058989,3776 JUNCTION BLVD,"CORONA, NY 11368",Queens,1020256,212622,Donuts,347-808-8425
DUNKIN DONUTS,50060813,8610 QUEENS BLVD,"ELMHURST, NY 11373",Queens,1018250,207633,Cafe/Coffee/Tea,917-832-6434
DUNKIN DONUTS BASKIN ROBBINS,50045398,2012 MOTT AVE,"FAR ROCKAWAY, NY 11691",Queens,1052834,159550,Donuts,718-471-0714
"DUNKIN DONUTS,BASKIN ROBBINS",50056398,3504 BROADWAY,"NEW YORK, NY 10031",Manhattan,997743,239969,Donuts,646-340-4041
DUNKIN DONUTS-BASKIN ROBBINS,50056173,240 E 23RD ST,"NEW YORK, NY 10010",Manhattan,989189,208301,Donuts,212-228-0442
DUNKIN DONUTS/POPEYES,50066621,1556 BROADWAY,"BROOKLYN, NY 11221",Brooklyn,1007565,189215,Donuts,347-425-1537
DUNKIN' DONUTS,50003735,3833 BROADWAY,"New York, NY 10032",Manhattan,999830,243750,American ,212-568-4800
DUNKIN' DONUTS,50004910,9502 37TH AVE,"JACKSON HEIGHTS, NY 11372",Queens,1019688,212949,Donuts,347-813-4992
DUNKIN' DONUTS,50007323,8611 LEFFERTS BLVD,"RICHMOND HILL, NY 11418",Queens,1031020,194699,American ,347-392-4103
DUNKIN' DONUTS,50007846,398 AUDUBON AVE,"NEW YORK, NY 10033",Manhattan,1003428,249336,Donuts,646-669-8107
DUNKIN' DONUTS,50008511,5914 BEACH CHANNEL DR,"ARVERNE, NY 11692",Queens,1042858,155805,Donuts,718-474-1091
DUNKIN' DONUTS,50008834,1592 WESTCHESTER AVE,"BRONX, NY 10472",Bronx,1018609,241375,Donuts,732-406-2445
DUNKIN' DONUTS,50012276,67 COOPER SQ,"NEW YORK, NY 10003",Manhattan,986981,204941,Donuts,646-678-4137
DUNKIN' DONUTS,50012789,5109 BROADWAY,"WOODSIDE, NY 11377",Queens,1009554,214039,Donuts,347-229-1865
DUNKIN' DONUTS,50013718,1776 EASTCHESTER RD,"BRONX, NY 10461",Bronx,1027553,248917,Donuts,914-815-4205
DUNKIN' DONUTS,50013752,12117 LIBERTY AVE,"SOUTH RICHMOND HILL, NY 11419",Queens,1033605,189646,Donuts,201-815-9686
DUNKIN' DONUTS,50017476,916 3RD AVE,"NEW YORK, NY 10022",Manhattan,993018,215855,Donuts,212-532-5003
DUNKIN' DONUTS,50033852,1779 SOUTHERN BLVD,"BRONX, NY 10460",Bronx,1015375,244531,Donuts,646-661-4262
DUNKIN' DONUTS,50034453,16910 HILLSIDE AVE,"JAMAICA, NY 11432",Queens,1041690,198301,Donuts,718-658-1596
DUNKIN' DONUTS,50034561,1379 HALSEY ST,"BROOKLYN, NY 11237",Brooklyn,1010489,192775,Donuts,718-382-8636
DUNKIN' DONUTS,50034566,9403 CORONA AVE,"ELMHURST, NY 11373",Queens,1020393,209750,Donuts,917-396-4635
DUNKIN' DONUTS,50035707,900 1ST AVE,"NEW YORK, NY 10022",Manhattan,993678,214023,Donuts,646-380-5809
DUNKIN' DONUTS,50036539,13344 150TH ST,"JAMAICA, NY 11436",Queens,1042705,182587,Donuts,516-472-7100
DUNKIN' DONUTS,50037148,585 VETERANS RD W,"STATEN ISLAND, NY 10309",Staten Island,922941,139510,Donuts,718-673-3298
DUNKIN' DONUTS,50038495,80 JOHN ST,"NEW YORK, NY 10038",Manhattan,982341,197380,Donuts,212-232-0020
DUNKIN' DONUTS,50040448,3105 QUEENS BLVD,"LONG ISLAND CITY, NY 11101",Queens,1002474,211028,Donuts,718-482-6572
DUNKIN' DONUTS,50041265,208 E 14TH ST,"NEW YORK, NY 10003",Manhattan,987930,206361,Donuts,212-254-1814
DUNKIN' DONUTS,50042783,16601 NORTHERN BLVD,"FLUSHING, NY 11358",Queens,1039612,216106,Donuts,516-674-8200
DUNKIN' DONUTS,50042840,105 W 125TH ST,"NEW YORK, NY 10027",Manhattan,999236,233638,Donuts,646-892-7695
DUNKIN' DONUTS,50049536,2424 BROADWAY,"NEW YORK, NY 10024",Manhattan,991208,227242,Donuts,732-406-2445
"DUNKIN' DONUTS, BASKIN ROBBINS",50014277,14401 LIBERTY AVE,"JAMAICA, NY 11435",Queens,1037279,191696,Donuts,718-657-0518
"DUNKIN' DONUTS, BASKIN ROBBINS",50014921,542 E 14TH ST,"NEW YORK, NY 10009",Manhattan,990105,205162,Donuts,646-484-5519
"DUNKIN' DONUTS, BASKIN ROBBINS",50043918,140 DELANCEY ST,"NEW YORK, NY 10002",Manhattan,987875,200914,Donuts,646-340-4526
DUNKIN' DONUTS-BASKIN ROBBINS,50044841,57 E 125TH ST,"NEW YORK, NY 10035",Manhattan,1000807,232768,Donuts,646-340-2446
Dunkin Donuts,50044842,900 SAINT NICHOLAS AVE,"NEW YORK, NY 10032",Manhattan,1000489,242040,Donuts,646-340-3929
DY JUICE BAR,50053477,24 VESTRY ST,"NEW YORK, NY 10013",Manhattan,982079,202542,"Juice, Smoothies, Fruit Salads",646-264-7787
DYLAN'S CANDY BAR,50006470,,,Queens,,,Other,718-878-3029
E FOOD NO WORRIES,50046051,5523 7TH AVE,"BROOKLYN, NY 11220",Brooklyn,981754,172252,Chinese,917-376-9186
E NOODLE,50051839,8619 5TH AVE,"BROOKLYN, NY 11209",Brooklyn,976932,165637,Chinese,718-238-3303
E NOODLE HOUSE,50041332,5908 KISSENA BLVD,"FLUSHING, NY 11355",Queens,1035501,209118,Chinese,718-539-8882
E Noodle House,50067018,13620 ROOSEVELT AVE,"FLUSHING, NY 11354",Queens,1031557,216133,Chinese,646-715-8153
E.A.K. RAMEN,50064285,469 6TH AVE,"NEW YORK, NY 10011",Manhattan,984763,207268,Japanese,646-863-2027
EAST 21 FOREVER,50055312,7126 ROOSEVELT AVE,"JACKSON HEIGHTS, NY 11372",Queens,1013569,211284,Asian,917-702-2225
EAST SIDE DINER,50053413,352 E 23RD ST,"NEW YORK, NY 10010",Manhattan,989916,207882,American ,212-533-2034
EAST VILLAGE THIA RESTAURANT,50045953,32 E 7TH ST,"NEW YORK, NY 10003",Manhattan,987320,204620,Thai,212-673-4610
EASTFIELD'S,50048487,1479 YORK AVE,"NEW YORK, NY 10075",Manhattan,997892,220167,American ,212-966-6032
EAT AND GO,50040799,15814 CROSSBAY BLVD,"HOWARD BEACH, NY 11414",Queens,1028587,179929,Turkish,718-848-0746
Eat Morris,50043362,145 BROOKLYN AVE,"BROOKLYN, NY 11213",Brooklyn,999655,185119,Cafe/Coffee/Tea,207-272-3346
EATSA,50055047,285 MADISON AVE,"NEW YORK, NY 10017",Manhattan,989781,213162,Vegetarian,203-293-9799
EATSA,50057180,666 3RD AVE,"NEW YORK, NY 10017",Manhattan,991384,212905,American ,415-938-8992
ED'S ELBOW ROOM,50067514,308 E 78TH ST,"NEW YORK, NY 10075",Manhattan,996695,220701,American ,646-649-3764
EDEN LOCAL,50060621,508 W 42ND ST,"NEW YORK, NY 10036",Manhattan,985324,216126,American ,646-527-7978
EFFY'S KITCHEN,50040806,1567 LEXINGTON AVE,"NEW YORK, NY 10029",Manhattan,998377,226560,American ,347-863-8356
EIGHT JANE FOOD,50043427,3712 MAIN ST,"FLUSHING, NY 11354",Queens,1031056,216708,Asian,718-581-9077
EIM KHAO MUN KAI,50005883,8132 BROADWAY,"ELMHURST, NY 11373",Queens,1016536,210065,Thai,718-424-7156
EJEN,50062739,254 36TH ST,"BROOKLYN, NY 11232",Brooklyn,982264,178257,Other,310-634-5593
EL BARRIL RESTAURANT,50063010,414 E 138TH ST,"BRONX, NY 10454",Bronx,1005803,233948,Other,347-543-6780
El Barrio Burritos,50008164,796A FRANKLIN AVE,"BROOKLYN, NY 11238",Brooklyn,995964,183832,Mexican,718-576-6611
EL BIGOTE RESTAURANT,50069644,9 E 31ST ST,"BROOKLYN, NY 11226",Brooklyn,998530,176250,Mexican,347-894-6148
EL CAMPEON DE LOS POLLOS,50039847,11106 LEFFERTS BLVD,"S OZONE PARK, NY 11420",Queens,1033833,187153,Spanish,718-738-5361
EL CARBONCITO RESTAURANT,50062979,1524 WATSON AVE,"BRONX, NY 10472",Bronx,1017932,240256,Mexican,718-893-8211
EL CONDE NUEVO,50060875,4139 BROADWAY,"NEW YORK, NY 10033",Manhattan,1001267,247534,Spanish,212-781-0419
EL DOMINICAN VALLE RESTAURANT,50067994,1601 SAINT NICHOLAS AVE,"NEW YORK, NY 10040",Manhattan,1003730,250788,Spanish,646-869-0092
EL DORADO RESTAURANT,50056193,2236 HYLAN BLVD,"STATEN ISLAND, NY 10306",Staten Island,955325,149167,Spanish,718-980-1580
EL FOGON CHARCOAL GRILL,50067143,1017 CORTELYOU RD,"BROOKLYN, NY 11218",Brooklyn,992975,172217,Caribbean,718-484-8770
EL MACUMBA,50057875,68 CANAL ST,"STATEN ISLAND, NY 10304",Staten Island,963170,167584,Other,718-664-8751
EL NUEVO AMANECER RESTAURANT SPORTS BAR,50064593,500 MORRIS PARK AVE,"BRONX, NY 10460",Bronx,1019634,245982,Spanish,347-284-9014
EL NUEVO VALLE III,50060214,268 E 167TH ST,"BRONX, NY 10456",Bronx,1007989,242892,"Latin (Cuban, Dominican, Puerto Rican, South & Central American)",917-801-0086
EL PUNTO RESTAURANT,50060472,494 E 138TH ST,"BRONX, NY 10454",Bronx,1006464,233581,Spanish,347-918-9980
EL REY IV BILLIARD & LOUNGE,50038308,7516 ROCKAWAY BLVD,"WOODHAVEN, NY 11421",Queens,1021696,189169,Spanish,718-296-1717
EL SABOR CARIBENO RESTAURANT,50055367,1062 BROADWAY,"BROOKLYN, NY 11221",Brooklyn,1003227,192455,Spanish,718-602-0006
EL SOMBRERO,50017235,108 STANTON ST,"NEW YORK, NY 10002",Manhattan,987695,202023,"Latin (Cuban, Dominican, Puerto Rican, South & Central American)",212-254-4188
EL TORITO MEXICAN RESTAURANT,50032967,2132 CRUGER AVE,"BRONX, NY 10462",Bronx,1021128,250505,Mexican,718-239-2228
EL VALLE RESTAURANTE,50045072,3452 BOSTON RD,"BRONX, NY 10469",Bronx,1026149,258587,Spanish,718-655-1771
EL VALLE SEAFOOD RESTAURANT,50048246,231 SHERMAN AVE,"NEW YORK, NY 10034",Manhattan,1006485,254770,Spanish,201-543-4697
EL VALLE SEAFOOD RESTAURANT,50065281,588 LENOX AVE,"NEW YORK, NY 10037",Manhattan,1001207,236935,Spanish,201-543-4697
EL VIEJO YAYO RESTAURANT & BAR,50019248,9712 101ST AVE,"OZONE PARK, NY 11416",Queens,1027513,188815,Spanish,718-322-3920
ELITE CAFE,50056718,7228 MAIN ST,"FLUSHING, NY 11367",Queens,1033754,203759,Jewish/Kosher,718-570-9006
ELLIE'S DINER & RESTAURANT,50032968,58 METROPOLITAN OVAL,"BRONX, NY 10462",Bronx,1023060,244527,American ,718-239-9870
ELSA,50060322,136 ATLANTIC AVE,"BROOKLYN, NY 11201",Brooklyn,985570,190835,American ,917-640-6842
EMACK & BOLIOS,50037719,115 MONTAGUE ST,"BROOKLYN, NY 11201",Brooklyn,985672,192469,"Ice Cream, Gelato, Yogurt, Ices",929-337-6423
EMBASSY SUITES BY HILTON NEW YORK MIDTOWN MANHATTAN,50069969,60 W 37TH ST,"NEW YORK, NY 10018",Manhattan,988399,212928,Other,202-559-1927
EMELY CAFE,50050962,424 SUTTER AVE,"BROOKLYN, NY 11212",Brooklyn,1011040,182713,"Latin (Cuban, Dominican, Puerto Rican, South & Central American)",347-425-7608
EMILY,50005678,919 FULTON ST,"BROOKLYN, NY 11238",Brooklyn,993567,188255,American ,347-844-9588
Empanada King,50071477,14 E MOUNT EDEN AVE,"BRONX, NY 10452",Bronx,1007939,246848,Other,917-415-5410
EMPIRE RESTAURANT,50070273,2419 7TH AVE,"NEW YORK, NY 10030",Manhattan,1000637,237762,Chinese,212-862-5660
EMPLOYEE'S CAFETERIA,50059141,374 STOCKHOLM ST,"BROOKLYN, NY 11237",Brooklyn,1007069,196005,American ,718-963-7254
ENERGY JUICE BAR AND GRILL,50059349,3788 NOSTRAND AVE,"BROOKLYN, NY 11235",Brooklyn,1000880,154680,"Juice, Smoothies, Fruit Salads",347-673-6231
ENRICHED SOCIAL ADULT DAY CARE SERVICES,50010872,7712 NEW UTRECHT AVE,"BROOKLYN, NY 11214",Brooklyn,984122,162968,Russian,347-782-8759
EPICERIE BOULUD,50053374,185 GREENWICH ST,"NEW YORK, NY 10007",Manhattan,980899,198618,French,212-595-9605
ERQAL,50062824,13620 ROOSEVELT AVE,"FLUSHING, NY 11354",Queens,1031557,216133,Chinese,646-665-4595
ESPINAL DELI & GROCERY,50058269,282 NOSTRAND AVE,"BROOKLYN, NY 11205",Brooklyn,997684,190762,Spanish,718-857-1784
ETSY,50060266,117 ADAMS ST,"BROOKLYN, NY 11201",Brooklyn,987394,194536,American ,
ETTO ESPRESSO BAR,50038414,4277 HUNTER ST,"LONG ISLAND CITY, NY 11101",Queens,1000701,212020,Cafe/Coffee/Tea,718-786-4320
EXQUISITO DOMINICAN RESTAURANT,50054979,1542 GATES AVE,"BROOKLYN, NY 11237",Brooklyn,1008498,194011,Spanish,718-497-2228
F & F PIZZERIA,50052109,1060 RICHMOND RD,"STATEN ISLAND, NY 10304",Staten Island,958513,158218,Pizza/Italian,347-606-1348
FACTORY CAFE NYC,50055646,1724 SHEEPSHEAD BAY RD,"BROOKLYN, NY 11235",Brooklyn,997677,152614,Mediterranean,718-769-2233
FAIRFIELD INN & SUITES NEW YORK MANHATTAN FINANCIAL DISTRICT,50017223,161 FRONT ST,"NEW YORK, NY 10038",Manhattan,982836,196510,Continental,212-826-0001
FAIRYTALE ISLAND,50068189,7110 3RD AVE,"BROOKLYN, NY 11209",Brooklyn,976826,170279,Cafe/Coffee/Tea,718-395-0835
FAMOUS SICHUAN,50005590,10 PELL ST,"NEW YORK, NY 10013",Manhattan,984916,199674,Chinese,212-233-3888
FANTASTIC BAGELS,50059091,8614 4TH AVE,"BROOKLYN, NY 11209",Brooklyn,976357,166116,Bagels/Pretzels,718-238-0733
FAR EAST RESTAURANT,50067815,471A 5TH AVE,"BROOKLYN, NY 11215",Brooklyn,987824,182714,Chinese,917-981-1112
FARINELLA,50039079,267 AMSTERDAM AVE,"NEW YORK, NY 10023",Manhattan,989405,223058,Pizza,212-348-7500
FATHER KNOWS BEST,50032750,611A WILSON AVE,"BROOKLYN, NY 11207",Brooklyn,1010014,190719,American ,718-975-6840
FAWKNER,50040327,191 SMITH ST,"BROOKLYN, NY 11201",Brooklyn,986628,188948,American ,718-369-3310
FEED YOUR SOUL CAFE (Located inside Lobby of Roza Management Building),50064359,14 WALL ST,"NEW YORK, NY 10005",Manhattan,981201,196982,Cafe/Coffee/Tea,212-732-9868
FILLMORE DELICATESSEN,50047509,1668 3RD AVE,"NEW YORK, NY 10128",Manhattan,997946,224749,Sandwiches/Salads/Mixed Buffet,646-912-9488
FINE & RARE,50057481,9 E 37TH ST,"NEW YORK, NY 10016",Manhattan,989135,212527,American ,917-595-0812
Fire Grilled Burgers,50004726,1077 BAY ST,"STATEN ISLAND, NY 10305",Staten Island,965398,163894,American ,718-816-1740
FIRST STOP BAR & GRILL,50063906,2708 QUEENS PLZ S,"LONG ISLAND CITY, NY 11101",Queens,1000965,212562,American ,347-612-4754
FLATBUSH ZOMBIE HOUSE,50068695,734 FLATBUSH AVE,"BROOKLYN, NY 11226",Brooklyn,995414,177955,"Bottled beverages, including water, sodas, juices, etc.",914-_44-3_91
FLB'S PUB,50011613,3255 FRANCIS LEWIS BLVD,"FLUSHING, NY 11358",Queens,1042126,219138,American ,718-309-7401
FLIP SIGI,50068467,1752 2ND AVE,"NEW YORK, NY 10128",Manhattan,998301,223915,Filipino,646-559-1280
FLOUR SHOP,50071271,177 LAFAYETTE ST,"NEW YORK, NY 10013",Manhattan,984621,201773,Other,610-888-8329
FLOWERS FOR ALL OCCASIONS,50043802,1114 DEKALB AVE,"BROOKLYN, NY 11221",Brooklyn,1003664,192062,American ,917-860-8282
FOGO DE CHAO,50004133,40 W 53RD ST,"NEW YORK, NY 10019",Manhattan,990348,216644,Brazilian,212-969-9980
FOREST PARK SNACK BAR,50051902,8350 WOODHAVEN BLVD,"GLENDALE, NY 11385",Queens,1024370,195097,Other,646-765-5977
FORNO ROSSO PIZZERIA,50009755,327 GOLD ST,"BROOKLYN, NY 11201",Brooklyn,988889,192315,Italian,718-451-3800
FORTUNE PLACE,50005177,286 BROADWAY,"BROOKLYN, NY 11211",Brooklyn,995762,197449,Chinese,718-963-3533
FOWLER AND WELLS,50053729,5 BEEKMAN ST,"NEW YORK, NY 10038",Manhattan,982402,198456,Other,212-400-6488
FRANKEL'S DELICATESSEN,50047343,631 MANHATTAN AVE,"BROOKLYN, NY 11222",Brooklyn,997867,203014,American ,917-710-8621
FRESH LEAF,50060492,58 W 36TH ST,"NEW YORK, NY 10018",Manhattan,988171,212759,American ,212-695-0100
FRESH POND SPICE,50058251,6402 FRESH POND RD,"RIDGEWOOD, NY 11385",Queens,1012170,198042,Indian,718-581-4401
FRESH SOFT TORTILLA,50043899,3115 DITMARS BLVD,"ASTORIA, NY 11105",Queens,1009134,221922,Tex-Mex,646-525-9664
FRESH TACO,50044700,4559 46TH ST,"WOODSIDE, NY 11377",Queens,1006717,209618,Chinese,718-752-1818
FREUD,50044932,506 LAGUARDIA PL,"NEW YORK, NY 10012",Manhattan,984429,204365,French,212-777-0327
FRIEND OF A FARMER,50018062,76 MONTAGUE ST,"BROOKLYN, NY 11201",Brooklyn,985265,192609,American ,516-547-4167
FRIEND RESTAURANT,50005341,11015 101ST AVE,"SOUTH RICHMOND HILL, NY 11419",Queens,1030459,189928,Chinese,718-441-5484
FRIENDS AND LOVERS,50058844,641 CLASSON AVE,"BROOKLYN, NY 11238",Brooklyn,995700,186510,American ,212-920-1988
FUKU,50037044,163 1ST AVE,"NEW YORK, NY 10003",Manhattan,988580,204821,American ,212-229-0031
FUKUOKA SHABU-SHABU,50015593,6102 SPRINGFIELD BLVD,"OAKLAND GARDENS, NY 11364",Queens,1051698,212182,Japanese,718-631-3131
FUSHIMI,50054331,17 PAGE AVE,"STATEN ISLAND, NY 10309",Staten Island,918951,129983,Japanese,718-356-3333
FUSHIMI JAPANESE CUISINE,50014920,2110 RICHMOND RD,"STATEN ISLAND, NY 10306",Staten Island,953205,151155,Japanese,718-980-5300
GALERIA,50043092,43 CLINTON ST,"NEW YORK, NY 10002",Manhattan,988497,201543,Brazilian,917-675-6887
Gasoline Alley Coffee,50005029,154 GRAND ST,"NEW YORK, NY 10013",Manhattan,984555,201583,Cafe/Coffee/Tea,212-933-0113
Gasoline Alley Coffee,50057143,24 E 23RD ST,"NEW YORK, NY 10010",Manhattan,987659,209149,Cafe/Coffee/Tea,212-933-0113
GATHER,50059625,303 SPRING ST,"NEW YORK, NY 10013",Manhattan,981969,203746,Cafe/Coffee/Tea,347-982-1779
GAW GAI,50057511,2306 JACKSON AVE,"LONG ISLAND CITY, NY 11101",Queens,999365,211028,Thai,917-319-3033
GENTING NEW YORK LLC,50071496,11000 ROCKAWAY BLVD,"SOUTH OZONE PARK, NY 11420",Queens,1031748,186217,Other,786-397-7392
GENTING NEW YORK LLC,50071596,11000 ROCKAWAY BLVD,"SOUTH OZONE PARK, NY 11420",Queens,1031748,186217,Other,786-397-7392
GEORGIAN DREAM CAFE-RESTAURANT,50054113,8309 3RD AVE,"BROOKLYN, NY 11209",Brooklyn,975868,167182,Eastern European,718-333-5363
GERBASI RESTAURANT,50067297,2389 ARTHUR AVE,"BRONX, NY 10458",Bronx,1015289,250905,Italian,718-220-5735
GIA LAM II,50046234,5414 8TH AVE,"BROOKLYN, NY 11220",Brooklyn,982530,171988,Other,917-335-3879
GIGI'S PIZZA & PASTA,50063408,2020 EASTCHESTER RD,"BRONX, NY 10461",Bronx,1027561,250400,Pizza/Italian,718-684-4918
GIRASOLES MEXICAN CUISINE,50058812,18401 JAMAICA AVE,"JAMAICA, NY 11423",Queens,1046387,197724,Mexican,718-487-4316
Git-It-N-Git,50016362,1299 BERGEN ST,"BROOKLYN, NY 11213",Brooklyn,1000283,185452,Seafood,347-346-8278
GIVERS AND TAKERS,50014712,286 3RD AVE,"BROOKLYN, NY 11215",Brooklyn,988092,186044,American ,917-627-1984
GLORIA,50061305,401 W 53RD ST,"NEW YORK, NY 10019",Manhattan,987574,218188,Other,212-956-0709
GLORIA JEAN'S COFFEES,50071630,9015 QUEENS BLVD,"ELMHURST, NY 11373",Queens,1019841,206663,Other,646-755-5299
GOLDEN KRUST,50053833,16510 JAMAICA AVE,"JAMAICA, NY 11432",Queens,1041176,196388,Caribbean,718-526-2008
GOLDEN KRUST CARIBBEAN BAKERY & GRILL,50055291,23002 MERRICK BLVD,"LAURELTON, NY 11413",Queens,1056282,185690,Caribbean,929-356-3076
GOLDEN KRUST CARIBBEAN BAKERY & GRILL,50067775,21873 HEMPSTEAD AVE,"QUEENS VILLAGE, NY 11429",Queens,1057550,199238,Caribbean,516-244-3949
GOLDEN KRUST CARIBBEAN BAKERY & GRILL,50071292,23004 MERRICK BLVD,"LAURELTON, NY 11413",Queens,1056286,185689,Other,914-912-2676
GOLDIE'S,50053142,195 NASSAU AVE,"BROOKLYN, NY 11222",Brooklyn,999465,203623,American ,718-389-2348
GONG CHA,50053084,13620 ROOSEVELT AVE,"FLUSHING, NY 11354",Queens,1031557,216133,Cafe/Coffee/Tea,718-353-7327
GONG CHA,50053085,4006 UNION ST,"FLUSHING, NY 11354",Queens,1032332,216302,Other,718-762-2874
GONG CHA,50054262,6135 JUNCTION BLVD,"REGO PARK, NY 11374",Queens,1021894,206516,Cafe/Coffee/Tea,718-271-7372
GONG CHA,50063529,72 BAYARD ST,"NEW YORK, NY 10013",Manhattan,984718,199981,Cafe/Coffee/Tea,646-726-4940
Gong Cha,50064521,156 LAWRENCE ST,"BROOKLYN, NY 11201",Brooklyn,988048,191299,Cafe/Coffee/Tea,917-909-1207
GONG CHA SKYVIEW LLC,50070070,4024 COLLEGE POINT BLVD,"FLUSHING, NY 11354",Queens,1030224,215280,Other,917-681-1688
GOOD LUCK CHINESE RESTAURANT,50040929,4516 48TH AVE,"WOODSIDE, NY 11377",Queens,1006378,208663,Chinese,646-340-6677
GOOD PIZZA,50065554,5220 FLUSHING AVE,"MASPETH, NY 11378",Queens,1007883,199443,Pizza,718-673-7776
GOTHAM COFFEE ROASTERS,50058667,23 W 19TH ST,"NEW YORK, NY 10011",Manhattan,986368,208700,Cafe/Coffee/Tea,212-255-2972
GOURMET BAGEL,50066664,874 LEXINGTON AVE,"NEW YORK, NY 10065",Manhattan,993865,218430,Bagels/Pretzels,212-535-3030
GRAFFITI,50049906,130 DUANE ST,"NEW YORK, NY 10013",Manhattan,982207,200176,American ,212-964-4600
GRAMERCY KITCHEN,50071387,184 3RD AVE,"NEW YORK, NY 10003",Manhattan,988169,207101,Other,917-418-8739
GRAND ARMY BAR,50035885,336 STATE ST,"BROOKLYN, NY 11217",Brooklyn,988064,190033,Seafood,718-422-7867
Grand Banks,50010286,HUDSON RIVER Park N. Moore St. at West S,"NEW YORK, NY 10013",Manhattan,981762,212451,Seafood,212-960-3390
GRAND SICHUAN,50015759,98108 QUEENS BLVD,"REGO PARK, NY 11374",Queens,1024567,204265,Chinese,718-268-8833
Grand Slam Banquet Hall,50058810,3534 BROADWAY,"NEW YORK, NY 10031",Manhattan,997925,240296,American ,212-939-9777
GREAT WALL,50049872,6820 FORT HAMILTON PKWY,"BROOKLYN, NY 11219",Brooklyn,981018,168448,Chinese,718-833-6961
GREAT WALL CHINESE RESTAURANT,50054908,4341 MAIN ST,"FLUSHING, NY 11355",Queens,1032417,213160,Chinese,917-992-0606
GREAT WALL CHINESE RESTAURANT,50067285,4341 MAIN ST,"FLUSHING, NY 11355",Queens,1032417,213160,Chinese,917-496-3088
GREECOLOGIES,50017003,379 BROOME ST,"NEW YORK, NY 10013",Manhattan,985226,201720,Greek,212-941-0100
GREEK GYRO STYLE,50015788,211 KINGS HWY,"BROOKLYN, NY 11223",Brooklyn,988805,159899,Greek,718-676-4700
GREEN LADY,50066840,50 BOWERY,"NEW YORK, NY 10013",Manhattan,985254,200048,Other,646-630-8057
Green Leafs Juice Bar,50067224,4151 49TH ST,"SUNNYSIDE, NY 11104",Queens,1007724,211055,"Juice, Smoothies, Fruit Salads",917-396-4276
GREENPOINT DELI,50013306,3124 GREENPOINT AVE,"LONG ISLAND CITY, NY 11101",Queens,1001657,206928,Delicatessen,347-876-1230
GREENWICH STEAK HOUSE FG,50057613,62 GREENWICH AVE,"NEW YORK, NY 10011",Manhattan,984025,207457,Steak,212-553-5000
GRISTMILL,50050128,289 5TH AVE,"BROOKLYN, NY 11215",Brooklyn,989093,184713,American ,718-499-2424
Grotto Restaurant,50014922,8901 3RD AVE,"BROOKLYN, NY 11209",Brooklyn,975386,165640,Italian,718-921-9100
GUADALUPE INN,50054847,1 KNICKERBOCKER AVE,"BROOKLYN, NY 11237",Brooklyn,1003110,197116,Mexican,718-366-0500
GUCKENHEIMER@BARCLAYS,50070225,745 7TH AVE,"NEW YORK, NY 10019",Manhattan,988790,216386,Other,650-592-2380
GUCKENHEIMER@THEORY,50064982,2 GANSEVOORT ST,"NEW YORK, NY 10014",Manhattan,983116,208664,Cafe/Coffee/Tea,646-858-6236
GUIZHOU HUAXI WANG NOODLES,50041723,13335 ROOSEVELT AVE,"FLUSHING, NY 11354",Queens,1030448,215666,Chinese,917-818-6878
GUN HILL TAVERN,50068026,780 E 133RD ST,"BRONX, NY 10454",Bronx,1008234,231059,American ,718-402-0800
GUO BA INC,50053059,21232 48TH AVE,"BAYSIDE HILLS, NY 11364",Queens,1048313,214550,Asian,718-288-4888
GYRO CORNER NYC,50070510,3269 FRANCIS LEWIS BLVD,"FLUSHING, NY 11358",Queens,1042157,219090,Greek,718-359-5454
GYRO WORLD,50018857,6657 FRESH POND RD,"RIDGEWOOD, NY 11385",Queens,1012725,196963,Greek,718-366-4976
H.K. TASTE,50070257,4721 90TH ST,"ELMHURST, NY 11373",Queens,1018790,209551,Other,917-892-2070
HALAL CHINESE & KABAB,50055537,2146 STARLING AVE,"BRONX, NY 10462",Bronx,1024745,243961,Bangladeshi,718-975-1999
HALFTIME GRILL,50046503,2112 FLATBUSH AVE,"BROOKLYN, NY 11234",Brooklyn,1003061,164578,Jewish/Kosher,718-759-6688
HAMA,50032794,11 W 51ST ST,"NEW YORK, NY 10019",Manhattan,990492,215977,Japanese,516-880-4050
Hampton Inn JFK,50016985,14410 135TH AVE,"JAMAICA, NY 11436",Queens,1040870,182813,American ,718-322-7500
HANAMI SUSHI,50046049,857 9TH AVE,"NEW YORK, NY 10019",Manhattan,988033,218739,Japanese,212-258-2999
HAND ROLLED BAGEL CAFE,50034570,2022 FRANCIS LEWIS BLVD,"WHITESTONE, NY 11357",Queens,1039061,223333,Bagels/Pretzels,718-746-4343
HAPPY FAMILY HOTPOT,50011659,3635 MAIN ST,"FLUSHING, NY 11354",Queens,1030908,217059,Chinese,718-358-6667
HASHI RAMEN & IZAKAYA,50009233,19212 NORTHERN BLVD,"FLUSHING, NY 11358",Queens,1042648,215450,Japanese,718-224-2961
HAVE & MEYER,50068473,103 HAVEMEYER ST,"BROOKLYN, NY 11211",Brooklyn,996312,199133,Other,718-419-9072
HAVE & MEYER CHATTERIA,50042398,103 HAVEMEYER ST,"BROOKLYN, NY 11211",Brooklyn,996312,199133,Italian,718-419-0722
HAVELI FINE INDIAN CUISINE,50017167,11633 QUEENS BLVD,"FOREST HILLS, NY 11375",Queens,1030452,200169,Indian,718-446-5755
HE LI RESTAURANT,50053257,5221 FORT HAMILTON PKWY,"BROOKLYN, NY 11219",Brooklyn,984247,171275,Chinese,646-431-0949
HEMLOCK,50061457,65 RIVINGTON ST,"NEW YORK, NY 10002",Manhattan,986980,201813,Other,516-413-9633
Hemo's Spot Juice Bar & Cafe,50065363,486 BAY RIDGE AVE,"BROOKLYN, NY 11220",Brooklyn,978252,170163,"Juice, Smoothies, Fruit Salads",917-361-2422
HENDRIKS,50052588,557 3RD AVE,"NEW YORK, NY 10016",Manhattan,990669,211604,American ,212-686-8080
HENRY'S LOCAL,50005138,570 HENRY ST,"BROOKLYN, NY 11231",Brooklyn,984075,187609,Cafe/Coffee/Tea,917-640-4867
HER NAME IS HAN,50041966,17 E 31ST ST,"NEW YORK, NY 10016",Manhattan,988460,211088,Korean,212-779-9990
HERBALIFE,50034496,624 MELROSE AVE,"BRONX, NY 10455",Bronx,1007243,237270,Other,347-893-8401
HEYI XIAOCHI II,50044676,5301 8TH AVE,"BROOKLYN, NY 11220",Brooklyn,982713,172208,Chinese,718-851-8878
Hi Tea,50060479,6124 SPRINGFIELD BLVD,"OAKLAND GARDENS, NY 11364",Queens,1051700,212178,Chinese,646-294-2217
HIBACHI MASTER,50009615,8512 5TH AVE,"BROOKLYN, NY 11209",Brooklyn,977087,165886,Japanese,347-662-6118
Hibino LIC,50005184,1070 JACKSON AVE,"LONG ISLAND CITY, NY 11101",Queens,997535,209917,Japanese,718-392-5190
HIGH STREET ON HUDSON,50042800,637 HUDSON ST,"NEW YORK, NY 10014",Manhattan,982728,208461,American ,917-388-3944
HILLTOP PERK DELI,50033104,83 HAVEN AVE,"NEW YORK, NY 10032",Manhattan,1000142,246873,American ,212-923-0686
HILTON BROOKLYN NEW YORK,50060435,140 SCHERMERHORN ST,"BROOKLYN, NY 11201",Brooklyn,987538,190589,American ,718-834-8800
HILTON GARDEN INN,50066902,6 WATER ST,"NEW YORK, NY 10004",Manhattan,980867,195305,American ,212-248-1100
HING WON,50035510,48 W 48TH ST,"NEW YORK, NY 10036",Manhattan,989766,215477,Chinese,212-719-1451
HINTERLANDS,50044182,739 CHURCH AVE,"BROOKLYN, NY 11218",Brooklyn,992011,174594,American ,718-633-0550
HO FOODS NYC,50070560,110 E 7TH ST,"NEW YORK, NY 10009",Manhattan,988507,203963,Other,626-807-7415
HO LEE,50056124,2493 7TH AVE,"NEW YORK, NY 10030",Manhattan,1001063,238533,Chinese,212-283-8699
HOGSHEAD TAVERN,50044902,126 HAMILTON PL,"NEW YORK, NY 10031",Manhattan,998325,239463,American ,212-234-1154
HOLE IN THE WALL,50060258,15 CLIFF ST,"NEW YORK, NY 10038",Manhattan,982739,197272,American ,212-602-9991
Hole in the Wall Coffee Shop,50008783,420 5TH AVE,"NEW YORK, NY 10018",Manhattan,989003,212817,Cafe/Coffee/Tea,347-328-7284
HOLIDAY INN EXPRESS BRONX,50067449,500 EXTERIOR ST,"BRONX, NY 10451",Bronx,1003512,237521,Other,718-406-6503
HOME,50069667,2849 STEINWAY ST,"ASTORIA, NY 11103",Queens,1008094,218068,Mediterranean,347-642-8500
Home Chef International Flavors,50017748,23114 MERRICK BLVD,"LAURELTON, NY 11413",Queens,1056636,185535,Caribbean,718-749-5745
HOME FRITE (DEKALB MARKET),50061463,445 GOLD ST,"BROOKLYN, NY 11201",Brooklyn,988839,190966,American ,814-777-5231
HOMEWOOD SUITES BY HILTON NEW YORK MIDTOWN MANHATTAN TIMES SQUARE,50054234,312 W 37TH ST,"NEW YORK, NY 10018",Manhattan,986258,214113,American ,646-787-8831
HONG KONG GARDEN,50065845,19511 69TH AVE,"FRESH MEADOWS, NY 11365",Queens,1045776,207842,Chinese,718-264-1313
HOT KITCHEN SICHUAN STYLE,50015406,13343 ROOSEVELT AVE,"FLUSHING, NY 11354",Queens,1030594,215732,Chinese,718-690-2206
HOT POTATO HOUSE,50044578,109 ORIENTAL BLVD,"BROOKLYN, NY 11235",Brooklyn,997425,149469,Eastern European,718-975-7990
HUDSON MALONE,50005480,218 E 53RD ST,"NEW YORK, NY 10022",Manhattan,992900,215231,American ,212-355-6607
HUMBERTO'S RICE & BEANS RESTAURANT,50041904,1318 SAINT NICHOLAS AVE,"NEW YORK, NY 10033",Manhattan,1001917,247505,"Latin (Cuban, Dominican, Puerto Rican, South & Central American)",212-923-1318
HUNG YIP CHINESE RESTAURANT,50009561,7 W 45TH ST,"NEW YORK, NY 10036",Manhattan,989763,214591,Chinese,212-719-1788
HYDRA LOUNGE,50044041,8818 LIBERTY AVE,"OZONE PARK, NY 11417",Queens,1025744,187018,American ,718-629-7519
I BAKERY 18,50035271,7118 18TH AVE,"BROOKLYN, NY 11204",Brooklyn,985966,163535,Bakery,718-758-5581
I CE NY,50059473,705 59TH ST,"BROOKLYN, NY 11220",Brooklyn,981265,171416,"Ice Cream, Gelato, Yogurt, Ices",347-510-2918
I.CE.NY,50060976,7124A AUSTIN ST,"FOREST HILLS, NY 11375",Queens,1027491,201584,"Ice Cream, Gelato, Yogurt, Ices",929-499-3424
IAN'S COFFEE SHOP,50045965,501 NOSTRAND AVE,"BROOKLYN, NY 11216",Brooklyn,998242,187081,Cafe/Coffee/Tea,347-378-2526
IBAKERY 86,50045226,2223 86TH ST,"BROOKLYN, NY 11214",Brooklyn,986138,158449,Chinese,347-702-5002
ICE CREAM PARLOR,50063847,3421 QUENTIN RD,"BROOKLYN, NY 11234",Brooklyn,1001449,162923,"Ice Cream, Gelato, Yogurt, Ices",718-513-3558
ICHIGO SUSHI RESTAURANT,50019221,7308 3RD AVE,"BROOKLYN, NY 11209",Brooklyn,976673,169786,Japanese,718-833-8818
ICON,50063209,3184 33RD ST,"ASTORIA, NY 11106",Queens,1005492,216836,Other,917-832-6364
IDEA COFFEE,50019000,246 5TH AVE,"NEW YORK, NY 10001",Manhattan,987749,210552,Korean,646-896-1533
IDN INTERNATIONAL RESTAURANT,50038505,1333 WEBSTER AVE,"BRONX, NY 10456",Bronx,1009737,243641,African,646-402-8600
IGNITED RESTAURANT & LOUNGE,50017452,3027 STEINWAY ST,"ASTORIA, NY 11103",Queens,1007606,217278,American ,718-412-2414
IHOP,50043143,15517 NORTHERN BLVD,"FLUSHING, NY 11354",Queens,1036936,217790,Pancakes/Waffles,718-353-5576
IHOP,50049899,4168 BROADWAY,"NEW YORK, NY 10033",Manhattan,1001369,247953,American ,212-927-3777
IHOP,50058993,1019 SURF AVE,"BROOKLYN, NY 11224",Brooklyn,990228,148941,American ,718-676-7220
IHS MARKIT CAFE,50061079,450 W 33RD ST,"NEW YORK, NY 10001",Manhattan,984572,213824,American ,212-205-1200
IKHOFI CAFE,50047635,199 MALCOLM X BLVD,"BROOKLYN, NY 11221",Brooklyn,1003746,189286,American ,347-350-8386
IL CARINO RESTAURANT,50065420,1710 2ND AVE,"NEW YORK, NY 10128",Manhattan,997962,223305,Italian,917-325-4192
IL MATTONE,50046060,49 BEACH ST,"NEW YORK, NY 10013",Manhattan,981738,201837,Pizza/Italian,917-361-8838
INCREDIBOWL,50016779,13335 ROOSEVELT AVE,"FLUSHING, NY 11354",Queens,1030448,215666,Chinese,917-365-2023
INDAY,50041097,1133 BROADWAY,"NEW YORK, NY 10010",Manhattan,987278,210162,Indian,917-521-5012
INDIE LIC,50070553,4310 CRESCENT ST,"LONG ISLAND CITY, NY 11101",Queens,1000233,212056,Other,419-250-9195
INDUSTRY KITCHEN,50033451,70 SOUTH ST,"NEW YORK, NY 10005",Manhattan,982777,196083,American ,212-871-5602
INNSIDE BRASSERIE,50046981,132 W 27TH ST,"NEW YORK, NY 10001",Manhattan,986453,211016,Italian,917-409-5171
INSA,50044395,328 DOUGLASS ST,"BROOKLYN, NY 11217",Brooklyn,989075,186886,Korean,718-855-2620
INTERNATIONAL HOUSE DINING,50040532,500 RIVERSIDE DR,"NEW YORK, NY 10027",Manhattan,994647,236049,American ,212-316-8479
IRIS TEA & BAKERY,50063561,18204 HORACE HARDING EXPY,"FRESH MEADOWS, NY 11365",Queens,1041961,208653,Japanese,347-732-4797
ITALIENNE,50055405,19 W 24TH ST,"NEW YORK, NY 10010",Manhattan,986995,209838,Italian,212-600-5130
IVAN RAMEN,50008894,25 CLINTON ST,"NEW YORK, NY 10002",Manhattan,988599,201802,Japanese,646-678-3859
IZAKAYA NOMAD,50009047,13 W 26TH ST,"NEW YORK, NY 10010",Manhattan,987186,210325,Japanese,212-213-6258
J LOFT,50062967,1055 E 45TH ST,"BROOKLYN, NY 11203",Brooklyn,1002712,170805,American ,347-405-7799
J R SUSHI,50005592,86A W BROADWAY,"NEW YORK, NY 10007",Manhattan,981615,199844,Japanese,917-868-8688
J&M PIZZA,50044818,263 BEACH 20TH ST,"FAR ROCKAWAY, NY 11691",Queens,1052521,156679,Pizza,718-954-0034
JACQUES TORRES ICE CREAM,50033575,89 E 42 ST,"NEW YORK, NY 10017",Manhattan,990455,213288,"Ice Cream, Gelato, Yogurt, Ices",212-983-7353
JALAPA JAR,50070003,384 SCHERMERHORN ST,"BROOKLYN, NY 11217",Brooklyn,990020,189323,Tex-Mex,347-689-9531
JAMAICA BREEZE RESTAURANT,50055649,2136 MOTT AVE,"FAR ROCKAWAY, NY 11691",Queens,1052369,159825,Caribbean,718-471-6030
JAMAICAN BEST,50051825,20408 HILLSIDE AVE,"HOLLIS, NY 11423",Queens,1050510,201823,Caribbean,718-454-4321
JAVA DAY,50012353,4358 162ND ST,"FLUSHING, NY 11358",Queens,1038473,215609,Bagels/Pretzels,718-961-5555
JD'S PLACE - INSIDE LANDMARK AT 57 WEST,50068194,657 W 57TH ST,"NEW YORK, NY 10019",Manhattan,985939,220309,American ,646-233-1615
JEF CHINESE,50043640,913 2ND AVE,"NEW YORK, NY 10017",Manhattan,992788,213976,Chinese,212-223-0888
JEMZ RESTAURANT,50040683,1171 SAINT JOHNS PL,"BROOKLYN, NY 11213",Brooklyn,1000993,183769,Caribbean,347-442-0009
JENAVIES CAFE,50052463,2920 BRUCKNER BLVD,"BRONX, NY 10465",Bronx,1031982,242908,"Latin (Cuban, Dominican, Puerto Rican, South & Central American)",718-684-1324
JENIVIEVE'S JERK ROTISSERIE,50047976,22025 JAMAICA AVE,"QUEENS VILLAGE, NY 11428",Queens,1057987,201393,Caribbean,646-755-4300
JIA XING RESTAURANT,50005363,430 4TH AVE,"BROOKLYN, NY 11215",Brooklyn,987538,183760,Chinese,718-768-5555
JIMBO'S,50016820,284 LENOX AVE,"NEW YORK, NY 10027",Manhattan,999249,233403,Hamburgers,347-225-1415
JIMBO'S HAMBURGER,50016822,2027 LEXINGTON AVE,"NEW YORK, NY 10035",Manhattan,1001356,231937,Hamburgers,212-831-3999
JIMBO'S HAMBURGER,50053193,2048 AMSTERDAM AVE,"NEW YORK, NY 10032",Manhattan,1000840,243714,American ,212-923-7300
JIMBO'S HAMBURGERS,50016740,703 LENOX AVE,"NEW YORK, NY 10039",Manhattan,1001929,238248,American ,212-283-5050
JIMBO'S HAMBURGERS,50054425,228 WILLIS AVE,"BRONX, NY 10454",Bronx,1005489,233862,American ,347-225-1415
JIN RAMEN UWS,50018219,462 AMSTERDAM AVE,"NEW YORK, NY 10024",Manhattan,990680,225379,Japanese,917-767-5088
JING WAH CHINESE RESTAURANT,50044427,8720 LIBERTY AVE,"OZONE PARK, NY 11417",Queens,1025488,186996,Chinese,718-738-7377
JJ Kitchen,50059047,475A MYRTLE AVE,"BROOKLYN, NY 11205",Brooklyn,993600,191905,Chinese,718-636-0602
JO JO PIZZA & BURGERS,50019253,231B E 149TH ST,"BRONX, NY 10451",Bronx,1005251,237214,Pizza,718-292-0601
JOE & PAT'S,50061281,1758 VICTORY BLVD,"STATEN ISLAND, NY 10314",Staten Island,950330,162668,Pizza/Italian,718-981-0887
JOE & THE JUICE 300 PARK AVE,50070656,300 PARK AVE,"NEW YORK, NY 10022",Manhattan,991378,215001,Other,917-924-4007
JOE & THE JUICE BROAD ST,50070572,40 BROAD ST,"NEW YORK, NY 10004",Manhattan,981108,196499,Other,917-924-4007
JOE AND JUICE,50067622,666 3RD AVE,"NEW YORK, NY 10017",Manhattan,991384,212905,"Juice, Smoothies, Fruit Salads",917-566-5727
JOE ASIAN & SUSHI,50069658,3319 36TH AVE,"LONG ISLAND CITY, NY 11106",Queens,1004219,214621,Japanese,718-361-6822
JOE'S GARAGE BAR,50057938,4501 23RD AVE,"ASTORIA, NY 11105",Queens,1010506,219448,American ,718-606-0061
JOE'S LOBSTER HOUSE,50046038,4707 ARTHUR KILL RD,"STATEN ISLAND, NY 10309",Staten Island,917709,131603,Seafood,718-227-0003
JOE'S PIZZA,50066715,1435 BROADWAY,"NEW YORK, NY 10018",Manhattan,987905,214176,Pizza,646-559-4878
JOE'S STEAM RICE ROLL,50059314,13621 ROOSEVELT AVE,"FLUSHING, NY 11354",Queens,1031560,216140,Chinese,347-379-6961
JOHN DOE BAR & KITCHEN,50032938,253 5TH AVE,"NEW YORK, NY 10016",Manhattan,987806,210643,American ,646-882-4007
JOONG HAN BOON (CHINESE-KOREAN DUMPLINGS AND NOODLE),50032977,13620 ROOSEVELT AVE,"FLUSHING, NY 11354",Queens,1031557,216133,Asian,718-358-1478
JOY BURGER BAR,50016832,1567 LEXINGTON AVE,"NEW YORK, NY 10029",Manhattan,998377,226560,Hamburgers,212-289-6222
JUICE PRESS,50051293,1633 BROADWAY,"NEW YORK, NY 10019",Manhattan,988693,216739,"Juice, Smoothies, Fruit Salads",917-287-4668
JUICE PRESS,50051701,100 10TH AVE,"NEW YORK, NY 10011",Manhattan,982280,210201,"Juice, Smoothies, Fruit Salads",212-388-9539
JUICE PRESS,50056516,117 FRONT ST,"BROOKLYN, NY 11201",Brooklyn,987364,195218,Other,646-492-3868
JUICE PRESS,50056787,420 LEXINGTON AVE,"NEW YORK, NY 10170",Manhattan,991048,213347,"Juice, Smoothies, Fruit Salads",212-507-9799
JUICE PRESS,50069039,30 ROCKEFELLER PLZ,"NEW YORK, NY 10112",Manhattan,990153,215712,Other,212- 78-84 2
JUICE PRESS @ EQUINOX,50049869,54 MURRAY ST,"NEW YORK, NY 10007",Manhattan,981567,199468,"Juice, Smoothies, Fruit Salads",787-248-7777
JUICE PRESS @ EQUINOX,50051272,1429 2ND AVE,"NEW YORK, NY 10021",Manhattan,996105,219963,"Juice, Smoothies, Fruit Salads",212-388-9539
JUICE PRESS @EQUINOX,50049623,344 AMSTERDAM AVE,"NEW YORK, NY 10024",Manhattan,989912,223990,"Juice, Smoothies, Fruit Salads",212-388-9539
JUICEGO,50057690,333 E 9TH ST,"NEW YORK, NY 10003",Manhattan,988036,204802,"Juice, Smoothies, Fruit Salads",646-609-4596
JUICERY+KITCHEN,50011541,568 UNION AVE,"BROOKLYN, NY 11211",Brooklyn,997508,200681,"Juice, Smoothies, Fruit Salads",718-387-3680
JUKU,50069684,32 MULBERRY ST,"NEW YORK, NY 10013",Manhattan,984362,199630,Japanese,646-590-2111
JUMBO BURGERS,50049975,112 W 116TH ST,"NEW YORK, NY 10026",Manhattan,997944,231607,American ,212-665-9600
JUNIOR'S RESTAURANT,50064578,750 7TH AVE,"NEW YORK, NY 10019",Manhattan,988814,216440,American ,718-852-5257
JUPITER DISCO,50051321,1237 FLUSHING AVE,"BROOKLYN, NY 11237",Brooklyn,1005463,197232,American ,917-855-2111
JUST SALAD,50009019,1306 1ST AVE,"NEW YORK, NY 10021",Manhattan,996213,218599,Salads,212-244-1111
JUST SALAD,50009989,325 HUDSON ST,"NEW YORK, NY 10013",Manhattan,982194,204060,Salads,347-223-5353
JUST SALAD,50017041,151 W 34TH ST,"NEW YORK, NY 10001",Manhattan,987216,212682,Salads,646-355-1850
JUST SALAD,50017044,90 BROAD ST,"NEW YORK, NY 10004",Manhattan,981036,195746,Salads,646-796-4322
JUST SALAD,50017045,140 8TH AVE,"NEW YORK, NY 10011",Manhattan,983914,209438,Salads,646-395-9906
JUST SALAD,50017047,2056 BROADWAY,"New York, NY 10023",Manhattan,989222,222602,Salads,646-355-1849
JUST SALAD,50033222,315 PARK AVE S,"NEW YORK, NY 10010",Manhattan,988117,209101,Salads,347-482-0476
JUST SALAD,50033231,233 BROADWAY,"NEW YORK, NY 10279",Manhattan,982062,198774,Salads,212-355-5808
JUST SALAD,50035721,252 7TH AVE,"BROOKLYN, NY 11215",Brooklyn,989937,183160,Salads,646-490-9170
JUST SALAD,50050507,291 7TH AVE,"NEW YORK, NY 10001",Manhattan,985905,211177,Salads,212-244-1111
JXY RESTAURANT,50051469,13335 ROOSEVELT AVE,"FLUSHING, NY 11354",Queens,1030448,215666,Asian,415-741-8885
K-TOWN FOOD COURT,50005232,46-40 FRANCIS LEWIS BOULEVARD,,Queens,1044934,214008,Korean,718-229-1480
KABAB AND GYRO GRILL INC,50068289,13107 LIBERTY AVE,"SOUTH RICHMOND HILL, NY 11419",Queens,1035645,190771,Other,347-458-8326
KABOB SHACK,50060958,182 HAVEMEYER ST,"BROOKLYN, NY 11211",Brooklyn,995858,198199,Mediterranean,718-387-7111
KAHVE,50046468,667 10TH AVE,"NEW YORK, NY 10036",Manhattan,986088,217089,Cafe/Coffee/Tea,646-649-4503
KAI FAN ASIAN CUISINE,50034653,3717 RIVERDALE AVE,"BRONX, NY 10463",Bronx,1009922,262549,Jewish/Kosher,646-659-4329
KAPPO MASA,50015835,976 MADISON AVE,"NEW YORK, NY 10075",Manhattan,994374,221458,Japanese,212-823-9807
KARNIVAL BELIZE,50055950,11703 HILLSIDE AVE,"RICHMOND HILL, NY 11418",Queens,1030655,194420,Caribbean,347-992-1314
KATCH,50060971,3119 NEWTOWN AVE,"ASTORIA, NY 11102",Queens,1006237,218885,Other,914-320-0307
KAVA SHTEEBLE,50004991,94 RALPH AVE,"BROOKLYN, NY 11221",Brooklyn,1005468,189495,Cafe/Coffee/Tea,347-533-4165
KAWAII,50065865,2706 AVENUE U,"BROOKLYN, NY 11229",Brooklyn,999645,157923,Japanese,718-616-1238
KAZUNORI,50057977,15 W 28TH ST,"NEW YORK, NY 10001",Manhattan,987469,210755,Japanese,347-594-5940
KBBQ,50060117,672 LEXINGTON AVE,"NEW YORK, NY 10022",Manhattan,992626,216194,Korean,212-317-8822
KBBQ,50067764,55 SPRING ST,"NEW YORK, NY 10012",Manhattan,985167,202369,Other,917-561-8827
KEANE'S BAR & RESTAURANT,50057780,4342 KATONAH AVE,"BRONX, NY 10470",Bronx,1020840,267225,Irish,929-237-7958
KEBAB GARDEN,50036606,2943 STILLWELL AVE,"BROOKLYN, NY 11224",Brooklyn,989419,149255,Turkish,718-373-8400
KEILLY CHINESE FOOD,50067634,2140 UTOPIA PKWY,"WHITESTONE, NY 11357",Queens,1041449,222647,Chinese,718-352-1201
KENNEDY FRIED CHICKEN,50016172,3211A WHITE PLAINS RD,"BRONX, NY 10467",Bronx,1020991,256938,Chicken,718-664-0303
KENNEDY FRIED CHICKEN,50017001,638 E 169TH ST,"BRONX, NY 10456",Bronx,1011690,242079,Chicken,718-893-6325
KENNEDY FRIED CHICKEN,50046288,229 BROAD ST,"STATEN ISLAND, NY 10304",Staten Island,961437,166549,Chicken,917-830-0071
Kennedy Fried Chicken,50058200,13447 SPRINGFIELD BLVD,"SPRINGFIELD GARDENS, NY 11413",Queens,1052477,186765,Chicken,347-569-1030
KENNEDY'S CHICKEN & GRILL,50036198,1550 SAINT NICHOLAS AVE,"NEW YORK, NY 10040",Manhattan,1003406,250191,American ,212-781-4739
KES SALAO RESTAURANT,50062799,300 E TREMONT AVE,"BRONX, NY 10457",Bronx,1011044,248482,"Latin (Cuban, Dominican, Puerto Rican, South & Central American)",929-259-9392
KETTLEBELL KITCHEN,50010540,630 FLUSHING AVE,"BROOKLYN, NY 11206",Brooklyn,998544,194296,American ,917-887-6540
KFC,50004216,8715 NORTHERN BLVD,"FLUSHING, NY 11372",Queens,1017360,214760,Chicken,718-335-9705
KFC,50004307,9015 QUEENS BLVD,"FLUSHING, NY 11373",Queens,1019841,206663,American ,718-699-0145
KFC,50004308,5717 QUEENS BLVD,"WOODSIDE, NY 11377",Queens,1009719,209600,American ,718-424-0019
KFC,50004309,17546 HILLSIDE AVE,"JAMAICA, NY 11432",Queens,1043192,198692,American ,718-526-2127
KFC,50004311,1615 UTICA AVE,"BROOKLYN, NY 11234",Brooklyn,1004129,169935,Chicken,718-677-0445
KFC,50004312,242 E 14TH ST,"NEW YORK, NY 10003",Manhattan,988081,206278,Chicken,877-694-4474
KFC,50004313,942 FLATBUSH AVE,"BROOKLYN, NY 11226",Brooklyn,995821,175599,Chicken,718-856-7022
KFC,50004319,798 4TH AVE,"BROOKLYN, NY 11232",Brooklyn,984423,179438,Chicken,718-768-4853
KFC,50004327,458 UTICA AVE,"BROOKLYN, NY 11203",Brooklyn,1003239,180704,American ,877-694-4474
KFC,50004328,534 CONEY ISLAND AVE,"BROOKLYN, NY 11218",Brooklyn,992494,174056,Chicken,718-872-5016
KFC,50004330,5223 5TH AVE,"BROOKLYN, NY 11220",Brooklyn,981016,173833,Chicken,718-492-2813
KFC,50004346,2755 BROADWAY,"NEW YORK, NY 10025",Manhattan,993137,231187,American ,212-665-9430
KFC,50004347,9201 5TH AVE,"BROOKLYN, NY 11209",Brooklyn,976068,164317,American ,877-694-4474
KFC,50004349,15203 NORTHERN BLVD,"FLUSHING, NY 11354",Queens,1036285,218012,Chicken,718-463-0218
KFC,50004350,15805 UNION TPKE,"FLUSHING, NY 11366",Queens,1037230,201640,Chicken,718-380-6152
KFC,50004352,2160 FLATBUSH AVE,"BROOKLYN, NY 11234",Brooklyn,1003391,164188,American ,718-421-1857
"KFC, TACO BELL",50004318,2026 CONEY ISLAND AVE,"BROOKLYN, NY 11223",Brooklyn,994811,160704,American ,718-375-0234
KHALIL BIRYANI HOUSE,50066061,1445 OLMSTEAD AVE,"BRONX, NY 10462",Bronx,1024372,243653,Other,646-763-5073
"KICK AXE THROWING, LLC",50071345,622 DEGRAW ST,"BROOKLYN, NY 11217",Brooklyn,988846,186711,Other,267-987-7188
KINFOLK,50005134,94 WYTHE AVE,"BROOKLYN, NY 11249",Brooklyn,995816,202157,American ,347-799-2946
KING & QUEENS,50051827,834 CLARKSON AVE,"BROOKLYN, NY 11203",Brooklyn,1003500,178509,Seafood,718-484-1177
KING OF FALAFEL & SHAWARMA,50059659,3015 BROADWAY,"ASTORIA, NY 11106",Queens,1004755,216998,Mediterranean,718-340-8068
KING RIVER CHINESE  RESTAURANT,50005268,8018 31ST AVE,"EAST ELMHURST, NY 11370",Queens,1015379,215841,Chinese,718-803-0818
KINGS BEER HALL - THE KBH,50063528,84 SAINT MARKS PL,"BROOKLYN, NY 11217",Brooklyn,990003,187581,German,347-227-7238
KINGSBRIDGE SOCIAL CLUB,50057270,3625 KINGSBRIDGE AVE,"BRONX, NY 10463",Bronx,1011380,261527,Pizza/Italian,347-346-5180
KINGSLEY,50043978,190 AVENUE B,"NEW YORK, NY 10009",Manhattan,990028,204476,American ,212-674-4500
KISS MY SLICE PIZZA,50063160,401 E 57TH ST,"NEW YORK, NY 10022",Manhattan,994616,215502,Pizza,212-935-7000
KOBEYAKI,50011386,215 E 86TH ST,"NEW YORK, NY 10028",Manhattan,997151,222942,Japanese,212-860-2300
KOKIO,50059849,22140 HORACE HARDING EXPY,"OAKLAND GARDENS, NY 11364",Queens,1052032,212398,Korean,929-381-4017
KONA COFFEE AND COMPANY,50069763,57 2ND AVE,"NEW YORK, NY 10003",Manhattan,987098,203705,Cafe/Coffee/Tea,808-679-2109
KONDO JAPANESE RESTAURANT,50032691,2913 BROADWAY,"ASTORIA, NY 11106",Queens,1004530,217137,Japanese,347-617-1236
KOREAN BBQ MAGAL,50059971,13671 ROOSEVELT AVE,"FLUSHING, NY 11354",Queens,1032008,216287,Korean,718-460-6200
KORNER CHICKEN-N-PIZZA,50056724,16901 JAMAICA AVE,"JAMAICA, NY 11432",Queens,1042294,196896,American ,718-297-6620
KORONI SOUVLAKI AND GRILL,50057482,2937 NEWTOWN AVE,"ASTORIA, NY 11102",Queens,1006018,219288,Greek,718-489-8820
KORZO KLUB,50053668,977 BAY ST,"STATEN ISLAND, NY 10305",Staten Island,964952,164693,Eastern European,718-873-6816
KRUSH,50012532,2 W 32ND ST,"NEW YORK, NY 10001",Manhattan,988156,211544,American ,917-864-9456
KUBEH,50063201,464 AVENUE OF THE AMERICAS,"NEW YORK, NY 10011",Manhattan,984759,207249,Middle Eastern,646-448-6688
KULUSHKAT,50042352,1137 WASHINGTON AVE,"BROOKLYN, NY 11225",Brooklyn,995155,180161,Mediterranean,347-378-2514
KUNG FU LITTLE STEAMED BUNS RAMEN,50054403,811 8TH AVE,"NEW YORK, NY 10019",Manhattan,987943,216723,Asian,917-388-2555
KUNG FU TEA,50050275,13620 ROOSEVELT AVE,"FLUSHING, NY 11354",Queens,1031557,216133,Cafe/Coffee/Tea,718-321-2886
KUNG FU TEA,50051756,2174 86TH ST,"BROOKLYN, NY 11214",Brooklyn,985834,158687,Cafe/Coffee/Tea,646-878-7800
KUNG FU TEA,50053505,4111 KISSENA BLVD,"FLUSHING, NY 11355",Queens,1031580,215590,Cafe/Coffee/Tea,718-886-8236
L.A. BURRITO,50007916,43 UNDERHILL AVE,"BROOKLYN, NY 11238",Brooklyn,993953,186911,Mexican,718-484-3615
LA ABUNDANCIA,50005893,8826 37TH AVE,"JACKSON HEIGHTS, NY 11372",Queens,1017937,212676,"Latin (Cuban, Dominican, Puerto Rican, South & Central American)",718-803-5201
LA ABUNDANCIA RESTAURANT & BAKERY,50064539,8116 ROOSEVELT AVE,"JACKSON HEIGHTS, NY 11372",Queens,1016223,211651,Spanish,718-205-7890
La Abundancia Restaurant & Bakery,50064540,4601 5TH AVE,"BROOKLYN, NY 11220",Brooklyn,982011,175090,"Latin (Cuban, Dominican, Puerto Rican, South & Central American)",718-593-9445
La Abundancia Restuarant & Bakery,50064538,3701 JUNCTION BLVD,"CORONA, NY 11368",Queens,1020086,213007,Spanish,718-593-9445
LA AMISTAD BAKERY AND RESTAURANT,50057635,16204 NORTHERN BLVD,"FLUSHING, NY 11358",Queens,1038751,216857,Spanish,718-463-2477
LA AVENIDA,50051307,2247 1ST AVE,"NEW YORK, NY 10029",Manhattan,1002052,229147,Mexican,917-201-1707
LA BAGEL DELIGHT,50046173,90 COURT ST,"BROOKLYN, NY 11201",Brooklyn,986557,191077,American ,718-522-0520
LA BAGUETTE SHOP,50015501,7915 FLATLANDS AVE,"BROOKLYN, NY 11236",Brooklyn,1008158,170687,Bakery,718-676-1790
LA BASE COFFE SHOP,50043199,10 W 169TH ST,"BRONX, NY 10452",Bronx,1006228,244446,Delicatessen,917-471-8711
LA CHILFADA NYC,50070129,5805 31ST AVE,"WOODSIDE, NY 11377",Queens,1010972,215232,Other,516-450-5097
LA CHIQUI RESTAURANT,50043580,760 GRAND CONCOURSE,"BRONX, NY 10451",Bronx,1005172,239365,"Latin (Cuban, Dominican, Puerto Rican, South & Central American)",718-975-7373
LA CIENEGA OAXACA DELI,50043786,10432 CORONA AVE,"CORONA, NY 11368",Queens,1023677,210348,Mexican,646-923-2811
LA COCINA DE YALA,50062925,1481 JEROME AVE,"BRONX, NY 10452",Bronx,1007314,245947,Spanish,347-201-7974
La Colombe,50013436,75 VANDAM ST,"NEW YORK, NY 10013",Manhattan,982304,203986,Cafe/Coffee/Tea,212-929-9699
LA CUEVITA DE MACHO,50053879,260 BROOK AVE,"BRONX, NY 10454",Bronx,1006689,233668,Spanish,646-291-7858
LA DAMA'S COOKIES,50042669,507 CONEY ISLAND AVE,"BROOKLYN, NY 11218",Brooklyn,992418,174428,Bakery,347-318-3831
LA FLOR DEL CANARIO #2 RESTAURANT PIZZERIA,50058634,2225 PITKIN AVE,"BROOKLYN, NY 11207",Brooklyn,1014713,184394,Spanish,718-485-5000
LA FUENTES STEAKHOUSE,50018145,1306 JEROME AVE,"BRONX, NY 10452",Bronx,1006626,244691,Spanish,646-773-5144
LA GRATA,50056679,136 ALEXANDER AVE,"BRONX, NY 10454",Bronx,1004433,233431,Pizza/Italian,718-942-5575
LA GUALACENA BAR & RESTAURANT,50008656,178 WYCKOFF AVE,"BROOKLYN, NY 11237",Brooklyn,1007604,195097,Spanish,718-456-1002
LA LOBA CANTINA,50043181,709 CHURCH AVE,"BROOKLYN, NY 11218",Brooklyn,991802,174483,Mexican,617-943-6007
LA MARIA,50063272,2571 FRANCIS LEWIS BLVD,"FLUSHING, NY 11358",Queens,1040743,221059,"Latin (Cuban, Dominican, Puerto Rican, South & Central American)",917-478-8498
LA PARRANDA BAR RESTAURANT,50063229,2712 WHITE PLAINS RD,"BRONX, NY 10467",Bronx,1020943,254703,American ,718-684-1119
LA REGINA PIZZERIA,50058534,6008 KISSENA BLVD,"FLUSHING, NY 11355",Queens,1035480,208865,Pizza,781-461-0065
LA ROSA GRILL,50051951,245 RICHMOND VALLEY RD,"STATEN ISLAND, NY 10309",Staten Island,918461,129202,Chicken,718-966-1555
LA SIRENA,50044328,88 9TH AVE,"NEW YORK, NY 10011",Manhattan,983047,209741,Italian,212-977-6096
LA TORRE RESTAURANT & BAR,50014309,610 E 183RD ST,"BRONX, NY 10458",Bronx,1015031,250038,"Latin (Cuban, Dominican, Puerto Rican, South & Central American)",646-363-2798
LA VRAIE RACLETTE,50053912,511 E 12TH ST,"NEW YORK, NY 10009",Manhattan,989570,204827,French,929-329-5758
LADUREE PARIS,50054046,864 MADISON AVE,"NEW YORK, NY 10021",Manhattan,993631,220118,French,646-558-3157
LAGUARDIA CAFE,50035206,9702 23RD AVE,"EAST ELMHURST, NY 11369",Queens,1019362,219265,American ,718-458-0001
LAI WANG KA MEI RESTAURANT,50063943,4624 KISSENA BLVD,"FLUSHING, NY 11355",Queens,1034522,212605,Chinese,347-732-4199
LAN TING BBQ HOTPOT,50060529,705 59TH ST,"BROOKLYN, NY 11220",Brooklyn,981265,171416,Chinese,347-227-7698
LANTERN HALL,50043578,52 HARRISON PL,"BROOKLYN, NY 11237",Brooklyn,1003272,196654,American ,917-214-3615
Lao Jie Special Soup Buns,50044861,13620 38TH AVE,"FLUSHING, NY 11354",Queens,1031267,216561,Chinese,718-886-2822
LAOCHENGYIGUO,50055277,13655 37TH AVE,"FLUSHING, NY 11354",Queens,1031527,216932,Chinese,646-240-5030
Laoma Ma La Tang,50065030,13620 ROOSEVELT AVE,"FLUSHING, NY 11354",Queens,1031557,216133,Chinese,718-661-2668
LAS MARGARITAS RESTAURANT,50033000,7206 3RD AVE,"BROOKLYN, NY 11209",Brooklyn,976752,170037,Mexican,718-238-3972
LAS MARIAS BAR RESTAURANT,50048996,1185 BROADWAY,"BROOKLYN, NY 11221",Brooklyn,1004397,191589,"Latin (Cuban, Dominican, Puerto Rican, South & Central American)",718-450-3370
LATIN BITES,50042839,419 E 70TH ST,"NEW YORK, NY 10021",Manhattan,996349,218441,"Latin (Cuban, Dominican, Puerto Rican, South & Central American)",212-585-4250
LATIN FUSION,50050347,789 ALLERTON AVE,"BRONX, NY 10467",Bronx,1021884,254635,Spanish,718-654-2067
LE TURTLE,50044727,177 CHRYSTIE ST,"NEW YORK, NY 10002",Manhattan,986373,201982,American ,646-918-7189
LE WAFOU,50050459,2254 WEBSTER AVE,"BRONX, NY 10457",Bronx,1013031,251031,African,347-577-0097
LEAF GARDEN,50054445,4235 MAIN ST,"FLUSHING, NY 11355",Queens,1031931,214197,"Juice, Smoothies, Fruit Salads",347-458-3373
LECHONERA 2DA RESTAURANTE,50057733,429 NEW LOTS AVE,"BROOKLYN, NY 11207",Brooklyn,1014274,180635,Spanish,347-533-8716
LECHONERA POLLO SABROSO BORIQUENA,50005780,1089 SOUTHERN BLVD,"BRONX, NY 10459",Bronx,1014159,240148,Spanish,646-460-0933
LEE GARDEN CHINESE RESTAURANT,50035260,121 WYCKOFF AVE,"BROOKLYN, NY 11237",Brooklyn,1006676,195864,Chinese,718-497-7661
LEGEND OF TASTE,50056715,2002 UTOPIA PKWY,"FLUSHING, NY 11357",Queens,1041343,223346,Chinese,917-842-2955
LENA'S ITALIAN KITCHEN,50049996,551 2ND AVE,"NEW YORK, NY 10016",Manhattan,990494,209804,Italian,646-846-5362
LENNY'S PIZZERIA,50045003,3021 CHURCH AVE,"BROOKLYN, NY 11226",Brooklyn,998322,176395,Pizza/Italian,718-703-2323
LENNY'S PIZZERIA,50049007,1046 NOSTRAND AVE,"BROOKLYN, NY 11225",Brooklyn,997883,180725,Pizza,646-541-9798
LENNYS PIZZA,50045813,1845 NOSTRAND AVE,"BROOKLYN, NY 11226",Brooklyn,998550,172699,American ,718-703-2323
LEVANTE,50065915,2621 JACKSON AVE,"LONG ISLAND CITY, NY 11101",Queens,1000435,211584,Other,917-968-8141
LIBERTY TAVERN,50056843,382 FOREST AVE,"STATEN ISLAND, NY 10301",Staten Island,955905,169179,American ,718-442-8121
LIC HOTEL INC,50047047,4404 21ST ST,"LONG ISLAND CITY, NY 11101",Queens,998994,212285,Cafe/Coffee/Tea,917-421-2866
LIFE RESTAURANT,50062921,19 W 31ST ST,"NEW YORK, NY 10001",Manhattan,987875,211413,Other,212-501-1712
LIFECAFE,50047045,605 W 42ND ST,"NEW YORK, NY 10036",Manhattan,984633,216515,"Juice, Smoothies, Fruit Salads",212-564-1300
LILI MEXICAN RESTAURANT,50062666,415 E 138TH ST,"BRONX, NY 10454",Bronx,1005821,233945,Mexican,347-297-8550
LIMA,50007441,6620 AVENUE U,"BROOKLYN, NY 11234",Brooklyn,1009030,164243,Peruvian,718-241-5462
LIMA RESTAURANT,50041663,8507 NORTHERN BLVD,"JACKSON HEIGHTS, NY 11372",Queens,1016830,214686,Peruvian,212-920-9884
LIMANI,50013293,630 5TH AVE,"NEW YORK, NY 10111",Manhattan,990612,215722,Mediterranean,212-858-9200
LINDA'S WINGK BOY PIZZERIA,50059943,729 E TREMONT AVE,"BRONX, NY 10457",Bronx,1014617,247147,Pizza,718-583-4282
LION LION,50056984,332 E 116TH ST,"NEW YORK, NY 10029",Manhattan,1001739,229506,American ,347-_51-2_60
LITTLE  CAESARS,50006606,8404 ASTORIA BOULEVARD,"EAST ELMHURST, NY 11370",Queens,1016119,217876,Pizza,347-612-4840
LITTLE ALLEY,50062377,550 3RD AVE,"NEW YORK, NY 10016",Manhattan,990631,211547,Chinese,646-998-3976
LITTLE BAMBOO,50044365,175 LENOX AVE,"NEW YORK, NY 10026",Manhattan,998530,232116,Thai,646-682-9526
LITTLE CAESARS,50006046,1110 PENNSYLVANIA AVE,"BROOKLYN, NY 11207",Brooklyn,1015658,177365,Pizza,718-484-3666
LITTLE FORNO,50068323,276 BAY RIDGE AVE,"BROOKLYN, NY 11220",Brooklyn,976897,170943,Italian,718-333-5099
LITTLE KING,50053418,749 METROPOLITAN AVE,"BROOKLYN, NY 11211",Brooklyn,999777,199622,American ,917-947-9965
LITTLE MICHAEL'S DELI & SALAD BAR,50039779,12 E GUN HILL RD,"BRONX, NY 10467",Bronx,1017178,260818,"Latin (Cuban, Dominican, Puerto Rican, South & Central American)",718-231-7040
LITTLE MUENSTER,50007940,225 LIBERTY ST,"NEW YORK, NY 10281",Manhattan,979905,198509,American ,212-786-0186
LITTLE TONG NOODLE SHOP,50059474,177 1ST AVE,"NEW YORK, NY 10003",Manhattan,988664,204975,Other,412-608-8668
LIU BU,50043882,14008 HOLLY AVE,"FLUSHING, NY 11355",Queens,1034434,212853,Asian,718-888-0099
LIVE ON AIR,50055614,335 FLATBUSH AVE,"BROOKLYN, NY 11217",Brooklyn,991780,186194,American ,646-226-9193
LIZZMONADE,50008684,1 BROOKLYN BRIDGE PARK,"BROOKLYN, NY 11201",Brooklyn,985430,195045,"Juice, Smoothies, Fruit Salads",917-930-8234
LMDM,50071769,37 BARROW ST,"NEW YORK, NY 10014",Manhattan,983169,206044,Other,917-969-9282
Lolo's Seafood Shack,50014997,303 W 116TH ST,"NEW YORK, NY 10026",Manhattan,996535,232395,Seafood,646-541-8940
LONG WONG BAKERY II,50016818,1310 AVENUE U,"BROOKLYN, NY 11229",Brooklyn,995899,157381,Bakery,718-998-8868
LONGHORN STEAKHOUSE,50014682,9230 59TH AVE,"ELMHURST, NY 11373",Queens,1020617,206809,Steak,718-335-1371
LOOK BY PLANT LOVE HOUSE,50044571,622 WASHINGTON AVE,"BROOKLYN, NY 11238",Brooklyn,994186,186968,Thai,718-622-0026
LOONG XIN ASIAN CUISINE,50004484,670 E 233RD ST,"BRONX, NY 10466",Bronx,1023343,264937,Chinese,718-708-7726
LOS AMIGOS GRILL,50045535,142 AVENUE U,"BROOKLYN, NY 11223",Brooklyn,990067,156535,Mexican,718-449-0657
LOS BUCAROS,50046082,13859 QUEENS BLVD,"BRIARWOOD, NY 11435",Queens,1034869,197061,Spanish,718-206-1499
LOS MARISCOS,50055122,409 W 15TH ST,"NEW YORK, NY 10011",Manhattan,982711,209587,Spanish,917-513-3636
LOT 45,50005133,411 TROUTMAN ST,"BROOKLYN, NY 11237",Brooklyn,1005737,196846,American ,347-505-9155
LOTUS CAFE,50032626,151 DYCKMAN ST,"NEW YORK, NY 10040",Manhattan,1004777,253789,"Latin (Cuban, Dominican, Puerto Rican, South & Central American)",212-567-4109
LOVAGE,50059682,350 W 40TH ST,"NEW YORK, NY 10018",Manhattan,986419,214908,American ,212-665-5202
LUCCIOLA,50071274,621 AMSTERDAM AVE,"NEW YORK, NY 10024",Manhattan,991717,227236,Other,917-544-4498
LUCKY 13 SALOON,50015155,644 SACKETT ST,"BROOKLYN, NY 11217",Brooklyn,988795,186447,American ,718-596-0666
LUFTHANSA SENATOR LOUNGE,50042421,1 CENTRAL TERMINAL AREA,"JAMAICA, NY 11430",Queens,,,American ,718-751-2225
LUKE'S LOBSTER,50011303,685 3RD AVE,"NEW YORK, NY 10017",Manhattan,991504,213112,Seafood,646-657-0066
LUKE'S LOBSTER,50018812,700 8TH AVE,"NEW YORK, NY 10036",Manhattan,987370,215678,Seafood,646-559-4644
LUKE'S LOBSTER,50041666,1123 BROADWAY,"NEW YORK, NY 10010",Manhattan,987264,210064,Seafood,646-657-0747
LUKE'S LOBSTER,50060330,11 WATER ST,"BROOKLYN, NY 11201",Brooklyn,985864,195457,Seafood,347-569-2681
LUKE'S LOBSTER,50064425,124 UNIVERSITY PL,"NEW YORK, NY 10003",Manhattan,986443,206973,American ,646-559-4644
LUKE'S LOBSTER,50068109,1407 BROADWAY,"NEW YORK, NY 10018",Manhattan,987810,213775,Seafood,917-475-9192
LUPULO,50035940,835 6TH AVE,"NEW YORK, NY 10001",Manhattan,987028,211358,Portuguese,212-290-7600
LUV STORY BAR,50064699,894 WYCKOFF AVE,"BROOKLYN, NY 11237",Brooklyn,1010130,193245,Hamburgers,347-200-7424
Lyric Theatre,50016815,214 W 43RD ST,"NEW YORK, NY 10036",Manhattan,987804,215073,American ,212-556-4719
M & K SPANISH RESTAURANT BAR,50018283,1727 RICHMOND RD,"STATEN ISLAND, NY 10306",Staten Island,955650,153500,Spanish,347-825-3332
M AND G RESTAURANT,50016957,2472 ARTHUR AVE,"BRONX, NY 10458",Bronx,1015730,251577,American ,347-577-0002
M GREENPOINT,50042717,732 MANHATTAN AVE,"BROOKLYN, NY 11222",Brooklyn,997506,203862,Chinese,718-383-8889
M&S NICE BAKERY & RESTAURANT,50018482,819 SENECA AVE,"RIDGEWOOD, NY 11385",Queens,1010548,194800,Bakery,718-576-3625
MA'S FOOD MARKET,50052487,4307 MAIN ST,"FLUSHING, NY 11355",Queens,1032263,213403,Chinese,718-939-8999
MACARON PARLOUR,50006577,560 COLUMBUS AVE,"NEW YORK, NY 10024",Manhattan,992118,226117,Cafe/Coffee/Tea,212-799-9169
MACARON PARLOUR WEST,50069449,560 COLUMBUS AVE,"NEW YORK, NY 10024",Manhattan,992118,226117,Bakery,212-799-9169
MACCHINA,50036650,2758 BROADWAY,"NEW YORK, NY 10025",Manhattan,993143,231186,Italian,917-364-7809
MAD DOG & BEANS MEXICAN CANTINA,50063273,5 E 38TH ST,"NEW YORK, NY 10016",Manhattan,989182,212794,Mexican,646-998-5722
MADE,50068096,44 W 29TH ST,"NEW YORK, NY 10001",Manhattan,987283,211146,American ,212-213-4429
Mado Japanese Cuisine,50011947,9516 QUEENS BLVD,"REGO PARK, NY 11374",Queens,1021984,205506,Japanese,718-896-4000
MAGNOLIA RESTAURANT,50059675,346 W 40TH ST,"NEW YORK, NY 10018",Manhattan,986442,214896,American ,212-956-7020
MAITE,50019166,159 CENTRAL AVE,"BROOKLYN, NY 11221",Brooklyn,1004543,193965,Spanish,718-366-3090
MAJLIS,50068340,24805 UNION TPKE,"BELLEROSE, NY 11426",Queens,1061332,209885,American ,718-343-4869
MAKIMAKI,50065703,1369 6TH AVE,"NEW YORK, NY 10019",Manhattan,990366,217383,Japanese,212-245-4550
MALECON RESTAURANT,50006114,4141 BROADWAY,"New York, NY 10033",Manhattan,1001285,247614,Spanish,212-927-3812
Malt and Mold,50016731,362 2ND AVE,"NEW YORK, NY 10010",Manhattan,989303,207673,Not Listed/Not Applicable,646-238-0272
MAMA LUPE II DOMINICAN FOOD,50067976,10702 CORONA AVE,"CORONA, NY 11368",Queens,1024186,210224,Other,718-639-1495
MAMA'S GREEK KITCHEN,50052214,7026 3RD AVE,"BROOKLYN, NY 11209",Brooklyn,976897,170495,Greek,718-748-3777
MAMAM,50014481,239 CENTRE ST,"NEW YORK, NY 10013",Manhattan,984749,201662,French,212-226-0700
MAMAN,50044770,211 W BROADWAY,"NEW YORK, NY 10013",Manhattan,982442,201206,Sandwiches/Salads/Mixed Buffet,646-882-8682
MAMAN,50067865,837 WASHINGTON ST,"NEW YORK, NY 10014",Manhattan,982084,209044,Cafe/Coffee/Tea,917-932-6514
MANCINI'S WOOD-FIRED PIZZA,50069069,8504 5TH AVE,"BROOKLYN, NY 11209",Brooklyn,977096,165899,Italian,917-689-8401
MANDOLINO,50058576,137 E 13TH ST,"NEW YORK, NY 10003",Manhattan,987306,206386,Pizza/Italian,212-477-1535
MANGIA FRESH KITCHEN,50015534,20 JEFFERSON BLVD,"STATEN ISLAND, NY 10312",Staten Island,934795,136447,Italian,718-356-4400
MANGO MANGO,50015236,13335 ROOSEVELT AVE,"FLUSHING, NY 11354",Queens,1030448,215666,"Ice Cream, Gelato, Yogurt, Ices",718-501-9503
MANGO MANGO,50037612,13628 39TH AVE,"FLUSHING, NY 11354",Queens,1031443,216348,"Juice, Smoothies, Fruit Salads",917-563-1847
MANGO MANGO,50048160,5302 7TH AVE,"BROOKLYN, NY 11220",Brooklyn,982095,172692,"Juice, Smoothies, Fruit Salads",929-337-6061
MANGTANGHUNG SEAFOOD RESTAURANT,50059209,6508 11TH AVE,"BROOKLYN, NY 11219",Brooklyn,982567,168264,Chinese,718-833-6663
MANTA SEAFOOD RESTAURANT & BAR,50062544,1288 WESTCHESTER AVE,"BRONX, NY 10459",Bronx,1015571,240696,"Latin (Cuban, Dominican, Puerto Rican, South & Central American)",347-599-7303
MAPLE RESTAURANT,50016867,157 W 47TH ST,"NEW YORK, NY 10036",Manhattan,988865,215684,American ,212-221-7200
MARIE'S PIZZA,50049977,10708 ROCKAWAY BLVD,"OZONE PARK, NY 11417",Queens,1030876,186455,Pizza/Italian,718-322-8500
MARIO'S PIZZA 2,50042180,1011 WESTCHESTER AVE,"BRONX, NY 10459",Bronx,1013835,239525,Pizza,718-991-6142
MARTINIELLO'S III PIZZERIA & ITALIAN RESTAURNT,50034411,8901 101ST AVE,"OZONE PARK, NY 11416",Queens,1025574,188093,Pizza/Italian,718-845-3333
MATCHPOINTNYC,50007379,2781 SHELL RD,"BROOKLYN, NY 11223",Brooklyn,991329,152248,Soups & Sandwiches,718-769-0001
MAURICE DELI,50035917,5904 55TH DR,"MASPETH, NY 11378",Queens,1009552,203810,Delicatessen,718-326-4096
MAX FISH,50013823,120 ORCHARD ST,"NEW YORK, NY 10002",Manhattan,987162,201425,American ,917-650-6186
MAY CHUN GARDEN,50067987,4075 JUNCTION BLVD,"CORONA, NY 11368",Queens,1020692,211588,Chinese,718-565-7700
MAYA RESTAURANT & BAR,50050016,2594 STEINWAY ST,"ASTORIA, NY 11103",Queens,1008610,218916,Indian,646-821-5207
MAYFLOWER (Howard Johnson Hotel),50015462,3861 12TH ST,"LONG ISLAND CITY, NY 11101",Queens,1000534,215340,Continental,917-868-9878
MAYLIN GARDEN,50038814,5506 8TH AVE,"BROOKLYN, NY 11220",Brooklyn,982378,171794,Chinese,718-633-1181
MAZI NIGHTCLUB,50036921,13035 91ST AVE,"RICHMOND HILL, NY 11418",Queens,1034144,193757,American ,516-551-5682
MB RESTAURANT,50016922,2771 WEBSTER AVE,"BRONX, NY 10458",Bronx,1015760,254751,African,718-564-3825
MCDONALD'S,50010254,2248 31ST ST,"ASTORIA, NY 11105",Queens,1008643,221692,Hamburgers,516-256-0200
MCDONALD'S,50039189,16 WESTCHESTER SQ,"BRONX, NY 10461",Bronx,1027604,245511,American ,718-239-2400
MCDONALD'S,50042441,2154 NOSTRAND AVE,"BROOKLYN, NY 11210",Brooklyn,998779,169691,Hamburgers,718-434-2476
MCDONALD'S,50059655,1531 FULTON ST,"BROOKLYN, NY 11216",Brooklyn,1000944,186977,American ,718-778-8016
MCDONALD'S,50063996,968 4TH AVE,"BROOKLYN, NY 11232",Brooklyn,982851,177449,American ,718-788-9226
MCDONALD'S #11542,50068987,1656 UTICA AVE,"BROOKLYN, NY 11234",Brooklyn,1004159,169499,American ,773-505-8724
MCDONALD'S #13068,50068988,880 CONEY ISLAND AVE,"BROOKLYN, NY 11218",Brooklyn,993171,170988,American ,773-505-8724
MCDONALD'S #13070,50068989,1275 FULTON ST,"BROOKLYN, NY 11216",Brooklyn,998028,187183,Chicken,718-631-1331
MCDONALD'S #23105,50068990,840 ATLANTIC AVE,"BROOKLYN, NY 11238",Brooklyn,993315,187645,Chicken,718-783-5466
MCDONALD'S #3880,50068986,3525 FORT HAMILTON PKWY,"BROOKLYN, NY 11218",Brooklyn,987884,174312,American ,773-505-8724
MCDONALDS,50068991,5121 5TH AVE,"BROOKLYN, NY 11220",Brooklyn,981180,174041,Sandwiches,773-505-8724
MD BAGELS,50057072,434 CASTLETON AVE,"STATEN ISLAND, NY 10301",Staten Island,957394,170159,Delicatessen,718-876-4960
MEAT,50066547,123 KINGSTON AVE,"BROOKLYN, NY 11213",Brooklyn,1000453,185479,Other,718-431-4942
MEE NOODLE SHOP,50004933,223 1ST AVE,"NEW YORK, NY 10003",Manhattan,988983,205553,Chinese,212-260-7838
MEE'S NOODLE,50048097,930 2ND AVE,"NEW YORK, NY 10022",Manhattan,992896,214158,Chinese,212-888-0027
MEETING CLUB,50062937,13659 37TH AVE,"FLUSHING, NY 11354",Queens,1031527,216933,Chinese,718-353-0929
MEKELBURG'S,50036088,293 GRAND AVE,"BROOKLYN, NY 11238",Brooklyn,994617,189751,American ,718-399-2337
MEL'S BURGER,50037777,1450 2ND AVE,"NEW YORK, NY 10021",Manhattan,996263,220235,American ,212-452-1304
MENU,50063668,3456 33RD ST,"LONG ISLAND CITY, NY 11106",Queens,1004654,215473,American ,347-236-8494
MESS HALL,50017524,2194 FRDRCK DGLS BLVD,"NEW YORK, NY 10026",Manhattan,,,American ,646-692-3098
METRO BAGEL & CAFE,50068472,5811 4TH AVE,"BROOKLYN, NY 11220",Brooklyn,979434,173124,American ,718-567-0666
METROGRAPH,50050247,7 LUDLOW ST,"NEW YORK, NY 10002",Manhattan,986745,199754,American ,212-660-0312
METTA,50060528,197 ADELPHI ST,"BROOKLYN, NY 11205",Brooklyn,992127,191348,Other,718-233-9134
MEW MEN,50044396,7 CORNELIA ST,"NEW YORK, NY 10014",Manhattan,983797,205824,Japanese,212-727-1050
MEW MEW ICE CREAM,50059967,3 BAY 25TH ST,"BROOKLYN, NY 11214",Brooklyn,984861,159283,"Ice Cream, Gelato, Yogurt, Ices",347-873-4568
MEXICAN DINER,50054918,902 CORTELYOU RD,"BROOKLYN, NY 11218",Brooklyn,992678,172049,Mexican,347-397-4823
MEXICUE,50060612,160 8TH AVE,"NEW YORK, NY 10011",Manhattan,984040,209666,Mexican,646-649-3133
MEZZOGIORNO,50009556,2791 BROADWAY,"New York, NY 10025",Manhattan,993124,231685,Italian,646-662-9659
MI GARBA,50032991,129 4TH AVE,"NEW YORK, NY 10003",Manhattan,987046,206424,Italian,646-684-4797
MI MEXICO BAR & GRILL,50061563,2647 FREDERICK DOUGLASS BLVD,"NEW YORK, NY 10030",Manhattan,999836,238188,Mexican,917-265-8328
MI-NE SUSHI TOTOYA,50050508,496 6TH AVE,"NEW YORK, NY 10011",Manhattan,984929,207555,Japanese,917-675-6942
MIA'S BAKERY,50033150,139 SMITH ST,"BROOKLYN, NY 11201",Brooklyn,986963,189596,Bakery,347-987-3194
MIDPOINT BISTRO,50059729,40 W 45TH ST,"NEW YORK, NY 10036",Manhattan,989550,214702,American ,212-626-9392
MIGHTY QUINN'S BBQ,50008145,75 GREENWICH AVE,"NEW YORK, NY 10014",Manhattan,983917,207684,American ,646-524-7889
MILO'S YARD,50016580,564 SENECA AVE,"RIDGEWOOD, NY 11385",Queens,1008924,196053,American ,347-987-4535
Mimi Cheng's Dumplings,50012093,179 2ND AVE,"NEW YORK, NY 10003",Manhattan,988065,205451,Chinese,212-533-2007
MINAMOTO KITCHOAN,50052651,4 WORLD TRADE CENTER,"NEW YORK, NY 10007",Manhattan,981072,197960,Japanese,212-602-9910
MINETTA LANE THEATRE,50063017,18 MINETTA LN,"NEW YORK, NY 10012",Manhattan,983924,205358,"Bottled beverages, including water, sodas, juices, etc.",212-871-6834
MISAKI SUSHI,50059152,645 ROSSVILLE AVE,"STATEN ISLAND, NY 10309",Staten Island,926373,136941,Japanese,347-630-5681
Mister Dips,50052110,55 WYTHE AVENUE,,Brooklyn,996101,202496,American ,646-442-7841
MISTER HOTPOT,50043815,13342 39TH AVE,"FLUSHING, NY 11354",Queens,1030199,215883,Chinese,718-939-3334
MITOUSHI SUSHI,50068271,10 AKRON ST,"STATEN ISLAND, NY 10314",Staten Island,940151,162189,Japanese,646-651-2147
MO IL GELATO,50049879,353 W 14TH ST,"NEW YORK, NY 10014",Manhattan,983115,209033,"Ice Cream, Gelato, Yogurt, Ices",212-266-6758
MOBAY JAMAICAN CUISINE,50065500,4120A WHITE PLAINS RD,"BRONX, NY 10466",Bronx,1023347,263991,Caribbean,718-324-8000
MODERN LOVE,50053112,317 UNION AVE,"BROOKLYN, NY 11211",Brooklyn,997851,197896,Vegetarian,503-481-1766
MOKBAR,50059636,212 FLATBUSH AVE,"BROOKLYN, NY 11217",Brooklyn,991071,187465,Korean,917-842-4862
MOMOFUKU,50043009,232 8TH AVE,"NEW YORK, NY 10011",Manhattan,984510,210512,American ,571-233-8555
MOMOFUKU KO,50015854,8 EXTRA PL,"NEW YORK, NY 10003",Manhattan,986597,203337,Japanese,212-203-8095
MOOD RING,50067423,1260 MYRTLE AVE,"BROOKLYN, NY 11221",Brooklyn,1004521,193551,Other,516-413-6653
MOON ROOF LOUNGE,50018610,1679 HYLAN BLVD,"STATEN ISLAND, NY 10305",Staten Island,959072,153580,American ,718-667-0088
MORGAN CAFE,50057633,341 9TH AVE,"NEW YORK, NY 10199",Manhattan,984693,212715,American ,212-330-4174
MOTEL MORRIS,50059371,132 7TH AVE,"NEW YORK, NY 10011",Manhattan,984823,209233,Other,516-457-7974
MR POLLO # 2,50054297,1227 150TH ST,"WHITESTONE, NY 11357",Queens,1035677,227170,Spanish,718-357-4444
MR. BING,50059277,230 PARK AVE,"NEW YORK, NY 10169",Manhattan,990913,214165,Chinese,646-678-8879
MS. YOO,50066778,163 ALLEN ST,"NEW YORK, NY 10002",Manhattan,987182,201989,Other,917-261-2490
MTG 432 PARK RESTAURANT,50051363,432 PARK AVE,"NEW YORK, NY 10022",Manhattan,992235,216546,American ,914-374-2974
MU RAMEN,50015771,1209 JACKSON AVE,"LONG ISLAND CITY, NY 11101",Queens,997965,210215,Japanese,917-868-8903
MU SHU,50043813,25313 NORTHERN BLVD,"LITTLE NECK, NY 11362",Queens,1057552,220228,Chinese,718-224-3288
MULBERRY & VINE,50058520,155 E 44TH ST,"NEW YORK, NY 10017",Manhattan,991387,213392,American ,808-346-3012
MUNCHERY,50058071,701 1ST AVE,"NEW YORK, NY 10017",Manhattan,992361,211660,American ,917-613-5791
MUSCLE MAKER GRILL,50011937,1099 2ND AVE,"NEW YORK, NY 10022",Manhattan,993968,216108,American ,646-895-9533
MY BAKERY NY,50036141,5902 7TH AVE,"BROOKLYN, NY 11220",Brooklyn,981124,171467,Bakery,718-436-5318
My Belly's Playlist,50013525,89 WASHINGTON ST,"NEW YORK, NY 10006",Manhattan,980244,197227,American ,917-338-6846
MY COOKING PARTY,50056785,130 W 29TH ST,"NEW YORK, NY 10001",Manhattan,986714,211461,American ,646-314-1775
MY DREAM RESTAURANT & LOUNGE,50051878,3429 EASTCHESTER RD,"BRONX, NY 10469",Bronx,1026642,259062,Caribbean,347-326-6671
NAGLE'S BAGELS,50062911,728 FRANKLIN AVE,"BROOKLYN, NY 11238",Brooklyn,996205,184709,Bagels/Pretzels,917-545-2512
NAGLES BAGELS,50062864,378 TOMPKINS AVE,"BROOKLYN, NY 11216",Brooklyn,999744,188627,Bagels/Pretzels,347-305-3007
NAGLES BAGELS,50062865,50 LINCOLN RD,"BROOKLYN, NY 11225",Brooklyn,995012,180033,Bagels/Pretzels,347-915-0098
NAMASTE CATERERS,50071034,8347 258TH ST,"FLORAL PARK, NY 11004",Queens,1064487,208243,Other,917-991-1499
NATHANIEL'S BAKERY,50069597,2004 UTOPIA PKWY,"WHITESTONE, NY 11357",Queens,1041343,223341,Bakery,728-971-1096
NAYA,50070313,488 MADISON AVE,"NEW YORK, NY 10022",Manhattan,991216,215761,Other,646-644-4990
NAYA EXPRESS,50005630,54 W 56TH ST,"NEW YORK, NY 10019",Manhattan,990851,217260,Middle Eastern,212-944-7777
NAYA EXPRESS,50043973,1 NEW YORK PLZ,"NEW YORK, NY 10004",Manhattan,980763,195244,Mediterranean,212-760-8888
NEAPOLITAN EXPRESS,50035899,232 E 111TH ST,"NEW YORK, NY 10029",Manhattan,1000447,228701,Pizza,212-289-4689
NESPRESSO,50068868,935 MADISON AVE,"NEW YORK, NY 10021",Manhattan,994121,220989,Cafe/Coffee/Tea,917-482-6047
NEST RESTAURANT & BAR,50017455,12517 101ST AVE,"SOUTH RICHMOND HILL, NY 11419",Queens,1033975,191248,Caribbean,718-847-4035
NEW CHINA TACO,50033930,7419 METROPOLITAN AVE,"MIDDLE VLG, NY 11379",Queens,1018100,199021,Tex-Mex,718-416-8888
NEW CHU'S GOURMET,50059660,82 LIVINGSTON ST,"BROOKLYN, NY 11201",Brooklyn,986744,191196,Chinese,718-260-8870
NEW EAST STAR,50043859,987 WESTCHESTER AVE,"BRONX, NY 10459",Bronx,1013427,239246,Chinese,718-589-4338
NEW FU LAI KITCHEN,50044065,7023 FORT HAMILTON PKWY,"BROOKLYN, NY 11228",Brooklyn,980622,168093,Chinese,718-833-3853
NEW GOLDEN PLACE,50052444,486 KINGS HWY,"BROOKLYN, NY 11223",Brooklyn,992092,159415,Other,718-382-1999
NEW KING WOK RESTAURANT,50058339,14616 JAMAICA AVE,"JAMAICA, NY 11435",Queens,1037307,195017,Chinese,917-353-7321
NEW KINGS MEN KITCHEN,50032895,204 MALCOLM X BLVD,"BROOKLYN, NY 11221",Brooklyn,1003724,189385,Chinese,718-574-3923
NEW ONE CHINESE RESTAURANT,50041912,6320 11TH AVE,"BROOKLYN, NY 11219",Brooklyn,982890,168673,Chinese,718-491-8888
NEW SANTANA DELI & RESTAURANT,50042900,187 IRVING AVE,"BROOKLYN, NY 11237",Brooklyn,1006653,194962,Mexican,929-210-0860
NEW SARKURA JAPAN,50018747,9040 160TH ST,"JAMAICA, NY 11432",Queens,1039728,196166,Japanese,718-297-6800
NEW TOKYO SUSHI,50071147,16216 UNION TPKE,"FLUSHING, NY 11366",Queens,1038202,202074,Other,718-591-0333
NEW WAH LUNG KITCHEN,50045694,2111 21ST AVE,"ASTORIA, NY 11105",Queens,1007983,224224,Chinese,718-278-0390
NEW WORLD STAGES & THE GREEN ROOM,50018245,343 W 49TH ST,"NEW YORK, NY 10019",Manhattan,987620,216969,Other,646-439-2077
NEW YORK BURGER CO.,50052392,470 W 23RD ST,"NEW YORK, NY 10011",Manhattan,983370,211525,American ,212-255-0400
NEW YORK FILM ACADEMY CAFE,50005656,0 Peter Minuit Plaza,"NEW YORK, NY 10004",Manhattan,980605,195090,American ,917-868-1736
NEW YORK KIMCHI,50056899,102 MACDOUGAL ST,"NEW YORK, NY 10012",Manhattan,983964,204994,Korean,212-951-1456
NEW YORK KIMCHI,50059475,160 E 23RD ST,"NEW YORK, NY 10010",Manhattan,988669,208591,Korean,646-476-8119
NEW YORK POST CAFETERIA,50043587,900 E 132ND ST,"BRONX, NY 10454",Bronx,1008853,230282,American ,516-852-7452
NEW YORK SHAKE & BURGER,50013883,14701 LIBERTY AVE,"JAMAICA, NY 11435",Queens,1038473,192984,American ,718-523-1900
New Yorkers Pizza,50058201,2166 3RD AVE,"NEW YORK, NY 10035",Manhattan,1001162,230546,Pizza/Italian,212-722-2500
NIGHT MARKET BBQ,50038063,4506 PARSONS BLVD,"FLUSHING, NY 11355",Queens,1035368,214589,Chinese,929-329-0050
NINJA JAPAN TERIYAKI,50051603,9206 JAMAICA AVE,"WOODHAVEN, NY 11421",Queens,1024995,191904,Japanese,718-805-8880
NIPPONCHA RESTAURANT,50048035,3934 BELL BLVD,"BAYSIDE, NY 11361",Queens,1047496,218034,Japanese,718-229-0805
NIU POT,50038921,4235 MAIN ST,"FLUSHING, NY 11355",Queens,1031936,214181,Chinese,718-640-3923
NO. 1 CHINESE RESTAURANT,50005269,661 NOSTRAND AVE,"BROOKLYN, NY 11216",Brooklyn,998108,185068,Chinese,718-604-8300
NO. 142 BAR,50038108,142 SULLIVAN ST,"NEW YORK, NY 10012",Manhattan,983707,204136,American ,212-477-2404
NOI DUE CARNE,50066064,141 W 69TH ST,"NEW YORK, NY 10023",Manhattan,989378,222007,Jewish/Kosher,914-204-9242
NONNAS OF WHITESTONE,50053566,2230 154TH ST,"WHITESTONE, NY 11357",Queens,1037096,222761,Pizza/Italian,718-321-7777
NORA PIZZA,50058434,2456 EASTCHESTER RD,"BRONX, NY 10469",Bronx,1027589,253339,Pizza,718-676-0500
NOREETUH,50018858,128 1ST AVE,"NEW YORK, NY 10009",Manhattan,988285,204278,American ,646-892-3050
NORMA,50057641,438 3RD AVE,"NEW YORK, NY 10016",Manhattan,989852,210142,Italian,212-889-0600
NORTHERN BELL,50008245,612 METROPOLITAN AVE,"BROOKLYN, NY 11211",Brooklyn,998501,199457,American ,718-388-9040
NORTHSIDE BAKERY,50018952,190 NASSAU AVE,"BROOKLYN, NY 11222",Brooklyn,999362,203600,Polish,718-349-7775
NOWADAYS,50036029,5606 COOPER AVE,"GLENDALE, NY 11385",Queens,1011449,191756,American ,917-541-1321
NRGIZE LIFE STYLE CAFE,50008562,1776 EASTCHESTER RD,"BRONX, NY 10461",Bronx,1027553,248917,"Juice, Smoothies, Fruit Salads",718-828-1871
NUNOODLE,50008770,8910 QUEENS BLVD,"ELMHURST, NY 11373",Queens,1019088,206954,Chinese,718-505-8858
NUR,50056765,34 E 20TH ST,"NEW YORK, NY 10003",Manhattan,987255,208480,Middle Eastern,212-505-3420
NY BAGEL & CAFE DELI,50066667,53 BRUCKNER BLVD,"BRONX, NY 10454",Bronx,1004526,233131,Other,347-261-1458
NYC HANDCRAFTED,50036313,367 3RD AVE,"NEW YORK, NY 10016",Manhattan,989375,209268,American ,212-689-3000
NYC SALADS & GRILL INC,50071048,92 NAGLE AVE,"NEW YORK, NY 10040",Manhattan,1004252,252798,Other,914-565-5705
NYC THE BULL RESTAURANT AND ROSTISSERIE,50056703,6712 FRESH POND RD,"RIDGEWOOD, NY 11385",Queens,1012962,196319,American ,718-417-4040
NYLO NYC,50054435,2178 BROADWAY,"NEW YORK, NY 10024",Manhattan,989556,224313,American ,212-651-3308
OASIS MIDDLE EASTERN RESTAURANT,50054422,1907 WHITE PLAINS RD,"BRONX, NY 10462",Bronx,1020986,248117,Middle Eastern,718-409-2236
OCEANA POKE,50063639,1700 BROADWAY,"NEW YORK, NY 10019",Manhattan,989126,217383,Hawaiian,212-713-0033
OKINII,50038886,216 THOMPSON ST,"NEW YORK, NY 10012",Manhattan,984485,204881,Japanese,212-574-4438
OLIVE GARDEN,50014114,200 BAYCHESTER AVE,"BRONX, NY 10475",Bronx,1031151,254798,Italian,718-931-1045
OLIVE GARDEN,50015549,9210 59TH AVE,"ELMHURST, NY 11373",Queens,1020609,206805,Italian,718-458-0549
OLIVER COFFEE,50058023,5 OLIVER ST,"NEW YORK, NY 10038",Manhattan,984785,199035,Cafe/Coffee/Tea,415-317-6266
OMANI CHICKEN & SANDWICH,50008696,160-42 WILLETS POINT BOULEVARD,,Queens,1039139,223810,American ,718-225-2500
ONE LENOX,50062880,1113 1ST AVE,"NEW YORK, NY 10065",Manhattan,995052,216516,American ,212-804-8464
ONEONEFOUR BAR & LOUNGE (MARMAR PARK AVE),50042713,114 E 32ND ST,"NEW YORK, NY 10016",Manhattan,989373,210870,American ,646-603-9000
OPS,50055359,346 HIMROD ST,"BROOKLYN, NY 11237",Brooklyn,1007134,195232,Pizza/Italian,718-386-4009
ORA DI PASTA,50017020,1 W 58TH ST,"NEW YORK, NY 10019",Manhattan,991317,217657,Italian,646-755-3013
ORSO COFFEE,50064439,1745 SHEEPSHEAD BAY RD,"BROOKLYN, NY 11235",Brooklyn,997716,152549,Cafe/Coffee/Tea,718-484-9250
OSAMIL,50052171,5 W 31ST ST,"NEW YORK, NY 10001",Manhattan,988008,211338,Korean,212-300-4713
OTIS,50070251,18 HARRISON PL,"BROOKLYN, NY 11206",Brooklyn,1002890,196574,American ,310-570-7873
OUR WICKED LADY,50018636,153 MORGAN AVE,"BROOKLYN, NY 11237",Brooklyn,1002811,197743,American ,323-397-0670
OUSIA,50055426,629 W 57TH ST,"NEW YORK, NY 10019",Manhattan,986150,220192,Greek,212-333-2000
OUTBACK STEAKHOUSE,50017920,355 GATEWAY DR,"BROOKLYN, NY 11239",Brooklyn,1019954,175973,American ,813-282-1225
OUTBACK STEAKHOUSE,50040937,270 BAYCHESTER AVE,"BRONX, NY 10475",Bronx,1031096,254958,Steak,718-304-0483
OVENLY,50039626,230 PARK AVE,"NEW YORK, NY 10169",Manhattan,990913,214165,Bakery,347-725-3322
OVOSODO,50008557,11060 QUEENS BLVD,"FOREST HILLS, NY 11375",Queens,1028892,201345,Italian,718-487-3524
PACIFIC MOON,50014908,5902 BROADWAY,"WOODSIDE, NY 11377",Queens,1011225,213063,Chinese,718-476-8578
Paikin BBQ,50056810,1807 KINGS HWY,"BROOKLYN, NY 11229",Brooklyn,996659,161539,Other,718-743-3047
PAIR WINE AND CHEESE,50018113,140 ATLANTIC AVE,"BROOKLYN, NY 11201",Brooklyn,985603,190823,American ,718-596-6594
PALACE BUFFET & GRILL,50050771,230 BAY RIDGE AVE,"BROOKLYN, NY 11209",Brooklyn,976622,171054,Mediterranean,347-662-6268
PANDA BANJUM,50049724,2 W 32ND ST,"NEW YORK, NY 10001",Manhattan,988156,211544,Korean,212-695-7272
PANDA CAFE,50003300,8331 BROADWAY,"ELMHURST, NY 11373",Queens,1017703,209115,Asian,718-806-1905
PANDA EXPRESS,50039631,1 W FORDHAM RD,"BRONX, NY 10468",Bronx,1011562,253628,Asian,718-933-0088
PANERA BREAD,50034088,304 PARK AVE S,"NEW YORK, NY 10010",Manhattan,987989,208881,American ,212-894-3288
PANSHI,50049280,16837 HILLSIDE AVE,"JAMAICA, NY 11432",Queens,1041443,198177,Bangladeshi,718-480-8516
PAOWALLA,50052263,195 SPRING ST,"NEW YORK, NY 10012",Manhattan,983376,203469,Indian,212-235-1098
PAPA JOHN'S,50017891,3528 NOSTRAND AVE,"BROOKLYN, NY 11229",Brooklyn,1000522,157101,Pizza,718-646-7272
PAPA JOHN'S,50034110,3548 31ST ST,"ASTORIA, NY 11106",Queens,1003885,215214,Pizza,718-728-7272
PAPA JOHN'S,50037026,1654 86TH ST,"BROOKLYN, NY 11214",Brooklyn,982563,161269,Pizza,718-256-7272
PAPA JOHN'S,50042768,10303 101ST AVE,"OZONE PARK, NY 11416",Queens,1028684,189261,Pizza,917-295-6250
Papa John's Pizza,50067153,10928 MERRICK BLVD,"JAMAICA, NY 11433",Queens,1044220,193196,Pizza,516-574-3314
PAPA JOHNS,50066355,161 W 231ST ST,"BRONX, NY 10463",Bronx,1011032,259284,Pizza,917-676-4703
PARIS BAGUETTE,50003253,591 LEXINGTON AVE,"NEW YORK, NY 10022",Manhattan,992133,215293,Bakery,212-838-0404
PARIS BAGUETTE,50019178,97 COURT ST,"BROOKLYN, NY 11201",Brooklyn,986561,191073,Bakery,718-797-0404
PARIS BAGUETTE,50034013,303 PARK AVE S,"NEW YORK, NY 10010",Manhattan,988061,208998,Bakery,212-677-0404
PARIS BAGUETTE,50035662,977 8TH AVE,"NEW YORK, NY 10019",Manhattan,989036,218694,Bakery,212-582-0404
PARIS BAGUETTE,50057019,4522 46TH ST,"SUNNYSIDE, NY 11104",Queens,1006738,209796,Bakery,917-923-8551
PARIS BAGUETTE,50063325,575 8TH AVE,"NEW YORK, NY 10018",Manhattan,986614,214326,Cafe/Coffee/Tea,917-261-4534
PARIS BAGUETTE CAFE,50019179,2568 BROADWAY,"NEW YORK, NY 10025",Manhattan,992141,228925,Bakery,212-678-0404
PARK SLOPE ALE HOUSE,50070624,356 6TH AVE,"BROOKLYN, NY 11215",Brooklyn,989282,183574,Other,336-287-0165
PARKSIDE,50043263,705 FLATBUSH AVE,"BROOKLYN, NY 11225",Brooklyn,995369,178253,Pizza,917-567-7316
PASQUALE JONES,50044508,86 KENMARE ST,"NEW YORK, NY 10012",Manhattan,985163,202031,Italian,917-453-5947
PASTA FLYER,50060811,510 6TH AVE,"NEW YORK, NY 10011",Manhattan,985021,207721,Other,626-991-1527
PASTICCERIA ROCCO,50018845,9402 4TH AVE,"BROOKLYN, NY 11209",Brooklyn,975674,163915,Cafe/Coffee/Tea,718-745-2590
PATE LACAYE BAKERY,50046380,22924 LINDEN BLVD,"CAMBRIA HEIGHTS, NY 11411",Queens,1058562,191716,Bakery,718-468-2525
PATE/ROLL SMASH,50018783,4543B BELL BLVD,"BAYSIDE, NY 11361",Queens,1048326,215941,Asian,347-235-0045
PAULIE'S PIZZERIA,50047337,500 BAY ST,"STATEN ISLAND, NY 10304",Staten Island,962956,168759,Pizza/Italian,718-981-5111
PECORINO,50060681,197 7TH AVE,"NEW YORK, NY 10011",Manhattan,985258,210006,Other,212-462-4111
PELHAM BAY BURGER KING,50055178,3269 WESTCHESTER AVE,"BRONX, NY 10461",Bronx,1031861,249939,Sandwiches/Salads/Mixed Buffet,718-822-7900
PELHAM CAFE,50017935,2145 CRUGER AVE,"BRONX, NY 10462",Bronx,1021128,250771,Spanish,347-281-9554
PENG SHUN RESTAURANT,50035104,6301 8TH AVE,"BROOKLYN, NY 11220",Brooklyn,981084,170153,Chinese,917-388-0989
PEQUE VINOS + TAPAS,50035661,231 W 145TH ST,"NEW YORK, NY 10039",Manhattan,1000814,238797,Tapas,646-678-4095
PERLA'S PIZZA & CAFE,50063653,5124 VAN LOON ST,"ELMHURST, NY 11373",Queens,1017694,208160,Pizza,718-458-0700
PIATTO,50065229,150 50TH AVE,"LONG ISLAND CITY, NY 11101",Queens,995645,210208,Italian,718-361-2751
PICKLER & CO,50038206,216 E 45TH ST,"NEW YORK, NY 10017",Manhattan,991881,213410,American ,646-869-9026
PIEROGI BOYS,50060323,445 GOLD ST,"BROOKLYN, NY 11201",Brooklyn,988839,190966,Polish,646-413-4488
PIEZANO PIZZA,50043145,94 NAGLE AVE,"NEW YORK, NY 10040",Manhattan,1004270,252806,Pizza,917-504-5541
PILOT,50070434,334 FURMAN ST,"BROOKLYN, NY 11201",Brooklyn,984473,192119,Other,212-520-7855
PINK CANARY DESSERTS,50062493,1311 JACKSON AVE,"LONG ISLAND CITY, NY 11101",Queens,998303,210445,Bakery,718-729-1819
PINK FOREST,50066146,7201 AUSTIN ST,"FOREST HILLS, NY 11375",Queens,1027920,201372,Cafe/Coffee/Tea,646-287-8862
PINK MOOSE,50064523,1070 1ST AVE,"NEW YORK, NY 10022",Manhattan,994699,215866,American ,212-256-0788
PINOT'S PALETTE,50042417,382 5TH AVE,"BROOKLYN, NY 11215",Brooklyn,988498,183788,Cafe/Coffee/Tea,929-337-6499
PINSHANG,50070661,2007 127TH ST,"COLLEGE POINT, NY 11356",Queens,1028169,224022,Chinese,718-971-5555
PIQUE 86 RESTAURANT,50044966,220 E 198TH ST,"BRONX, NY 10458",Bronx,1014612,256154,Spanish,718-684-4516
PIURA,50016799,3932 BELL BLVD,"BAYSIDE, NY 11361",Queens,1047494,218040,Peruvian,718-224-0330
PIZZA GYRO GRILL,50035397,1620 AVENUE M,"BROOKLYN, NY 11230",Brooklyn,995681,164482,Pizza/Italian,718-676-5006
PIZZA HEAVEN,50008497,3009 AVENUE N,"BROOKLYN, NY 11210",Brooklyn,999607,164167,Pizza,718-338-1300
PIZZA ITALIA,50010848,307 W 17TH ST,"NEW YORK, NY 10011",Manhattan,983787,209573,Pizza/Italian,212-242-4242
PLANET WINGS,50035072,699 E 187TH ST,"BRONX, NY 10458",Bronx,1016186,250503,Chicken,718-562-9464
Planet Wings,50064418,9505 63RD DR,"REGO PARK, NY 11374",Queens,1022281,205055,American ,718-997-1111
Platinum Lounge,50065937,14014 ROCKAWAY BLVD,"JAMAICA, NY 11436",Queens,1039605,184993,Other,201-736-6784
PLOWSHARES COFFEE,50013460,2730 BROADWAY,"NEW YORK, NY 10025",Manhattan,993093,230811,Cafe/Coffee/Tea,212-222-0280
POKE BOWL,50063254,104 FULTON ST,"NEW YORK, NY 10038",Manhattan,982391,197834,Hawaiian,212-775-8540
POKEE,50054878,121 W 3RD ST,"NEW YORK, NY 10012",Manhattan,984114,205462,Hawaiian,212-387-1888
POKEWORKS,50043277,63 W 37TH ST,"NEW YORK, NY 10018",Manhattan,988384,212943,Hawaiian,212-575-8881
POKEWORKS,50060922,23 E 15TH ST,"NEW YORK, NY 10003",Manhattan,986321,207586,Hawaiian,646-395-9884
POKEWORKS (Entrance is on 41st street between Lexington & Park),50060598,122 E 42ND ST,"NEW YORK, NY 10168",Manhattan,990775,213106,Hawaiian,646-653-9793
POLLO SABROSO RESTAURANT,50014157,216 E 198TH ST,"BRONX, NY 10458",Bronx,1014586,256173,"Latin (Cuban, Dominican, Puerto Rican, South & Central American)",716-907-1057
POP'S RESTAURANT,50045209,8522 JAMAICA AVE,"WOODHAVEN, NY 11421",Queens,1023403,191614,Spanish,718-846-2037
Popeye's Louisiana Kitchen,50043705,1058 FLUSHING AVE,"BROOKLYN, NY 11237",Brooklyn,1003893,195970,Chicken,347-404-7042
POPEYES,50053469,13344 WHITESTONE EXPY,"FLUSHING, NY 11354",Queens,1029770,219348,Chicken,718-886-3300
POPEYES,50058735,712 BROADWAY,"BROOKLYN, NY 11206",Brooklyn,1000071,194798,American ,929-387-8513
PORTABLE CHEF,50044401,2191 3RD AVE,"NEW YORK, NY 10035",Manhattan,1001313,230808,American ,917-657-8888
POTATO CORNER,50046848,9015 QUEENS BLVD,"ELMHURST, NY 11373",Queens,1019841,206663,American ,646-643-0589
POULETTE,50008319,790 9TH AVE,"NEW YORK, NY 10019",Manhattan,987631,218004,Chicken,212-956-9488
PRET A MANGER,50011315,600 LEXINGTON AVENUE,"NEW YORK, NY 10022",Manhattan,992195,215417,Sandwiches,646-728-0505
PRINCE DESSERT AND TEA ROOM,50015213,3639 PRINCE ST,"FLUSHING, NY 11354",Queens,1030550,216709,Cafe/Coffee/Tea,917-285-2523
PRINCE TEA HOUSE,50040957,6122 7TH AVE,"BROOKLYN, NY 11220",Brooklyn,980767,171017,Cafe/Coffee/Tea,646-675-9095
PRINTERS ALLEY,50052865,215 W 40TH ST,"NEW YORK, NY 10018",Manhattan,987410,214364,American ,212-634-9100
PRIVATE KITCHEN,50063568,3635 MAIN ST,"FLUSHING, NY 11354",Queens,1030908,217059,Chinese,718-358-6667
PROLOGUE COFFEE ROOM,50053497,120 LAFAYETTE ST,"NEW YORK, NY 10013",Manhattan,984129,201063,Cafe/Coffee/Tea,646-932-2322
PROVA PIZZA BAR,50054114,89 E 42ND ST,"NEW YORK, NY 10017",Manhattan,990455,213288,Pizza/Italian,212-972-0385
PUEBLA MEXICAN FOOD,50041042,120 ESSEX ST,"NEW YORK, NY 10002",Manhattan,987650,201386,Mexican,914-434-0465
PUNJABI DINER,50055888,11601 101ST AVE,"SOUTH RICHMOND HILL, NY 11419",Queens,1031841,190447,Indian,718-846-3900
PURE GREEN,50058801,95 BOERUM PLACE,"BROOKLYN, NY 11201",Brooklyn,986749,190192,"Juice, Smoothies, Fruit Salads",917-398-3488
PURE GREEN,50064814,60 E 8TH ST,"NEW YORK, NY 10003",Manhattan,986154,205558,"Juice, Smoothies, Fruit Salads",212-529-0081
PURE GREEN,50068055,95 CHAMBERS ST,"NEW YORK, NY 10007",Manhattan,982182,199666,"Juice, Smoothies, Fruit Salads",917-287-5646
PUSH FITNESS CLUB,50047433,18810 UNION TPKE,"FRESH MEADOWS, NY 11366",Queens,1044960,205041,American ,718-464-7874
QDOBA MEXICAN GRILL,50008956,NKA JFK INTERNATIONAL AIRPORT,"JAMAICA, NY 11430",Queens,1043012,175520,Mexican,718-995-0838
QED,50017188,2716 23RD AVE,"ASTORIA, NY 11105",Queens,1007775,221969,Cafe/Coffee/Tea,347-451-3873
Qingdao,50069376,4046 MAIN ST,"FLUSHING, NY 11354",Queens,1031454,215656,Other,929-258-2233
QUEENS SWEET YUMMY HOUSE,50045700,8313 BROADWAY,"ELMHURST, NY 11373",Queens,1017579,209228,Chinese,917-325-2761
R DELICIOUS,50064469,4005 BROADWAY,"ASTORIA, NY 11103",Queens,1006731,215780,Other,917-399-5090
R&D FOODS,50006550,602 VANDERBILT AVE,"BROOKLYN, NY 11238",Brooklyn,992949,186405,American ,347-915-1196
RACINES,50007352,94 CHAMBERS ST,"NEW YORK, NY 10007",Manhattan,982209,199642,French,212-227-3400
RANDAZZO'S PIZZERIA,50017029,306 DITMAS AVE,"BROOKLYN, NY 11218",Brooklyn,990972,170913,Pizza,718-436-2624
RANDOLPH BEER,50067841,77 SANDS ST,"BROOKLYN, NY 11201",Brooklyn,987708,194339,American ,646-240-3355
Ravel Garden Grill,50063848,818 QUEENS PLZ S,"LONG ISLAND CITY, NY 11101",Queens,998431,214014,Other,718-289-9612
RAW MKT,50062670,61 E 8TH ST,"NEW YORK, NY 10003",Manhattan,986090,205601,Hawaiian,646-657-0962
RAZOR BAR,50066199,2254 5TH AVE,"NEW YORK, NY 10037",Manhattan,1001804,235917,American ,646-726-4933
RDV,50056716,2072 FREDERICK DOUGLASS BLVD,"NEW YORK, NY 10026",Manhattan,996128,231483,French,212-222-8952
re.union,50014243,544 UNION AVE,"BROOKLYN, NY 11211",Brooklyn,997542,200406,Cafe/Coffee/Tea,917-645-2276
RED HOOK LOBSTER POUND,50037953,230 PARK AVE,"NEW YORK, NY 10169",Manhattan,990913,214165,Seafood,646-747-0810
RED LOBSTER,50013473,2090 BARTOW AVE,"BRONX, NY 10475",Bronx,1032130,256116,Seafood,718-671-4223
RED LOBSTER,50014052,455 GATEWAY DR,"BROOKLYN, NY 11239",Brooklyn,1020519,176477,Seafood,407-245-5773
RED MANGO,50010414,2655 RICHMOND AVE,"STATEN ISLAND, NY 10314",Staten Island,937292,151471,"Ice Cream, Gelato, Yogurt, Ices",718-494-7900
RED MANGO,50011133,123 COURT ST,"BROOKLYN HEIGHTS, NY 11201",Brooklyn,986435,190727,Other,516-312-4588
RED MANGO #0484,50062667,6115 SPRINGFIELD BLVD,"OAKLAND GARDENS, NY 11364",Queens,1051705,212182,"Ice Cream, Gelato, Yogurt, Ices",347-408-4197
RED MOON,50013027,132 W 45TH ST,"NEW YORK, NY 10036",Manhattan,988742,215152,Japanese,212-391-7006
RED POKE,50059700,600 9TH AVE,"NEW YORK, NY 10036",Manhattan,986409,215801,Korean,212-974-8100
RED ROBIN GOURMET BURGERS AND BREW,50014821,200 BAYCHESTER AVE,"BRONX, NY 10475",Bronx,1031151,254798,American ,347-584-4966
RED ROBIN GOURMET BURGERS AND BREW,50033140,2655 RICHMOND AVE,"STATEN ISLAND, NY 10314",Staten Island,937291,151466,American ,718-477-1063
RED STAR CHINESE RESTAURANT,50068583,2529 ADAM CLAYTON POWELL JR BLVD,"NEW YORK, NY 10039",Manhattan,1001307,238972,Chinese,646-335-5592
REGINA'S GROCERY,50064785,27 ORCHARD ST,"NEW YORK, NY 10002",Manhattan,986584,199959,American ,347-680-4361
REGO PARK COFFEE SHOP,50038802,9414 63RD DR,"REGO PARK, NY 11374",Queens,1022180,204833,American ,718-459-2233
Relish Caterers,50034232,2501 3RD AVE,"BRONX, NY 10451",Bronx,1004070,234466,American ,212-228-1672
REMEDY DINER,50071413,245 E HOUSTON ST,"NEW YORK, NY 10002",Manhattan,988299,202299,Other,212-677-7511
RESIDENCE INN BY MARRIOTT BRONX,50034191,1776 EASTCHESTER RD,"BRONX, NY 10461",Bronx,1027553,248917,American ,718-239-3939
RESOBOX,50063894,203 W 20TH ST,"NEW YORK, NY 10011",Manhattan,984951,209764,Japanese,212-242-6238
RESOBOX,50065323,91 E 3RD ST,"NEW YORK, NY 10003",Manhattan,987561,203350,Japanese,212-598-5993
RESTAURANT ANTOJITOS,50049744,9004 JAMAICA AVE,"WOODHAVEN, NY 11421",Queens,1024592,191738,Spanish,718-846-3024
RETRO FITNESS,50055239,9273 QUEENS BLVD,"REGO PARK, NY 11374",Queens,1021129,205988,"Juice, Smoothies, Fruit Salads",347-670-1932
Retro Grill & Bar (Holiday Inn),50006769,150 DELANCEY ST,"NEW YORK, NY 10002",Manhattan,988004,200852,American ,212-475-2500
REYES TRAVEL INC JUICE BAR,50066665,1512 NEWKIRK AVE,"BROOKLYN, NY 11226",Brooklyn,994580,170910,"Juice, Smoothies, Fruit Salads",718-421-0806
RG DOMINICAN RESTAURANT,50058464,109 BELMONT AVE,"BROOKLYN, NY 11212",Brooklyn,1010282,183047,"Latin (Cuban, Dominican, Puerto Rican, South & Central American)",718-484-1839
RICE & GOLD,50066839,50 BOWERY,"NEW YORK, NY 10013",Manhattan,985254,200048,Other,646-630-8055
RICE K SUSHI & ASIAN CUISINE,50048440,2921 23RD AVE,"ASTORIA, NY 11105",Queens,1008156,221625,Chinese/Japanese,646-662-1799
RICO CHIMI,50058925,111 DYCKMAN ST,"NEW YORK, NY 10040",Manhattan,1004996,253340,Spanish,347-928-9579
RIDER,50044576,80 N 6TH ST,"BROOKLYN, NY 11249",Brooklyn,994984,201271,American ,718-210-3152
RIKO,50040010,4322 QUEENS BLVD,"SUNNYSIDE, NY 11104",Queens,1006086,210142,Peruvian,718-707-0444
RIKO PERUVIAN CUISINE,50045415,15337 HILLSIDE AVE,"JAMAICA, NY 11432",Queens,1038525,197030,Peruvian,718-523-7282
RIO SAMBA RESTAURANT AND BAR,50047355,1469 5TH AVE,"NEW YORK, NY 10035",Manhattan,999407,231583,American ,212-996-9596
RIVER DOCK BAR & GRILL,50040391,1 RICHMOND TER,"STATEN ISLAND, NY 10301",Staten Island,964095,173756,American ,718-273-0809
RIVERVIEW RESTAURANT,50034322,201 50TH AVE,"LONG ISLAND CITY, NY 11101",Queens,995740,210189,Mediterranean,718-392-5000
RIVIERA /NFL EXPERIENCE,50070112,701 7TH AVE,"NEW YORK, NY 10036",Manhattan,988532,215908,Other,917-915-3483
ROBATA STEAK AND OYSTER BAR,50063438,3636 PRINCE ST,"FLUSHING, NY 11354",Queens,1030542,216719,Japanese,718-961-8666
ROCCOS,50035660,162 7TH AVE,"NEW YORK, NY 10011",Manhattan,985031,209610,Pizza,212-633-9555
ROLEN BAGEL,50068855,3601 RIVERDALE AVE,"BRONX, NY 10463",Bronx,1009949,262336,Bagels/Pretzels,718-601-5375
RONDEL,50033001,2006 CONEY ISLAND AVE,"BROOKLYN, NY 11223",Brooklyn,994773,160969,Eastern European,347-371-9276
ROOKIE'S SPORTS BAR & GRILL,50044562,1549 ARTHUR KILL RD,"STATEN ISLAND, NY 10312",Staten Island,930961,144274,American ,718-948-0200
ROOTS,50005137,639 5TH AVE,"BROOKLYN, NY 11215",Brooklyn,986538,180804,Cafe/Coffee/Tea,615-419-7877
ROSARIO'S IHAWAN,50046167,4009 69TH ST,"WOODSIDE, NY 11377",Queens,1013000,211069,Filipino,732-278-8288
ROUGE TOMATE,50051997,126 W 18TH ST,"NEW YORK, NY 10011",Manhattan,985365,208971,French,646-395-3978
ROUTINE,50037952,631 WILSON AVE,"BROOKLYN, NY 11207",Brooklyn,1010264,190532,Cafe/Coffee/Tea,347-787-0546
ROWE STUDIOS LOUNGE,50013558,410 W 42ND ST,"NEW YORK, NY 10036",Manhattan,986138,215674,American ,212-582-5472
RUBY'S CAFE,50053072,442 3RD AVE,"NEW YORK, NY 10016",Manhattan,989874,210181,American ,917-705-8363
RUSS & DAUGHTERS AT THE JEWISH MUSEUM,50042387,1109 5TH AVE,"NEW YORK, NY 10128",Manhattan,996085,225385,Jewish/Kosher,212-475-4880
RUSS & DAUGHTERS CAFE,50009513,127 ORCHARD ST,"NEW YORK, NY 10002",Manhattan,987175,201475,American ,212-475-4881
SAHARA CAFE HOOKAH LOUNGE,50038939,1890 EASTCHESTER RD,"BRONX, NY 10461",Bronx,1027398,249574,"Juice, Smoothies, Fruit Salads",646-309-4173
SAINTS AND SINNERS,50036110,5921 ROOSEVELT AVE,"WOODSIDE, NY 11377",Queens,1010505,210869,American ,718-396-3268
SAJOMA RESTAURANT & PIZZERIA,50058094,909 DEKALB AVE,,Brooklyn,1000749,191626,"Latin (Cuban, Dominican, Puerto Rican, South & Central American)",718-455-7552
SAKE BAR HAGI 46,50041331,358 W 46TH ST,"NEW YORK, NY 10036",Manhattan,987151,216334,Japanese,212-956-2429
SAKURA OF JAPAN,50045779,73 NASSAU ST,"NEW YORK, NY 10038",Manhattan,981955,197835,Chinese,212-775-8540
SALSA ZONE,50048051,370 E 146TH ST,"BRONX, NY 10455",Bronx,1006403,236016,American ,646-529-6468
SALT BRICK TAVERN,50066126,156 TILLARY ST,"BROOKLYN, NY 11201",Brooklyn,988742,192848,Other,646-553-3682
Salty Stew,50066398,4010 UNION ST,"FLUSHING, NY 11354",Queens,1032343,216273,Chinese,917-770-7261
SALUD RESTAURANT,50044201,7204 3RD AVE,"BROOKLYN, NY 11209",Brooklyn,976753,170041,Tapas,718-333-5228
SAMURAIS STEAK HOUSE,50069762,7407 3RD AVE,"BROOKLYN, NY 11209",Brooklyn,976603,169540,Japanese,718-577-1955
SAN JOSE TULCINGO DELI,50070647,109 E 153RD ST,"BRONX, NY 10451",Bronx,1004168,239466,Mexican,917-631-9253
SAPOARA,50064590,2262 1ST AVE,"NEW YORK, NY 10035",Manhattan,1002181,229368,American ,212-256-0199
SAPPHIRE 39,50055296,20 W 39TH ST,"NEW YORK, NY 10018",Manhattan,988909,213234,Other,212-355-6777
SARITAS BAKERY,50062740,9412 CORONA AVE,"ELMHURST, NY 11373",Queens,1020397,209744,Bakery,718-443-4414
SARKU JAPAN,50012694,200 BAYCHESTER AVE,"BRONX, NY 10475",Bronx,1031151,254798,Japanese,718-320-1500
SARKU JAPAN,50016747,815 HUTCHINSON RIVER PKWY,"BRONX, NY 10465",Bronx,1029523,239410,Japanese,718-239-1460
SARKU JAPAN,50037464,11114 FLATLANDS AVE,"BROOKLYN, NY 11207",Brooklyn,1014505,176206,Japanese,718-257-5802
SASA FENGWAI MIFIN,50044826,13620 ROOSEVELT AVE,"FLUSHING, NY 11354",Queens,1031557,216133,Asian,917-291-4641
SATIN DOLLS,50060139,689 8TH AVE,"NEW YORK, NY 10036",Manhattan,987271,215510,American ,212-765-5047
SAUVAGE,50018511,905 LORIMER ST,"BROOKLYN, NY 11222",Brooklyn,997611,202956,French,718-486-6816
SAW SHACK,50011224,8422 37TH AVE,"JACKSON HEIGHTS, NY 11372",Queens,1016899,212530,Chinese,718-898-2768
SAZON CIBAENO,50040304,2787 ATLANTIC AVE,"BROOKLYN, NY 11207",Brooklyn,1014356,185728,"Latin (Cuban, Dominican, Puerto Rican, South & Central American)",718-484-7978
SAZON DE LUPITA,50035029,155A W KINGSBRIDGE RD,"BRONX, NY 10468",Bronx,1010753,256297,Mexican,347-590-0188
SBARRO,50062592,885 8TH AVE,"NEW YORK, NY 10019",Manhattan,988438,217617,Pizza/Italian,917-383-2110
SCALINO G.P.,50006098,659 MANHATTAN AVE,"BROOKLYN, NY 11222",Brooklyn,997756,203271,Italian,718-389-8600
SCAVELLO'S ON THE ISLAND,50032662,101 CITY ISLAND AVE,"BRONX, NY 10464",Bronx,1043999,245642,Italian,347-680-3865
SCHILLING,50049766,109 WASHINGTON ST,"NEW YORK, NY 10006",Manhattan,980308,197447,Eastern European,212-406-1200
SCHIMANSKI NEW YORK,50055822,54 N 11TH ST,"BROOKLYN, NY 11249",Brooklyn,995644,202412,American ,718-486-2299
SCHNIPPERS,50036850,1 NEW YORK PLZ,"NEW YORK, NY 10004",Manhattan,980763,195244,Hamburgers,646-202-9330
SCHNIPPERS,50052875,120 CHURCH ST,"NEW YORK, NY 10007",Manhattan,981758,199264,American ,212-732-1700
SEA WOLF,50018434,19 WYCKOFF AVE,"BROOKLYN, NY 11237",Brooklyn,1005608,196737,American ,718-388-3265
SEBASTIANO FARAONE,50067430,257 COLUMBIA ST,"BROOKLYN, NY 11231",Brooklyn,983280,188241,Italian,718-875-1936
SEBASTIANS CAFE,50062978,5503 METROPOLITAN AVE,"RIDGEWOOD, NY 11385",Queens,1009582,199076,Other,732-439-5242
SECRET PROJECT ROBOT,50063974,1186 BROADWAY,"BROOKLYN, NY 11221",Brooklyn,1004393,191584,American ,917-860-8282
SETAGAYA,50043829,280 BEDFORD AVE,"BROOKLYN, NY 11249",Brooklyn,995049,199681,Asian,718-218-8508
SHAKE SHACK,41474509,152 EAST 86 STREET,"NEW YORK, NY 10028",Manhattan,996696,223188,American ,646-237-5036
SHAKING CRAB,50060215,2869 BROADWAY,"NEW YORK, NY 10025",Manhattan,993658,232606,Seafood,617-256-4211
SHAKING-CRAB,50070866,230 5TH AVE,"BROOKLYN, NY 11215",Brooklyn,989530,185448,Other,617-256-4211
SHANFA BAKERY,50037065,6221 FORT HAMILTON PKWY,"BROOKLYN, NY 11219",Brooklyn,982245,169517,Chinese,718-833-8884
SHANGHAI FAMILY DUMPLING,50059979,6301 8TH AVE,"BROOKLYN, NY 11220",Brooklyn,981084,170153,Chinese,718-745-2620
SHARKEY'S SQUARE,50016624,1910 HYLAN BLVD,"STATEN ISLAND, NY 10305",Staten Island,957520,151688,Pizza,718-979-4700
SHAY & IVY,50055036,37 W 24TH ST,"NEW YORK, NY 10010",Manhattan,986881,209902,American ,646-732-6206
SHIPWRECKED MINIATURE GOLF,50062985,619 COURT ST,"BROOKLYN, NY 11231",Brooklyn,983869,183729,Pizza,718-852-4653
SHOKU JAPAN EXPRESS,50045218,14720 JAMAICA AVE,"JAMAICA, NY 11435",Queens,1037686,195005,Japanese,718-526-8818
SHOKUDO,50007871,658 9TH AVE,"NEW YORK, NY 10036",Manhattan,986784,216474,Thai,212-956-9415
Shuk/Broadway Burger Co,50058860,1369 BROADWAY,"NEW YORK, NY 10018",Manhattan,987649,213308,Jewish/Kosher,212-775-8540
SHUNDECK RESTAURANT,50015981,2332 86TH ST,"BROOKLYN, NY 11214",Brooklyn,986815,157896,Chinese,917-933-9779
SHURAKU,50069084,47 8TH AVE,"NEW YORK, NY 10014",Manhattan,983177,208344,Japanese,212-807-0010
SIGMUND'S,50039157,230 PARK AVE,"NEW YORK, NY 10169",Manhattan,990913,214165,German,917-494-3217
SIMCHA PALACE,50066938,7327 MAIN ST,"FLUSHING, NY 11367",Queens,1033948,203304,Jewish/Kosher,917-396-0574
SIP UNWINE,50051370,1197 FLATBUSH AVE,"BROOKLYN, NY 11226",Brooklyn,996392,172864,Caribbean,718-576-6424
SISTER JANE,50060858,349 E 13TH ST,"NEW YORK, NY 10003",Manhattan,988610,205662,American ,917-265-8234
SKINNYPIZZA,50011555,225 LIBERTY ST,"NEW YORK, NY 10281",Manhattan,979905,198509,Pizza/Italian,718-778-6392
SKYLINE BAR & LOUNGE,50054623,1511 WILKINSON AVE,"BRONX, NY 10461",Bronx,1027778,250010,American ,646-341-7716
SKYVIEW CAFE,50044170,5701 ARLINGTON AVE,"BRONX, NY 10471",Bronx,1010000,269610,American ,718-601-7486
SLAKE,50006441,251 W 30TH ST,"NEW YORK, NY 10001",Manhattan,985942,212189,American ,212-695-8970
SLIMAK CAFE,50063865,4110 4TH AVE,"BROOKLYN, NY 11232",Brooklyn,982177,176597,American ,347-689-3332
SMASHBURGER,50042454,4318 AMBOY RD,"STATEN ISLAND, NY 10312",Staten Island,939736,138073,American ,347-562-4362
SMILE TO GO,50067765,55 WATER ST,"BROOKLYN, NY 11201",Brooklyn,986455,195508,Cafe/Coffee/Tea,646-642-0534
SMITHFIELD HALL,50011154,138 W 25TH ST,"NEW YORK, NY 10001",Manhattan,986170,210585,American ,212-929-9677
SMOKEY ISLAND GRILLE,50058068,424 SUTTER AVE,"BROOKLYN, NY 11212",Brooklyn,1011040,182713,Caribbean,347-770-8021
SNOWDAYS,50052387,7224 AUSTIN ST,"FOREST HILLS, NY 11375",Queens,1028102,201258,"Ice Cream, Gelato, Yogurt, Ices",347-960-8517
SNOWDAYS,50059093,214 FLATBUSH AVE,"BROOKLYN, NY 11217",Brooklyn,991079,187449,"Ice Cream, Gelato, Yogurt, Ices",347-294-0267
SODAM,50057047,15650 NORTHERN BLVD,"FLUSHING, NY 11354",Queens,1037248,217653,Korean,718-886-1616
SOFIA AND GRACE COOKIE COMPANY,50057817,163 RALPH AVE,"BROOKLYN, NY 11233",Brooklyn,1005608,188621,Bakery,718-450-8034
SOHO PARK,50062488,832 8TH AVE,"NEW YORK, NY 10019",Manhattan,988133,217056,American ,212-757-4667
SOHO TIFFIN JUNCTION,50006097,42 E 8TH ST,"NEW YORK, NY 10003",Manhattan,985870,205715,Indian,212-777-0440
SOLID STATE,50065595,5322 ROOSEVELT AVE,"WOODSIDE, NY 11377",Queens,1008854,210549,Other,917-842-2328
SONG BOAT,50048373,13342 39TH AVE,"FLUSHING, NY 11354",Queens,1030199,215883,Chinese,718-460-6668
SOUP N BURGER,50069064,1825 EMMONS AVE,"BROOKLYN, NY 11235",Brooklyn,998100,151860,American ,718-513-6939
SOUTH SLOPE PUBLIC HOUSE,50037450,426 7TH AVE,"BROOKLYN, NY 11215",Brooklyn,988628,181097,American ,929-295-8179
souvlaki square,50069082,20507 35TH AVE,"BAYSIDE, NY 11361",Queens,1044472,218700,Greek,718-229-0428
SOY KITCHEN,50054846,6142 188TH ST,"FRESH MEADOWS, NY 11365",Queens,1043502,208676,Asian,718-487-4807
SPICE & GRILL,50044479,441 MYRTLE AVE,"BROOKLYN, NY 11205",Brooklyn,993126,191837,Indian,718-875-2525
SPICE SAIGON,50033264,1237 1ST AVE,"NEW YORK, NY 10065",Manhattan,995754,217782,Thai,212-628-0088
SPICY & TASTY,50060131,3907 PRINCE ST,"FLUSHING, NY 11354",Queens,1030721,216043,Chinese,718-359-1601
SPIN CERAMICS,50052876,13 CROSBY ST,"NEW YORK, NY 10013",Manhattan,984200,201610,Cafe/Coffee/Tea,212-226-6085
SPOONFED NYC RESTAURANT,50063592,331 W 51ST ST,"NEW YORK, NY 10019",Manhattan,987924,217398,Soul Food,646-368-1854
SPRING PLACE,50051737,6 SAINT JOHNS LN,"NEW YORK, NY 10013",Manhattan,982610,201857,Mediterranean,212-257-5620
SPRINGBONE KITCHEN,50045947,90 W 3RD ST,"NEW YORK, NY 10012",Manhattan,984505,205202,American ,646-368-9192
STAFF CAFF,50006343,11 W 53RD ST,"NEW YORK, NY 10019",Manhattan,990566,216531,Soups & Sandwiches,212-333-1299
STARBUCKS (Juilliard School),50069516,1941 BROADWAY,"NEW YORK, NY 10023",Manhattan,989177,220960,Cafe/Coffee/Tea,212-671-4314
STARR BAR,50054749,214 STARR ST,"BROOKLYN, NY 11237",Brooklyn,1005575,196189,American ,718-821-1100
STATUS LOUNGE INCORPORATED,50051368,19401 LINDEN BLVD,"SAINT ALBANS, NY 11412",Queens,1051470,191841,Other,678-763-2227
STATUS Q,50045635,8218 3RD AVE,"BROOKLYN, NY 11209",Brooklyn,975934,167415,Hotdogs,
STAX ICE CREAM,50068124,279 GRAND ST,"NEW YORK, NY 10002",Manhattan,986275,200788,"Ice Cream, Gelato, Yogurt, Ices",646-870-0214
STEPHANIE'S DELISCH BAKERY,50067108,18124 UNION TPKE,"FRESH MEADOWS, NY 11366",Queens,1043426,204379,Bakery,347-623-7402
STERLING AFFAIR,50039282,250 JORALEMON ST,"BROOKLYN, NY 11201",Brooklyn,987119,191507,American ,718-780-7525
STICKY'S FINGER JOINT,50012561,484 3RD AVE,"NEW YORK, NY 10016",Manhattan,990146,210670,Chicken,646-490-5856
Sticky's Finger Joint,50046859,598 9TH AVE,"NEW YORK, NY 10036",Manhattan,986399,215781,Chicken,646-922-8067
STOLLE BAKERY CAFE,50056367,231 BRIGHTON BEACH AVE,"BROOKLYN, NY 11235",Brooklyn,993699,149364,Russian,855-800-3131
STOP & EAT,50032885,39 W 31ST ST,"NEW YORK, NY 10001",Manhattan,987684,211519,Sandwiches/Salads/Mixed Buffet,212-216-9196
SUBSTANCE ORGANIC JUICERY,50056650,2268 BROADWAY,"NEW YORK, NY 10024",Manhattan,990132,225445,"Juice, Smoothies, Fruit Salads",212-496-6000
SUBWAY,50003026,6724 BAY PARKWAY,"BROOKLYN, NY 11204",Brooklyn,988929,162322,Sandwiches,347-492-3888
SUBWAY,50006968,525 5TH AVE,"BROOKLYN, NY 11215",Brooklyn,987422,182080,Sandwiches/Salads/Mixed Buffet,718-499-2207
SUBWAY,50009761,27106 UNION TPKE,"NEW HYDE PARK, NY 11040",Queens,1066604,213348,Sandwiches/Salads/Mixed Buffet,347-886-0495
SUBWAY,50012567,1502 SAINT NICHOLAS AVE,"NEW YORK, NY 10033",Manhattan,1003107,249652,Sandwiches/Salads/Mixed Buffet,646-577-7220
SUBWAY,50012652,25919 UNION TPKE,"GLEN OAKS, NY 11004",Queens,1063942,211489,Sandwiches,718-343-1584
SUBWAY,50013240,6390 AMBOY RD,"STATEN ISLAND, NY 10309",Staten Island,,,Sandwiches/Salads/Mixed Buffet,347-286-4083
SUBWAY,50014761,86 GUYON AVE,"STATEN ISLAND, NY 10306",Staten Island,948714,145068,American ,201-424-8581
SUBWAY,50016410,2451B EASTCHESTER RD,"BRONX, NY 10469",Bronx,1027586,253309,Sandwiches,917-263-0800
SUBWAY,50016857,13011 N CONDUIT AVE,"JAMAICA, NY 11420",Queens,1036978,182367,Sandwiches,718-845-4594
SUBWAY,50017187,13721 LIBERTY AVE,"JAMAICA, NY 11435",Queens,1036888,191476,Sandwiches,718-262-0658
SUBWAY,50018686,423 5TH AVE,"BROOKLYN, NY 11215",Brooklyn,988171,183262,Sandwiches/Salads/Mixed Buffet,718-369-3663
SUBWAY,50033415,839 PROSPECT AVE,"BRONX, NY 10459",Bronx,1011522,238065,Sandwiches,718-708-5330
SUBWAY,50033999,9206 4TH AVE,"BROOKLYN, NY 11209",Brooklyn,975854,164504,Sandwiches/Salads/Mixed Buffet,718-748-0063
SUBWAY,50034948,530 CONDUIT BLVD,"BROOKLYN, NY 11208",Brooklyn,1020427,185936,Sandwiches,718-235-0937
SUBWAY,50036007,18118 HILLSIDE AVE,"JAMAICA, NY 11432",Queens,1044838,199195,Sandwiches,718-658-6600
SUBWAY,50036776,2527B PARSONS BLVD,"FLUSHING, NY 11354",Queens,1032874,222019,Sandwiches/Salads/Mixed Buffet,718-353-3100
SUBWAY,50039808,4205 FORT HAMILTON PKWY,"BROOKLYN, NY 11219",Brooklyn,986257,173041,Sandwiches/Salads/Mixed Buffet,718-438-3929
SUBWAY,50040819,9 FERRY TERMINAL DR,"STATEN ISLAND, NY 10301",Staten Island,964045,173843,Sandwiches,718-727-2197
SUBWAY,50042130,3401 FRANCIS LEWIS BLVD,"FLUSHING, NY 11358",Queens,1042563,218404,Sandwiches,718-359-1700
SUBWAY,50042455,13805 QUEENS BLVD,"BRIARWOOD, NY 11435",Queens,1034584,197510,Sandwiches,917-685-2375
SUBWAY,50043035,8020 JAMAICA AVE,"WOODHAVEN, NY 11421",Queens,1022647,191503,Sandwiches/Salads/Mixed Buffet,718-715-0856
SUBWAY,50043366,2009 WILLIAMSBRIDGE RD,"BRONX, NY 10461",Bronx,1024469,250611,Sandwiches/Salads/Mixed Buffet,917-708-9280
SUBWAY,50045835,905 WHITE PLAINS RD,"BRONX, NY 10473",Bronx,1023298,239681,Sandwiches/Salads/Mixed Buffet,718-570-2323
SUBWAY,50047834,7810 FLATLANDS AVE,"BROOKLYN, NY 11236",Brooklyn,1007954,170507,Sandwiches,718-531-5003
SUBWAY,50050042,3102 AVENUE U,"BROOKLYN, NY 11229",Brooklyn,1002279,158497,Sandwiches,718-368-1217
SUBWAY,50050498,120 WYCKOFF AVE,"BROOKLYN, NY 11237",Brooklyn,1006935,195645,Sandwiches,718-821-2995
SUBWAY,50055183,507 E 161ST ST,"BRONX, NY 10451",Bronx,1009158,239155,Sandwiches/Salads/Mixed Buffet,718-450-3463
SUBWAY,50055568,2789 ATLANTIC AVE,"BROOKLYN, NY 11207",Brooklyn,1014372,185732,Sandwiches,718-277-7771
SUBWAY,50056977,739 2ND AVE,"NEW YORK, NY 10016",Manhattan,991640,211906,Sandwiches,212-867-7010
SUBWAY,50057216,16814 HILLSIDE AVE,"JAMAICA, NY 11432",Queens,1041276,198079,Sandwiches,718-291-4011
SUBWAY,50066148,157 W 117TH ST,"NEW YORK, NY 10026",Manhattan,997762,232037,Other,954-296-6905
SUBWAY,50067813,3044 3RD AVE,"BRONX, NY 10451",Bronx,1008353,238158,Sandwiches/Salads/Mixed Buffet,718-916-2238
SUBWAY,50067975,17671 UNION TPKE,"FRESH MEADOWS, NY 11366",Queens,1042092,203813,Sandwiches,718-380-8718
SUBWAY,50068098,301 CATHEDRAL PKWY,"NEW YORK, NY 10026",Manhattan,995698,231015,Sandwiches,718-340-9154
SUBWAY,50069233,150 BAY ST,"STATEN ISLAND, NY 10301",Staten Island,963220,171975,American ,646-541-6843
SUBWAY 22574,50069017,32 W 39TH ST,"NEW YORK, NY 10018",Manhattan,988831,213277,Other,917-703-3042
SUBWAY SANDWICHES,50045276,882 5TH AVE,"BROOKLYN, NY 11232",Brooklyn,983270,176689,Sandwiches/Salads/Mixed Buffet,718-436-0081
SUBWAY SANDWICHES,50052949,1622 BEDFORD AVE,"BROOKLYN, NY 11225",Brooklyn,996366,182368,American ,347-770-8853
Sugar Fish,50055234,33 E 20TH ST,"NEW YORK, NY 10003",Manhattan,987249,208491,Japanese,347-705-8100
SUGARCANE RAW BAR GRILL,50068175,55 WATER ST,"BROOKLYN, NY 11201",Brooklyn,986455,195508,Other,212-604-0600
SUGARNCOAL-AROMA,50068238,6340 WOODHAVEN BLVD,"REGO PARK, NY 11374",Queens,1020729,202865,Other,212-920-0601
Summer Hill,50053568,637 NOSTRAND AVENUE,"BROOKLYN, NY 11216",Brooklyn,998128,185358,Sandwiches,718-514-3659
SUMMERS,50037080,169 THOMPSON ST,"NEW YORK, NY 10012",Manhattan,984157,204381,Cafe/Coffee/Tea,917-388-3372
SUN HOUSE CAFE,50043588,4017 7TH AVE,"BROOKLYN, NY 11232",Brooklyn,984187,175321,American ,718-687-8539
SUNDAY IN BROOKLYN,50056175,348 WYTHE AVE,"BROOKLYN, NY 11249",Brooklyn,993895,199470,American ,949-233-2913
SUNNY RESTAURANT,50058052,2525 PARSONS BLVD,"FLUSHING, NY 11354",Queens,1032876,222035,Chinese,718-666-0630
SUNNYSIDE PLAYS,50052671,4309 48TH AVE,"WOODSIDE, NY 11377",Queens,1005850,208749,Cafe/Coffee/Tea,646-675-5251
Sunnyside Taco,50057961,4222 GREENPOINT AVE,"SUNNYSIDE, NY 11104",Queens,1005667,209095,Mexican,718-389-1122
SUNNYVALE,50037845,1031 GRAND ST,"BROOKLYN, NY 11211",Brooklyn,1002577,199275,American ,347-987-3971
SUNRISE RESTAURANT,50043963,9607 101ST AVE,"OZONE PARK, NY 11416",Queens,1027298,188741,Chinese,718-835-1302
SUPER POWER,50048394,722 NOSTRAND AVE,"BROOKLYN, NY 11216",Brooklyn,998084,184808,American ,718-484-0020
SURYA INDIAN CUISINE,50043940,154 BLEECKER ST,"NEW YORK, NY 10012",Manhattan,984369,204638,Indian,718-737-4235
Sushi Burrito,50062952,4235 MAIN ST,"FLUSHING, NY 11355",Queens,1031936,214181,Other,646-571-0077
SUSHI CORNER,50070227,949 JEWETT AVE,"STATEN ISLAND, NY 10314",Staten Island,947945,162707,Other,718- 44-48 5
SUSHI GINZA ONODERA,50046896,461 5TH AVE,"NEW YORK, NY 10017",Manhattan,989307,213355,Japanese,212-390-0925
SUSHI Q JAPANESE RESTAURANT,50015384,1610 CROSBY AVE,"BRONX, NY 10461",Bronx,1031141,246896,Japanese,917-671-8005
SUSHI TOKOYO,50017672,6725 MAIN ST,"FLUSHING, NY 11367",Queens,1032661,206674,Jewish/Kosher,718-954-1557
Sushi ZO,50059806,127 E 39TH ST,"NEW YORK, NY 10016",Manhattan,990440,212393,Japanese,917-265-8054
SUSHIRRITO,50052721,12 W 23RD ST,"NEW YORK, NY 10010",Manhattan,986938,209551,Japanese,646-776-3377
SUSHIRRITO,50058566,1450 BROADWAY,"NEW YORK, NY 10018",Manhattan,987946,214317,Japanese,415-279-3472
SUZUKI,50059661,114 W 47TH ST,"NEW YORK, NY 10036",Manhattan,989097,215550,Japanese,212-278-0010
SVL BAR,50018668,3018B ASTORIA BLVD,"ASTORIA, NY 11102",Queens,1006756,219903,Greek,718-804-6957
Swan Lake Asian Fusion,50066210,8330 PARSONS BLVD,"JAMAICA, NY 11432",Queens,1037583,199794,Chinese,347-916-6666
SWEET HOUSE DRINK AND DESSERT,50060433,2120 86TH ST,"BROOKLYN, NY 11214",Brooklyn,985469,158963,"Juice, Smoothies, Fruit Salads",646-881-3887
SWEET KITCHEN,50044580,6604 BAY PKWY,"BROOKLYN, NY 11204",Brooklyn,989165,162621,Chinese,718-353-1668
SWEET SCENE ASTORIA,50052722,3513 34TH AVENUE,"ASTORIA, NY 11106",Queens,1005344,215481,Cafe/Coffee/Tea,917-832-7443
SWEET TIME DESSERT,50069457,171 W 4TH ST,"NEW YORK, NY 10014",Manhattan,983824,206034,Other,347-403-3018
SWEETCATCH POKE BAR,50059184,642A LEXINGTON AVE,"NEW YORK, NY 10022",Manhattan,992459,215891,Hawaiian,212-593-1020
SWEETHAUS,50041974,135 METROPOLITAN AVE,"BROOKLYN, NY 11249",Brooklyn,994663,200223,Cafe/Coffee/Tea,718-710-6627
SWERVE FITNESS,50054906,21 W 46TH ST,"NEW YORK, NY 10036",Manhattan,989800,214867,"Juice, Smoothies, Fruit Salads",917-388-3190
SYNDICATED,50044054,46 BOGART ST,"BROOKLYN, NY 11206",Brooklyn,1002769,196148,American ,718-386-3399
SYO JAPANESE RESTAURANT,50041831,2508 BROADWAY,"ASTORIA, NY 11106",Queens,1004136,217377,Japanese,718-545-0801
SZECHUAN FLAVOR,50052123,13553 NORTHERN BLVD,"FLUSHING, NY 11354",Queens,1030868,217311,Chinese,718-888-0951
SZECHUAN STORY,50064650,3610 UNION ST,"FLUSHING, NY 11354",Queens,1031881,217483,Chinese,718-358-8895
TABOULEH,50063271,673 9TH AVE,"NEW YORK, NY 10036",Manhattan,986869,216640,Middle Eastern,212-203-6161
TACO BELL,50003301,97-01 ATLANTIC AVENUE,"WOODHAVEN, NY 11421",Queens,1027021,190348,Mexican,718-805-9123
TACO BELL,50006735,1503 LEXINGTON AVE,"NEW YORK, NY 10029",Manhattan,997997,225872,Tex-Mex,646-362-3400
TACO BELL 033459,50070161,3801 JUNCTION BLVD,"CORONA, NY 11368",Queens,1020371,212384,Other,502-874-4611
TACO DUMBO,50055403,117 ADAMS ST,"BROOKLYN, NY 11201",Brooklyn,987394,194536,Mexican,347-202-0306
TACO FUN NANA,50066542,3267 FRANCIS LEWIS BLVD,"FLUSHING, NY 11358",Queens,1042153,219097,Mexican,917-378-0258
TACODUMBO,50070641,666 5TH AVE,"NEW YORK, NY 10103",Manhattan,990782,216366,Other,917-854-0764
TACODUMBO (IN THE PENNSY FOOD HALL),50067221,2 PENN PLZ,"NEW YORK, NY 10121",Manhattan,986648,212528,Mexican,917-854-0764
TACOS TORTAS QUESADILLAS GUERRERO,50044350,9423 37TH AVE,"JACKSON HEIGHTS, NY 11372",Queens,1019471,212901,Mexican,718-899-5879
TAHENI MEDITERRANEAN GRILL,50059377,224 4TH AVE,"BROOKLYN, NY 11215",Brooklyn,988932,186041,Mediterranean,718-522-2083
TANG'S GARDEN,50011721,1328 3RD AVE,"NEW YORK, NY 10021",Manhattan,995663,220627,Chinese,212-249-2102
TAQUERIA EL MAGUEY,50057630,3917 4TH AVE,"BROOKLYN, NY 11232",Brooklyn,982499,176991,Mexican,347-689-2287
TAQUERIA SANTA FE,50047636,214 STANHOPE ST,"BROOKLYN, NY 11237",Brooklyn,1006274,194515,Mexican,718-455-5012
TAQUERIA ST MARKS PL,50032980,79 SAINT MARKS PL,"NEW YORK, NY 10003",Manhattan,988188,204439,Mexican,646-964-5614
TARALLUCCI E VINO,50051662,44 E 28TH ST,"NEW YORK, NY 10016",Manhattan,988359,210255,Italian,212-779-1100
TARTINA,50061295,1034 AMSTERDAM AVE,"NEW YORK, NY 10025",Manhattan,994371,232042,Other,646-590-0057
TASTE OF CHINA,50060371,7824 20TH AVE,"BROOKLYN, NY 11214",Brooklyn,985985,161132,Chinese,718-256-3838
TASTE OF CHINA,50071610,6824 FRESH MEADOW LN,"FRESH MEADOWS, NY 11365",Queens,1041183,206502,Other,718-461-1210
TAYLOR ST BARISTAS,50047638,285 MADISON AVE,"NEW YORK, NY 10017",Manhattan,989781,213162,Cafe/Coffee/Tea,718-662-0870
TAZZINA,50013800,10215 METROPOLITAN AVE,"FOREST HILLS, NY 11375",Queens,1025648,198144,Italian,718-374-3890
TEDS CORNER TAVERN,50002915,523 3RD AVENUE,"NEW YORK, NY 10016",Manhattan,990429,211170,Greek,212-689-2676
TELEIO THE GOURMET BAGEL SHOPPE,50035515,3864 FLATLANDS AVE,"BROOKLYN, NY 11234",Brooklyn,1001691,165183,Bakery,718-377-5500
TERRI,50043722,685 3RD AVE,"NEW YORK, NY 10017",Manhattan,991504,213112,Vegetarian,212-203-9132
TETSU,50064858,78 LEONARD ST,"NEW YORK, NY 10013",Manhattan,982847,200622,Other,212-823-9808
TEXAS CHICKEN & BURGER,50036406,2168 WESTCHESTER AVE,"BRONX, NY 10462",Bronx,1025086,243201,Chicken,917-634-9901
TEXAS CHICKEN & BURGERS,50037751,2104 CROTONA PKWY,"BRONX, NY 10460",Bronx,1016356,247522,American ,718-563-2668
TEXAS CHICKEN& BURGERS,50016101,2660 3RD AVE,"BRONX, NY 10454",Bronx,1005407,235465,Chicken,347-271-9319
THAI ASIAN CUISINE,50039695,24911 NORTHERN BLVD,"LITTLE NECK, NY 11362",Queens,1056812,219184,Thai,718-229-8788
THAI PEPPERCORN,50069723,1750 1ST AVE,"NEW YORK, NY 10128",Manhattan,998873,223398,Thai,212-410-6900
THAI POT,50063072,10307 QUEENS BLVD,"FOREST HILLS, NY 11375",Queens,1025768,203390,Thai,718-897-3898
THAI SOUP,50018216,166 E 118TH ST,"NEW YORK, NY 10035",Manhattan,1000890,230600,Thai,917-475-1656
THAI WOK,50045565,1406 MADISON AVE,"NEW YORK, NY 10029",Manhattan,997134,226439,Thai,212-987-6185
THE BISTRO AT THE COURTYARD & RESIDENCE INN BY MARRIOTT,50040950,1717 BROADWAY,"NEW YORK, NY 10019",Manhattan,989135,217754,American ,212-324-3773
The Blvd Restaurant and Lounge,50008546,1911 FRANCIS LEWIS BLVD,"WHITESTONE, NY 11357",Queens,1038825,223813,American ,718-747-2583
THE BOOGIE DOWN GRIND CAFE,50060174,866 HUNTS POINT AVE,"BRONX, NY 10474",Bronx,1015016,237351,Cafe/Coffee/Tea,718-874-7313
THE BRASS TAP,50044342,4 SOUTH ST,"NEW YORK, NY 10004",Manhattan,981025,194923,American ,212-320-9542
THE CROWN,50064551,50 BOWERY,"NEW YORK, NY 10013",Manhattan,985254,200048,American ,646-630-8057
THE CROWN ROOM,50062931,3917 BELL BLVD,"BAYSIDE, NY 11361",Queens,1047482,218086,American ,646-420-6124
THE DAISY,50037614,1641 2ND AVE,"NEW YORK, NY 10028",Manhattan,997507,222491,American ,646-964-5756
THE DEEP END,50055407,1080 WYCKOFF AVE,"RIDGEWOOD, NY 11385",Queens,1011310,192362,American ,617-230-2531
The Ditty,50044012,3503 DITMARS BLVD,"ASTORIA, NY 11105",Queens,1009516,221565,American ,212-991-8298
THE DOLAR SHOP,50043433,13353 37TH AVE,"FLUSHING, NY 11354",Queens,1030549,216541,Other,917-567-2933
THE DOUGHNUT PROJECT,50039585,10 MORTON ST,"NEW YORK, NY 10014",Manhattan,983271,205721,Donuts,212-691-5000
THE FAMOUS JIMBO'S HAMBURGER PALACE,50017209,1977 JEROME AVE,"BRONX, NY 10453",Bronx,1009468,249773,Hamburgers,347-225-1415
THE FEDERAL BAR BROOKLYN,50037756,367 METROPOLITAN AVE,"BROOKLYN, NY 11211",Brooklyn,996509,199444,American ,718-388-8417
THE GLOBE TAVERN,50007626,4910 SKILLMAN AVE,"WOODSIDE, NY 11377",Queens,1007794,211154,Irish,718-651-2558
THE GREEN STREET LIC,50052980,1039 47TH RD,"LONG ISLAND CITY, NY 11101",Queens,997435,210565,Korean,646-681-1109
THE GRUMPY CAT BAR,50065727,480 62ND ST,"BROOKLYN, NY 11220",Brooklyn,979265,171973,American ,929-337-7622
THE GUTTER,50058979,1022 46TH AVE,"LONG ISLAND CITY, NY 11101",Queens,997552,211333,American ,929-328-0409
THE HANDPULLED NOODLE,50018481,3600 BROADWAY,"NEW YORK, NY 10031",Manhattan,998372,241104,Asian,917-262-0213
The Hunan Cottage,50056087,293 AVENUE X,"BROOKLYN, NY 11223",Brooklyn,992043,154364,Chinese,718-998-7505
THE HUNTING CLUB,50069593,2503 WILLIAMSBRIDGE RD,"BRONX, NY 10469",Bronx,1023483,253800,Cafe/Coffee/Tea,646-302-7210
THE JOHNSON'S,50005465,369 TROUTMAN ST,"BROOKLYN, NY 11237",Brooklyn,1005421,196427,American ,718-417-7100
THE JUICE PRESS,50070429,330 E 61ST ST,"NEW YORK, NY 10065",Manhattan,994739,216643,"Juice, Smoothies, Fruit Salads",212-784-2034
THE JUICE THEORY,50060068,514 KINGS HWY,"BROOKLYN, NY 11223",Brooklyn,992409,159462,Vegetarian,718-676-2128
THE KATI ROLL COMPANY,50055926,128 2ND AVE,"NEW YORK, NY 10003",Manhattan,987636,204662,Indian,646-398-7710
THE KATI ROLL COMPANY,50070981,685 3RD AVE,"NEW YORK, NY 10017",Manhattan,991504,213112,Other,212-730-0674
THE KING OF TACOS,50059605,9017 31ST AVE,"EAST ELMHURST, NY 11369",Queens,1017951,216206,Mexican,718-424-0299
THE LEGEND KTV,50045538,947 61ST ST,"BROOKLYN, NY 11219",Brooklyn,982322,169889,Chinese,718-686-1888
THE LOWERY BAR & KITCHEN,50046674,4302 43RD AVE,"SUNNYSIDE, NY 11104",Queens,1006146,210782,American ,929-208-0054
THE MARKET,50018060,372 LAFAYETTE AVE,"BROOKLYN, NY 11238",Brooklyn,995136,190223,Asian,347-987-3692
The Meatball Shop,50008329,447 AMSTERDAM AVE,"NEW YORK, NY 10024",Manhattan,990573,225173,American ,212-422-1752
THE METROPOLITAN RESTAURANT & LOUNGE,50063681,4916 ARTHUR KILL RD,"STATEN ISLAND, NY 10309",Staten Island,917729,129736,American ,347-352-1877
THE MILES COFFEE BAR,50056982,4039 E TREMONT AVE,"BRONX, NY 10465",Bronx,1034761,237906,Cafe/Coffee/Tea,917-513-2392
THE MILL COFFEE HOUSE,50011633,4461 11TH ST,"LONG ISLAND CITY, NY 11101",Queens,998187,211872,Cafe/Coffee/Tea,718-310-6100
THE MONK,50012424,6867 FRESH POND RD,"RIDGEWOOD, NY 11385",Queens,1013232,195591,American ,347-987-4097
THE NOLITAN HOTEL,50064208,30 KENMARE ST,"NEW YORK, NY 10012",Manhattan,985588,201842,Other,212-966-6686
THE NOURISH SPOT,50067310,10705 GUY R BREWER BLVD,"JAMAICA, NY 11433",Queens,1041874,193598,"Juice, Smoothies, Fruit Salads",718-526-2099
THE OASIS,50016146,12311 LIBERTY AVE,"SOUTH RICHMOND HILL, NY 11419",Queens,1033975,189835,Caribbean,718-843-6108
THE OLD SIAM RESTAURANT AND BAR,50004825,6912 AUSTIN ST,"FOREST HILLS, NY 11375",Queens,1026238,202183,Thai,718-544-6444
THE OLIVE GARDEN ITALIAN RESTAURANT,50048600,100 W 125TH ST,"NEW YORK, NY 10027",Manhattan,999269,233613,Italian,212-534-7937
THE OTHER PLACE,50004192,10319 METROPOLITAN AVE,"FOREST HILLS, NY 11375",Queens,1026042,198063,American ,718-575-8999
THE OZONE DINER,50043733,13335 79TH ST,"HOWARD BEACH, NY 11414",Queens,,,American ,718-296-3141
THE PANDERING PIG,50046003,209 PINEHURST AVE,"NEW YORK, NY 10033",Manhattan,1001387,250620,French,917-941-7033
THE PEARL ROOM,50045873,8518 3RD AVE,"BROOKLYN, NY 11209",Brooklyn,975696,166650,Seafood,718-833-6666
THE QUEENSBORO,50071252,8002 NORTHERN BLVD,"JACKSON HEIGHTS, NY 11372",Queens,1015537,214499,Other,917-673-3464
THE REALREAL,50071019,80 WOOSTER ST,"NEW YORK, NY 10012",Manhattan,983829,202935,Other,646-745-6711
THE RINGSIDE CAFE,50035335,28 W 20TH ST,"NEW YORK, NY 10011",Manhattan,986455,208925,Cafe/Coffee/Tea,646-666-0756
THE SHIP,50010426,158 LAFAYETTE ST,"NEW YORK, NY 10013",Manhattan,984437,201509,American ,212-219-8496
THE SOSTA,50062819,52 KENMARE ST,"NEW YORK, NY 10012",Manhattan,985469,201895,Italian,212-329-2693
"THE STANDARD, HIGH LINE",50071497,848 WASHINGTON ST,"NEW YORK, NY 10014",Manhattan,982111,209106,Other,212-784-4549
THE STRAND BISTRO,50044574,33 W 37TH ST,"NEW YORK, NY 10018",Manhattan,988575,212837,American ,212-584-4000
THE TRUSTEES OF COLUMBIA IN THE CITY OF NY,50050878,533 W 218TH ST,"NEW YORK, NY 10034",Manhattan,1007535,256956,American ,212-854-8324
THE TRUSTEES OF COLUMBIA UNIVERSITY,50050864,533 W 218TH ST,"NEW YORK, NY 10034",Manhattan,1007535,256956,Hotdogs,212-854-8324
THE TRUSTEES OF COLUMBIA UNIVERSITY IN THE CITY OF NY,50050873,533 W 218TH ST,"NEW YORK, NY 10034",Manhattan,1007535,256956,Hotdogs,212-854-8324
THE WILD SON,50013511,53 LITTLE WEST 12TH STREET,"NEW YORK, NY 10014",Manhattan,981892,209073,Spanish,212-488-0000
THELEWALA,50046379,112 MACDOUGAL ST,"NEW YORK, NY 10012",Manhattan,984025,205089,Indian,212-614-9100
THINK COFFEE,50018968,208 W 13TH ST,"NEW YORK, NY 10011",Manhattan,984083,208162,Cafe/Coffee/Tea,917-692-2571
THINK COFFEE,50036254,620 W 42ND ST,"NEW YORK, NY 10036",Manhattan,984495,216585,Cafe/Coffee/Tea,646-964-4851
THOMAS PIZZA,50069666,9023 37TH AVE,"JACKSON HEIGHTS, NY 11372",Queens,1018443,212753,Pizza,718-898-0347
THREE SEAT ESPRESSO,50055393,137 AVENUE A,"NEW YORK, NY 10009",Manhattan,989000,204142,Cafe/Coffee/Tea,917-274-9263
THRID FLOOR CAFE,50059822,315 5TH AVE,"NEW YORK, NY 10016",Manhattan,988241,211430,Korean,646-998-3409
TIAN BAO RESTAURANT,50060094,4128 MAIN ST,"FLUSHING, NY 11355",Queens,1031603,215248,Chinese,718-930-6000
TILTED KILT PUB AND EATERY,50060358,185 BRICKTOWN WAY,"STATEN ISLAND, NY 10309",Staten Island,919920,132283,Irish,856-267-5644
TINTO,50007230,715 NOSTRAND AVE,"BROOKLYN, NY 11216",Brooklyn,998062,184419,Cafe/Coffee/Tea,347-663-8040
TITO RADS GRILL,50008904,4910 QUEENS BLVD,"WOODSIDE, NY 11377",Queens,1007629,209909,Filipino,718-205-7299
TOBY'S PUBLIC HOUSE,50061539,215 COLUMBIA ST,"BROOKLYN, NY 11231",Brooklyn,983466,188749,American ,347-689-4209
TOMS,50019088,264 ELIZABETH ST,"NEW YORK, NY 10012",Manhattan,986000,202992,Cafe/Coffee/Tea,212-219-8392
TONI SAZON,50064901,1326 NEWKIRK AVE,"BROOKLYN, NY 11230",Brooklyn,994023,170559,Spanish,718-859-5009
TONY PEPPERONI,50067979,7502 18TH AVE,"BROOKLYN, NY 11214",Brooklyn,985334,162715,Pizza,718-484-8073
TOSKANA PIZZERIA RESTAURANT,50041997,24825 NORTHERN BLVD,"LITTLE NECK, NY 11362",Queens,1056652,219003,Pizza/Italian,718-225-2887
TRENDZ,50062995,8906 DITMAS AVE,"BROOKLYN, NY 11236",Brooklyn,1007742,175261,Other,347-593-6320
TROPICAL JERK,50004629,1209 40TH AVE,"LONG ISLAND CITY, NY 11101",Queens,1000137,214706,Caribbean,516-439-6534
TROPICAL PARADISE RESTAURANT AND BAKERY,50033454,888 UTICA AVE,"BROOKLYN, NY 11203",Brooklyn,1003578,176570,Caribbean,718-629-3500
TROPICAL RESTAURANT,50059192,1323 RANDALL AVE,"BRONX, NY 10474",Bronx,1016151,235275,"Latin (Cuban, Dominican, Puerto Rican, South & Central American)",929-263-1082
TROQUET,50060523,155 GRAND ST,"NEW YORK, NY 10013",Manhattan,984552,201578,French,212-343-4295
TRUE CARIBBEAN TASTE,50055653,839 BURKE AVE,"BRONX, NY 10467",Bronx,1022383,256767,Caribbean,347-326-6820
TRUE NORTH BROOKLYN,50059150,561 LORIMER ST,"BROOKLYN, NY 11211",Brooklyn,998299,199306,Cafe/Coffee/Tea,646-284-0268
TRUMP GOLF LINKS AT FERRY POINT,50032865,500 HUTCHINSON RIVER PKWY,"BRONX, NY 10465",Bronx,1029767,235157,American ,784-414-1555
TRUVA CAFE & GRILL,50017442,2241 31ST ST,"ASTORIA, NY 11105",Queens,1008682,221725,Turkish,718-932-6400
TST CAFE,50055665,7 TIMES SQ,"NEW YORK, NY 10036",Manhattan,987940,214677,American ,973-464-1863
TSURUTONTAN UDON NOODLE BRASSERIE,50051545,21 E 16TH ST,"NEW YORK, NY 10003",Manhattan,986442,207823,Japanese,212-989-1000
TUK TUK,50038374,4906 VERNON BLVD,"LONG ISLAND CITY, NY 11101",Queens,997017,210079,Thai,718-472-5598
TULCINGO RESTAURANT,50033484,9558 ROOSEVELT AVE,"JACKSON HEIGHTS, NY 11372",Queens,1020258,212216,Mexican,718-424-0404
TURNTABLE CHICKEN JAZZ,50061140,20 W 33RD ST,"NEW YORK, NY 10001",Manhattan,988137,211848,Korean,212-714-9700
TURNTABLE LP BAR,50055651,34 W 32ND ST,"NEW YORK, NY 10001",Manhattan,987824,211730,Korean,347-414-1881
TUTI'S PIZZERIA RESTAURANT,50040670,34 W 183RD ST,"BRONX, NY 10453",Bronx,1010468,252178,Pizza,646-500-4985
TWIN DONUT,50032812,5099 BROADWAY,"NEW YORK, NY 10034",Manhattan,1007988,256672,Donuts,914-779-7100
TWIST AND SMASH'D SPORTS,50007972,3402 STEINWAY ST,"LONG ISLAND CITY, NY 11101",Queens,1006114,214875,American ,718-937-6622
TWO BOOTS MIDTOWN EAST,50047981,337 LEXINGTON AVE,"NEW YORK, NY 10016",Manhattan,990533,212405,Pizza,212-557-7992
TWO BOOTS TO GO WEST,50059711,201 W 11TH ST,"NEW YORK, NY 10014",Manhattan,983911,207621,Pizza,212-633-9096
TWO GOOD RUSTIC HOUSE,50059756,5101 108TH ST,"CORONA, NY 11368",Queens,1024371,210315,Italian,718-699-0022
TWO TABLESPOONS,50038788,230 PARK AVE,"NEW YORK, NY 10169",Manhattan,990913,214165,Vegetarian,917-446-5688
TYGERSHARK,50040137,581 VANDERBILT AVE,"BROOKLYN, NY 11238",Brooklyn,993159,187153,Seafood,718-576-6233
U CAFE,50010514,706 AVENUE U,"BROOKLYN, NY 11223",Brooklyn,994276,157146,Cafe/Coffee/Tea,347-549-5106
U IZIKA,50036464,200 NEPTUNE AVE,"BROOKLYN, NY 11235",Brooklyn,995182,151245,Eastern European,718-838-7777
UES.,50071362,1707 2ND AVE,"NEW YORK, NY 10128",Manhattan,997924,223247,Other,702-326-6157
UMA TEMAKERIA,50014521,64 7TH AVE,"NEW YORK, NY 10011",Manhattan,984356,208390,Japanese,646-360-3260
UMA TEMAKERIA,50043284,600 11TH AVE,"NEW YORK, NY 10036",Manhattan,985047,217061,Japanese,917-370-5883
UMAI RAMEN,50053905,6320 18TH AVE,"BROOKLYN, NY 11204",Brooklyn,987207,165147,Japanese,917-930-9369
UNCLE AL'S,50044525,3841 E TREMONT AVE,"BRONX, NY 10465",Bronx,1034066,239516,Soul Food,917-807-6639
UNCLE JACK'S MEAT HOUSE,50065797,3618 DITMARS BLVD,"ASTORIA, NY 11105",Queens,1009731,221357,Other,718-229-9110
UNCLE LOUIE G,50049681,270 WATCHOGUE RD,"STATEN ISLAND, NY 10314",Staten Island,945820,163771,"Ice Cream, Gelato, Yogurt, Ices",718-673-4007
UNCLE LOUIE GS ITALIAN ICES & ICE CREAM,50008544,9210 ROCKAWAY BEACH BLVD,"ROCKAWAY BEACH, NY 11693",Queens,1035442,152958,"Ice Cream, Gelato, Yogurt, Ices",516-582-9069
UNCLE LOUIE GS ITALIAN ICES & ICE CREAM,50038817,319 7TH AVE,"BROOKLYN, NY 11215",Brooklyn,989428,182343,"Ice Cream, Gelato, Yogurt, Ices",718-965-4237
UNDERLINE COFFEE,50003674,511 W. 20TH STREET,"NEW YORK, NY 10011",Manhattan,982476,211134,Cafe/Coffee/Tea,347-331-4677
UNTAMED SANDWICHES,50004852,43 W 39TH ST,"NEW YORK, NY 10018",Manhattan,988762,213323,American ,646-669-9397
UNTAMED SANDWICHES,50056746,117 ADAMS ST,"BROOKLYN, NY 11201",Brooklyn,987394,194536,Sandwiches,718-360-2956
UNTAMED SANDWICHES,50068466,643 LEXINGTON AVE,"NEW YORK, NY 10022",Manhattan,992464,215888,Other,646- 88-82 1
UPLAND,50011590,345 PARK AVE S,"NEW YORK, NY 10010",Manhattan,988319,209465,American ,212-686-1006
UPPER 90 SOCCER,50058631,3423 38TH ST,"LONG ISLAND CITY, NY 11101",Queens,1005851,214927,Cafe/Coffee/Tea,646-863-7076
UPSTATE STOCK,50046992,2 BERRY ST,"BROOKLYN, NY 11249",Brooklyn,996751,202470,Cafe/Coffee/Tea,347-330-3002
UPTOWN BOURBON,50046048,3631 BROADWAY,"NEW YORK, NY 10031",Manhattan,998533,241407,Cafe/Coffee/Tea,646-918-6627
VAN LEEWEN ARTISAN ICE CREAM,50068380,172 LUDLOW ST,"NEW YORK, NY 10002",Manhattan,987699,202186,"Ice Cream, Gelato, Yogurt, Ices",718-701-1630
VAPOR LOUNGE,50007874,3758 E TREMONT AVE,"BRONX, NY 10465",Bronx,1033685,240235,American ,347-281-5995
VATAN,50036651,409 3RD AVE,"NEW YORK, NY 10016",Manhattan,989643,209752,Indian,212-689-5666
VAYA,50059105,2022 EASTCHESTER RD,"BRONX, NY 10461",Bronx,1027558,250416,Mexican,718-536-2956
VB BAKERY,50044665,3558 97TH ST,"CORONA, NY 11368",Queens,1020190,213455,Bakery,718-899-0058
VERONA PIZZA,50013099,2515 BOSTON RD,"BRONX, NY 10467",Bronx,1021591,253940,Pizza/Italian,347-963-9093
VERSAILLES PALACE,50058250,6334 AUSTIN ST,"REGO PARK, NY 11374",Queens,1021641,204439,Jewish/Kosher,718-459-2800
VERTS MEDITERRANEAN GRILL,50061055,24 E 23RD ST,"NEW YORK, NY 10010",Manhattan,987659,209149,Mediterranean,646-858-0609
Via Vai,50010994,3109 23RD AVE,"ASTORIA, NY 11105",Queens,1008419,221380,Italian,917-376-5356
VICTORY CAFE (Armory Track),50043445,216 FORT WASHINGTON AVE,"NEW YORK, NY 10032",Manhattan,1000271,246254,American ,212-923-1803
VIIZA,50046213,5401 8TH AVE,"BROOKLYN, NY 11220",Brooklyn,982551,172004,Pizza,718-851-6788
VIN SUR VINGT,50017101,1 WEST 59 STREET,"NEW YORK, NY 10019",Manhattan,991528,217841,French,646-559-9429
VITAL BLENDS,50018664,253 SCHENECTADY AVE,"BROOKLYN, NY 11213",Brooklyn,1002621,183389,"Juice, Smoothies, Fruit Salads",347-898-2328
Vite-Vinosteria,50010695,3105 34TH ST,"ASTORIA, NY 11106",Queens,1006020,217186,Italian,718-278-8483
VIVA MIS EMPANADAS,50018441,13311 CROSSBAY BLVD,"OZONE PARK, NY 11417",Queens,1027721,185323,Mexican,718-322-7460
VIVI BUBBLE TEA,50059003,2169 86TH ST,"BROOKLYN, NY 11214",Brooklyn,985826,158702,"Juice, Smoothies, Fruit Salads",718-532-6561
VIVI BUBBLE TEA,50061199,325 BROADWAY,"NEW YORK, NY 10007",Manhattan,982923,200134,Cafe/Coffee/Tea,212-962-0033
WA SUSHI & THAI,50018530,2249 CHURCH AVE,"BROOKLYN, NY 11226",Brooklyn,995964,176253,Chinese/Japanese,718-484-8797
WAFA'S EXPRESS,50058161,812 GRAND ST,"BROOKLYN, NY 11211",Brooklyn,1000589,198652,Middle Eastern,718-576-3547
WAFELS & DINGES,50034302,41 W 40TH ST,"NEW YORK, NY 10018",Manhattan,988899,213541,Bakery,646-257-2592
WALDORF ASTORIA HOTEL(EMPLOYEE CAFETERIA),50039218,301 PARK AVE,"NEW YORK, NY 10022",Manhattan,991354,214945,American ,212-872-4866
WALDORF ASTORIA NYC-SIR HARRY'S,50037132,301 PARK AVE,"NEW YORK, NY 10022",Manhattan,991354,214945,American ,212-355-3000
WALLABOUT BAY SEAFOOD RESTAURANT & BAR,50037861,271 ADELPHI ST,"BROOKLYN, NY 11205",Brooklyn,992271,190397,Seafood,718-923-0100
WASABI SUSHI BENTO,50003485,561 SEVENTH AVENUE,"NEW YORK, NY 10018",Manhattan,987626,214285,Japanese,212-575-1410
WATERSIDE CAFE,50038254,25 WATERSIDE PLZ,"NEW YORK, NY 10010",Manhattan,991427,207908,American ,917-561-5148
WENDY'S,50008124,3179 ATLANTIC AVE,"BROOKLYN, NY 11208",Brooklyn,1018082,186989,Hamburgers,718-827-3408
WENDY'S,50008136,3939 BROADWAY,"NEW YORK, NY 10032",Manhattan,1000474,244910,American ,973-597-6433
WENDY'S,50008137,2121 3RD AVE,"NEW YORK, NY 10029",Manhattan,1000829,229941,Hamburgers,212-996-4020
WENDY'S,50008138,79 E 125TH ST,"NEW YORK, NY 10035",Manhattan,1000921,232704,American ,646-370-6737
WENDY'S,50044340,4 SOUTH ST,"NEW YORK, NY 10004",Manhattan,981025,194923,American ,718-524-0080
WENDY'S,50056425,7811 FLATLANDS AVE,"BROOKLYN, NY 11236",Brooklyn,1007950,170512,American ,718-251-1801
WENDY'S,50056428,9001 DITMAS AVE,"BROOKLYN, NY 11236",Brooklyn,1007942,175439,American ,718-345-4763
WENDY'S,50056430,1601 UTICA AVE,"BROOKLYN, NY 11234",Brooklyn,1004122,170027,American ,973-597-6433
WENDY'S,50058133,22006 NORTHERN BLVD,"BAYSIDE, NY 11361",Queens,1050327,216793,Hamburgers,973-597-6433
WENDY'S,50058134,6902 NORTHERN BLVD,"WOODSIDE, NY 11377",Queens,1012693,214102,Hamburgers,973-597-6433
WENDY'S,50058135,15533 JAMAICA AVE,"JAMAICA, NY 11432",Queens,1039558,195555,Hamburgers,973-597-6433
WENDY'S,50058136,9013 METROPOLITAN AVE,"REGO PARK, NY 11374",Queens,1023257,198629,Hamburgers,718-275-6221
WENDY'S,50058137,13350 WHITESTONE EXPY,"FLUSHING, NY 11354",Queens,1029819,219364,Hamburgers,718-762-4055
WENDY'S,50058141,6111 FRESH POND RD,"MIDDLE VILLAGE, NY 11379",Queens,1011667,199586,Other,973-597-6433
WENDY'S,50058145,150TH AVENUE,"JAMAICA, NY 11430",Queens,,,American ,718-553-6037
WENDY'S,50059108,7232 BROADWAY,"JACKSON HEIGHTS, NY 11372",Queens,1013821,211620,Hamburgers,718-458-1921
WENZHOU NOODLE RESTAURANT,50053934,4112 COLLEGE POINT BLVD,"FLUSHING, NY 11355",Queens,1030360,214742,Chinese,718-358-0058
WERKSTATT,50036603,509 CONEY ISLAND AVE,"BROOKLYN, NY 11218",Brooklyn,992436,174342,American ,718-284-5800
WESTVILLE,50018580,333 HUDSON ST,"NEW YORK, NY 10013",Manhattan,982205,204153,American ,212-776-1404
WHILE IN KATHMANDU,50058619,758 SENECA AVE,"RIDGEWOOD, NY 11385",Queens,1010118,195126,Asian,718-386-3416
WHITE OAK TAVERN,50006260,21 WAVERLY PL,"NEW YORK, NY 10003",Manhattan,985743,205329,American ,212-260-2604
WHITMANS,50018788,700 8TH AVE,"NEW YORK, NY 10036",Manhattan,987370,215678,Hamburgers,917-338-0927
WICHCRAFT,50049611,325 BROADWAY,"NEW YORK, NY 10007",Manhattan,982923,200134,Sandwiches,212-780-0577
WICKED JUICE & KITCHEN,50045113,88 W BROADWAY,"NEW YORK, NY 10007",Manhattan,981625,199857,"Juice, Smoothies, Fruit Salads",908-244-8130
Wickedness Bar and Lounge,50059759,17102 JAMAICA AVE,"JAMAICA, NY 11432",Queens,1042865,197100,"Bottled beverages, including water, sodas, juices, etc.",718-413-9994
WIFEY,50067470,336 FLATBUSH AVE,"BROOKLYN, NY 11238",Brooklyn,992065,185670,Cafe/Coffee/Tea,347-678-7910
WILLIAMS CAFE,50036001,122 WESTCHESTER SQ,"BRONX, NY 10461",Bronx,1011629,248134,American ,347-293-5078
WINE TIME,50010900,40-45 235TH STREET,"DOUGLASTON, NY 11363",Queens,1053701,219601,American ,347-502-7274
WINE:34,50040779,127 E 34TH ST,"NEW YORK, NY 10016",Manhattan,989750,211280,Italian,917-536-2339
WINGSTOP,50037410,63 W 125TH ST,"NEW YORK, NY 10027",Manhattan,999633,233417,Chicken,212-987-9464
WINGSTOP,50051369,88 E BURNSIDE AVE,"BRONX, NY 10453",Bronx,1010294,250150,American ,201-892-7471
WOK CHI,50052989,918 3RD AVE,"NEW YORK, NY 10022",Manhattan,993028,215873,Chinese,646-564-2255
WOLFGANG'S STEAKHOUSE BOUTIQUE,50036578,16 E 46TH ST,"NEW YORK, NY 10017",Manhattan,990294,214588,Steak,212-490-8300
WOW CAFE AND GRILL,50055486,12 BRIGHTON 11TH ST,"BROOKLYN, NY 11235",Brooklyn,996385,151289,American ,718-975-4520
WXYZ BAR,50017226,49 ANN ST,"NEW YORK, NY 10038",Manhattan,982357,198060,American ,212-513-0003
XIN,50053144,8324 3RD AVE,"BROOKLYN, NY 11209",Brooklyn,975853,167155,Chinese,347-662-6222
XM CAFE,50040745,1040 GRAND CONCOURSE,"BRONX, NY 10456",Bronx,1006289,242067,American ,646-326-2840
YAKINIKU FUTAGO,50034945,37 W 17TH ST,"NEW YORK, NY 10011",Manhattan,986043,208323,Japanese,212-620-0225
YARDIES JERK,50033580,19818 LINDEN BLVD,"SAINT ALBANS, NY 11412",Queens,1052514,192215,Caribbean,718-749-5782
YASO TANGBAO,50041422,148 LAWRENCE ST,"BROOKLYN, NY 11201",Brooklyn,988049,191336,Chinese,929-337-7599
YASO TANGBAO,50068330,253 36TH ST,"BROOKLYN, NY 11232",Brooklyn,982265,178264,Chinese,917-544-7501
YASO TANGBAO,50070091,220 E 42ND ST,"NEW YORK, NY 10017",Manhattan,991660,212616,Other,917-544-4750
YAYA'S  CHICKEN AND WAFFLES,50046626,1118 CASTLETON AVE,"STATEN ISLAND, NY 10310",Staten Island,950962,170398,American ,718-600-2526
YINYANG COFFEE & TEA,50059614,9104 3RD AVE,"BROOKLYN, NY 11209",Brooklyn,975215,165109,"Ice Cream, Gelato, Yogurt, Ices",321-262-5693
YO! SUSHI,50056138,23 W 23RD ST,"NEW YORK, NY 10010",Manhattan,986866,209598,Japanese,646-781-8640
YOGURT COUTURE,50033794,21267A 26TH AVE,"BAYSIDE, NY 11360",Queens,1045975,222919,"Ice Cream, Gelato, Yogurt, Ices",718-819-8054
YOO EVERGREEN,50050524,504A E 98TH ST,"BROOKLYN, NY 11212",Brooklyn,1008249,178479,American ,646-379-6814
YOSWEETS,50047518,756 W 181ST ST,"NEW YORK, NY 10033",Manhattan,1001478,249231,"Ice Cream, Gelato, Yogurt, Ices",646-691-8712
YOUZI SHANGHAI,50057658,4128 MAIN ST,"FLUSHING, NY 11355",Queens,1031603,215248,Chinese,718-321-2663
YU GARDEN DUMPLING HOUSE,50008967,4620 KISSENA BLVD,"FLUSHING, NY 11355",Queens,1034500,212631,Chinese,718-886-2676
YUAN MENG GOURMET,50065694,4508 8TH AVE,"BROOKLYN, NY 11220",Brooklyn,983993,173833,Chinese,718-686-6066
YUM YUM BANGKOK,50007437,650 9TH AVE,"NEW YORK, NY 10036",Manhattan,986747,216409,Thai,212-262-7244
YUMMY GRILL,50053424,1519 AVENUE J,"BROOKLYN, NY 11230",Brooklyn,995139,167076,Jewish/Kosher,718-872-5513
YUMMY MACHI,50069610,2236 FOREST AVE,"STATEN ISLAND, NY 10303",Staten Island,938693,167722,Japanese,718-876-7788
YUMMY YUMMY,50065137,782 47TH ST,"BROOKLYN, NY 11220",Brooklyn,983542,173591,Chinese,718-851-9688
YUZU,50033552,350 LENOX AVE,"NEW YORK, NY 10027",Manhattan,999680,234180,Japanese,646-861-3883
YVES,50049031,385 GREENWICH ST,"NEW YORK, NY 10013",Manhattan,981435,201669,American ,212-431-3385
ZAIQA RESTAURANT,50071320,2031 BATH AVE,"BROOKLYN, NY 11214",Brooklyn,984083,158166,Middle Eastern,718-975-7702
ZHOU'S YUMMY RESTAURANT,50003130,4117 UNION STREET,"FLUSHING, NY 11355",Queens,1032536,215776,Chinese,347-732-4081
ZUCCHERO E POMODORI,50043112,1435 2ND AVE,"NEW YORK, NY 10021",Manhattan,996135,220017,Italian,212-585-2100
